businessName,phoneNumber,streetaddress,city,state,zipcode,country,address,longitude,latitude,websiteUrl,Image 1,Image 2,Image 3,category
Jazeera Halal Market,(510) 263-9058,"1525 Webster Street, Alameda",Alameda,California,94501,United States,"1525 Webster St, Alameda, CA 94501, USA",37.7741417,-122.2769405,http://www.jazeeramarket.com/,https://apneyyimages.s3.eu-north-1.amazonaws.com/Grocery/a+1950s+grocery+store.png,https://apneyyimages.s3.eu-north-1.amazonaws.com/Grocery/in+a+grocery+store.png,https://apneyyimages.s3.eu-north-1.amazonaws.com/Grocery/grocery+collage+poster.png,Grocery
Namaste,,"27131 Aliso Creek Road Ste 150, Aliso Viejo",Aliso Viejo,California,92656,United States,"27131 Aliso Creek Rd Ste 150, Aliso Viejo, CA 92656, USA",33.5675875,-117.7242819,http://www.namastebites.com/,https://apneyyimages.s3.eu-north-1.amazonaws.com/Restaurant/_bowl+Grilled+Chicken+Caesar+Salad%2C+gourmet+salad%2C+lunch%2C+flavorful+creation%2C+film+camera%2C+street+food+photography%2C+(1).png,https://apneyyimages.s3.eu-north-1.amazonaws.com/Restaurant/Indian+Chicken+Curry%2C+Indian+food+Photography+(1).png,https://apneyyimages.s3.eu-north-1.amazonaws.com/Restaurant/Delicious+gyros+fast+food+in+flatbread%2C+lettuce%2C+tomatoes%2C+onions%2C+rolled%2C+isolated%2C+generative+ai.png,Restaurant
Indian Vegetarian Tiffin Service,(916) 743-5024,"7714 Bradshaw Road, Sacramento",Sacramento,California,95829,United States,"7714 Bradshaw Rd, Sacramento, CA 95829, USA",38.4783954,-121.3372461,,https://apneyyimages.s3.eu-north-1.amazonaws.com/home+cleaner/Photo%2C+cleaner%2C+professional+cleaner%2C+on+a+blue+background.png,https://apneyyimages.s3.eu-north-1.amazonaws.com/home+cleaner/Photo%2C+cleaner%2C+professional+cleaner%2C+on+a+blue+background.png,https://apneyyimages.s3.eu-north-1.amazonaws.com/home+cleaner/A+cleaner+at+work.png,Home service
India Appliances,(562) 402-3392,"18634 Pioneer Boulevard, Artesia",Artesia,California,90701,United States,"18634 Pioneer Blvd, Artesia, CA 90701, USA",33.861864,-118.0820072,,https://apneyyimages.s3.eu-north-1.amazonaws.com/home+cleaner/Caucasian+man+uses+vacuum+cleaner+to+keep+living+space+tidy.+Man+with+vacuum+cleaner+in+hand+ensures+home+remaining+tidy+place+to+live.+Vertical+photo.png,https://apneyyimages.s3.eu-north-1.amazonaws.com/home+cleaner/Caucasian+man+uses+vacuum+cleaner+to+keep+living+space+tidy.+Man+with+vacuum+cleaner+in+hand+ensures+home+remaining+tidy+place+to+live.+Vertical+photo.png,https://apneyyimages.s3.eu-north-1.amazonaws.com/home+cleaner/Photo%2C+cleaner%2C+professional+cleaner%2C+on+a+blue+background.png,Home service
"Sidhu Truck Line, Inc.",(661) 735-1111,"4711 Commercial Street, Bakersfield",Bakersfield,California,93308,United States,"4711 Commercial St, Bakersfield, CA 93308, USA",35.3803848,-119.0552005,http://www.sidhutruckline.com/,https://apneyyimages.s3.eu-north-1.amazonaws.com/Truck/pexels-alexander-112080889-9739039.jpg,https://apneyyimages.s3.eu-north-1.amazonaws.com/Truck/pexels-ibnulharezmi-5410923.jpg,https://apneyyimages.s3.eu-north-1.amazonaws.com/Truck/pexels-robertkso-18468412.jpg,Truck
SK Indian Food,(661) 569-2253,"7500 Rosedale Highway, Bakersfield",Bakersfield,California,93308,United States,"7500 Rosedale Hwy, Bakersfield, CA 93308, USA",35.3844161,-119.0861731,,https://apneyyimages.s3.eu-north-1.amazonaws.com/Restaurant/_bowl+Grilled+Chicken+Caesar+Salad%2C+gourmet+salad%2C+lunch%2C+flavorful+creation%2C+film+camera%2C+street+food+photography%2C.png,https://apneyyimages.s3.eu-north-1.amazonaws.com/Restaurant/Indian+Chicken+Curry%2C+Indian+food+Photography.png,https://apneyyimages.s3.eu-north-1.amazonaws.com/Restaurant/delicious+veg+biryani+on+plate.png,Restaurant
AD Infosystem LLC,(562) 916-3390,"15859 East Edna Place, Irwindale",Irwindale,California,91706,United States,"15859 E Edna Pl, Irwindale, CA 91706, USA",34.0928179,-117.9350698,https://www.adinfosystem.com/contact.html,https://apneyyimages.s3.eu-north-1.amazonaws.com/home+cleaner/A+cleaner+at+work.png,https://apneyyimages.s3.eu-north-1.amazonaws.com/home+cleaner/A+cleaner+at+work.png,https://apneyyimages.s3.eu-north-1.amazonaws.com/home+cleaner/Caucasian+man+uses+vacuum+cleaner+to+keep+living+space+tidy.+Man+with+vacuum+cleaner+in+hand+ensures+home+remaining+tidy+place+to+live.+Vertical+photo.png,Home service
VEC Indian Cuisine,(707) 557-5460,"4380 Sonoma Boulevard, Vallejo",Vallejo,California,94589,United States,"4380 Sonoma Blvd, Vallejo, CA 94589, USA",38.1368748,-122.255063,,https://apneyyimages.s3.eu-north-1.amazonaws.com/Restaurant/%2C+kerala+appam%2C+top-view%2C+indian+food%2C+gold+plate%2C+photo-realistic.png,https://apneyyimages.s3.eu-north-1.amazonaws.com/Restaurant/Indian+chicken+tikka+masala+with+rice+food+dish+%2C+realistic+photo+%2C+high+resolution.png,https://apneyyimages.s3.eu-north-1.amazonaws.com/Restaurant/delicious+veg+momos%2C+scattared%2C+top+view%2C+circle+plate%2C+studio+shot%2C+realistic.webp,Restaurant
Himalayan Flavors,(510) 704-0174,"1585 University Avenue, Berkeley",Berkeley,California,94703,United States,"1585 University Ave, Berkeley, CA 94703, USA",37.8708193,-122.2805162,,https://apneyyimages.s3.eu-north-1.amazonaws.com/Restaurant/(Image+of+a+plate+filled+with+luscious+Gulab+Jamun+in+a+vibrant+Diwali+setting)%2C+Diwali%2C+Indian+Sweets%2C+DSLR%2C+50mm%2C+Overhead%2C+Golden+Hour%2C+Colorful.png,https://apneyyimages.s3.eu-north-1.amazonaws.com/Restaurant/Indian+chicken+tikka+masala+with+rice+food+dish%2C+(1).png,https://apneyyimages.s3.eu-north-1.amazonaws.com/Restaurant/Delicious+vegan+Quinoa+Food+Photo%2C+AI+Generative.png,Restaurant
Shehnai Cuisine of India,(714) 990-8989,"705 East Birch Street P, Brea",Brea,California,92821,United States,"705 E Birch St P, Brea, CA 92821, USA",33.9184522,-117.8901057,,https://apneyyimages.s3.eu-north-1.amazonaws.com/Restaurant/(Image+of+Aloo+Tikki+served+on+a+festive+platter+with+vibrant+chutneys)%2C+Diwali%2C+Indian+Street+Food%2C+DSLR%2C+50mm%2C+Overhead%2C+Golden+Hour%2C+Colorful+(1).png,https://apneyyimages.s3.eu-north-1.amazonaws.com/Restaurant/Indian+chicken+tikka+masala+with+rice+food+dish%2C.png,https://apneyyimages.s3.eu-north-1.amazonaws.com/Restaurant/Design+a+visually+captivating+AI-generated+image+of+a+Diwali+feast%2C+with+a+table+adorned+with+delicious+sweets+and+traditional+dishes+(1).png,Restaurant
Indian Masala House,(818) 578-6564,"17934 Ventura Boulevard, Encino",Los Angeles,California,91316,United States,"17934 Ventura Blvd, Encino, CA 91316, USA",34.163849,-118.523403,http://www.masalaencino.com/,https://apneyyimages.s3.eu-north-1.amazonaws.com/Restaurant/(Image+of+Aloo+Tikki+served+on+a+festive+platter+with+vibrant+chutneys)%2C+Diwali%2C+Indian+Street+Food%2C+DSLR%2C+50mm%2C+Overhead%2C+Golden+Hour%2C+Colorful.png,https://apneyyimages.s3.eu-north-1.amazonaws.com/Restaurant/Indian+cuisine+food+on+white+background%2C+ultra+realistic%2C+photography%2C+raw%2C+8k+(1).png,https://apneyyimages.s3.eu-north-1.amazonaws.com/Restaurant/Design+a+visually+captivating+AI-generated+image+of+a+Diwali+feast%2C+with+a+table+adorned+with+delicious+sweets+and+traditional+dishes+(2).png,Restaurant
India Sweet House,(323) 934-5193,"5992 Pico Boulevard West, Los Angeles",Los Angeles,California,90035,United States,"5992 Pico Blvd W, Los Angeles, CA 90035, USA",34.0521663,-118.370822,http://isweethouse.com/,https://apneyyimages.s3.eu-north-1.amazonaws.com/Restaurant/%5B4974394044%5D+simple+daal+illustration+with+yellow+lentils.+cozy.+vegan.+minimalist.+thick+pen.+with+lots+of+green.+square.png,https://apneyyimages.s3.eu-north-1.amazonaws.com/Restaurant/Indian+cuisine+food+on+white+background%2C+ultra+realistic%2C+photography%2C+raw%2C+8k.png,https://apneyyimages.s3.eu-north-1.amazonaws.com/Restaurant/Design+a+visually+captivating+AI-generated+image+of+a+Diwali+feast%2C+with+a+table+adorned+with+delicious+sweets+and+traditional+dishes+(3).png,Restaurant
Indian Bento,(415) 970-8100,"69 Dorman Avenue, San Francisco",San Francisco,California,94124,United States,"69 Dorman Ave, San Francisco, CA 94124, USA",37.7393473,-122.4034258,https://eat.indianbento.com/,https://apneyyimages.s3.eu-north-1.amazonaws.com/Restaurant/3d+modeling+indian+daal+tadaka+%2Cclose+up%2C+16k%2C+super+high+definition%2C+HD%2C+shot+with+nikon.png,https://apneyyimages.s3.eu-north-1.amazonaws.com/Restaurant/indian+dal+chawal+in+a+takeaway%2C+Indian+Food.+Green%2C+white%2C+black%2C+ui%2C+ux%2C+ui_ux+%2C.png,https://apneyyimages.s3.eu-north-1.amazonaws.com/Restaurant/Design+a+visually+captivating+AI-generated+image+of+a+Diwali+feast%2C+with+a+table+adorned+with+delicious+sweets+and+traditional+dishes.png,Restaurant
Silva's House Cleaning,(707) 265-3004,"1161 Westview Drive, Napa",Napa,California,94590,United States,"1161 Westview Dr, Napa, CA 94590, USA",38.314238,-122.3319894,http://www.silvashouse.com/contact/,https://apneyyimages.s3.eu-north-1.amazonaws.com/home+cleaner/Caucasian+man+uses+vacuum+cleaner+to+keep+living+space+tidy.+Man+with+vacuum+cleaner+in+hand+ensures+home+remaining+tidy+place+to+live.+Vertical+photo.png,https://apneyyimages.s3.eu-north-1.amazonaws.com/home+cleaner/Caucasian+man+uses+vacuum+cleaner+to+keep+living+space+tidy.+Man+with+vacuum+cleaner+in+hand+ensures+home+remaining+tidy+place+to+live.+Vertical+photo.png,https://apneyyimages.s3.eu-north-1.amazonaws.com/home+cleaner/Photo%2C+cleaner%2C+professional+cleaner%2C+on+a+blue+background.png,Home service
Indian Thali Tiffin & Catering Service,(650) 695-3162,"454 West Emerson Avenue, Tracy",Tracy,California,95376,United States,"454 W Emerson Ave, Tracy, CA 95376, USA",37.7485637,-121.4327278,,https://apneyyimages.s3.eu-north-1.amazonaws.com/home+cleaner/A+cleaner+at+work.png,https://apneyyimages.s3.eu-north-1.amazonaws.com/home+cleaner/A+cleaner+at+work.png,https://apneyyimages.s3.eu-north-1.amazonaws.com/home+cleaner/Caucasian+man+uses+vacuum+cleaner+to+keep+living+space+tidy.+Man+with+vacuum+cleaner+in+hand+ensures+home+remaining+tidy+place+to+live.+Vertical+photo.png,Home service
Akshar Home Made Foods,(480) 330-5490,"1222 El Camino Real apt b, Colma",Colma,California,94014,United States,"1222 El Camino Real apt b, Colma, CA 94014, USA",37.6751957,-122.4570838,https://www.akshartiffins.com/,https://apneyyimages.s3.eu-north-1.amazonaws.com/home+cleaner/A+cleaner+at+work.png,https://apneyyimages.s3.eu-north-1.amazonaws.com/home+cleaner/Photo%2C+cleaner%2C+professional+cleaner%2C+on+a+blue+background.png,https://apneyyimages.s3.eu-north-1.amazonaws.com/home+cleaner/Caucasian+man+uses+vacuum+cleaner+to+keep+living+space+tidy.+Man+with+vacuum+cleaner+in+hand+ensures+home+remaining+tidy+place+to+live.+Vertical+photo.png,Home service
Curry Craft - Indian Restaurant & Catering Services,(760) 299-7972,"689 South Rancho Santa Fe Road, San Marcos",San Marcos,California,92078,United States,"689 S Rancho Santa Fe Rd, San Marcos, CA 92078, USA",33.1316922,-117.2064478,https://currycraftsd.com/,https://apneyyimages.s3.eu-north-1.amazonaws.com/Restaurant/3D+pixar+animation%2C+An+indian+village+food+(1).png,https://apneyyimages.s3.eu-north-1.amazonaws.com/Restaurant/Indian+dish+butter+chicken+as+a+food+styling+shot+(1).png,https://apneyyimages.s3.eu-north-1.amazonaws.com/Restaurant/Dhokla+or+sandwich+dhokla+_+Indian+savory+snacks+made+of+chick+pea+flour+or+rice+flour%2C+selective+focus+stock+photo+Asia%2C+Breakfast%2C+Cheese%2C+Cooked%2C+Food.png,Restaurant
Tandoori House - Indian Restaurant & Catering Services,(619) 567-2757,"3146 Midway Drive, San Diego",San Diego,California,92110,United States,"3146 Midway Dr, San Diego, CA 92110, USA",32.7505373,-117.2079715,https://www.tandoorihousesd.com/,https://apneyyimages.s3.eu-north-1.amazonaws.com/Restaurant/3D+pixar+animation%2C+An+indian+village+food.png,https://apneyyimages.s3.eu-north-1.amazonaws.com/Restaurant/Indian+dish+butter+chicken+as+a+food+styling+shot.png,https://apneyyimages.s3.eu-north-1.amazonaws.com/Restaurant/dnd+style+sandwich.png,Restaurant
DIYA Indian and Nepali Cuisine,(415) 644-8776,"25 Mason Street, San Francisco",San Francisco,California,94102,United States,"25 Mason St, San Francisco, CA 94102, USA",37.783536,-122.4094065,http://diyasf.com/,https://apneyyimages.s3.eu-north-1.amazonaws.com/Restaurant/4k+picture+of+Indian+food+momos+background+black.png,https://apneyyimages.s3.eu-north-1.amazonaws.com/Restaurant/Indian+family+in+a+restaurant+enjoying+food+and+making+memories.png,https://apneyyimages.s3.eu-north-1.amazonaws.com/Restaurant/donuts%2C+look+tasty%2C+cooking%2C+high+accuracy+of+eating+and+image%2C+food%2C+detail%2C+commercial+photography%2C+focus+on+food%2C+different+camera+position.png,Restaurant
Himalayan Tandoori & Curry House,(707) 824-1800,"969 Gravenstein Highway South, Sebastopol",Sebastopol,California,95472,United States,"969 Gravenstein Hwy S, Sebastopol, CA 95472, USA",38.391101,-122.8164222,,https://apneyyimages.s3.eu-north-1.amazonaws.com/Restaurant/4k+picture+of+Indian+food+pani+puri+background+black.png,https://apneyyimages.s3.eu-north-1.amazonaws.com/Restaurant/Indian+festival+makar+sankranti+special+haldi+kumkum+with+sankranti+sweets+of+jaggery+recipes%2C+til+ladoo%2C+peanut+chikki%2C+til+chikki%2C+rajgira+laddu.png,https://apneyyimages.s3.eu-north-1.amazonaws.com/Restaurant/Easy+Curry+Sauce%2C+Indian+food+Photography.png,Restaurant
Himalayan Grill & Dosa,(707) 665-0644,"5306 Old Redwood Highway North, Petaluma",Petaluma,California,94954,United States,"5306 Old Redwood Hwy N, Petaluma, CA 94954, USA",38.275986,-122.6680522,https://www.himalayanpetaluma.com/,https://apneyyimages.s3.eu-north-1.amazonaws.com/Restaurant/a+breakfast+with+kosher+food+photorealistic.png,https://apneyyimages.s3.eu-north-1.amazonaws.com/Restaurant/Indian+Fish+Curry%2C+Indian+food+Photography+(1).png,https://apneyyimages.s3.eu-north-1.amazonaws.com/Restaurant/Easy+Two-Ingredient+Naan%2C+Indian+food+Photography+(2).png,Restaurant
Shalimar Cuisine of India,(310) 839-2841,"10708 Jefferson Boulevard, Culver City",Culver City,California,90230,United States,"10708 Jefferson Blvd, Culver City, CA 90230, USA",34.002375,-118.3924255,http://www.shalimarla.com/,https://apneyyimages.s3.eu-north-1.amazonaws.com/Restaurant/a+golden+pot+having+swwet+indian+food+like+sweet+milke.png,https://apneyyimages.s3.eu-north-1.amazonaws.com/Restaurant/Indian+Fish+Curry%2C+Indian+food+Photography.png,https://apneyyimages.s3.eu-north-1.amazonaws.com/Restaurant/Easy+Two-Ingredient+Naan%2C+Indian+food+Photography.png,Restaurant
I.C.S. - India Coffee and Snacks,(909) 396-0350,"23371 Golden Springs Drive, Diamond Bar",Diamond Bar,California,91765,United States,"23371 Golden Springs Dr, Diamond Bar, CA 91765, USA",34.018326,-117.811348,,https://apneyyimages.s3.eu-north-1.amazonaws.com/Restaurant/a+photograph+of+a+smiling+Zulu+woman+in+a+fast+food+uniform+standing+behind+a+fast+food+counter%2C+steamed+dumplings.png,https://apneyyimages.s3.eu-north-1.amazonaws.com/Restaurant/indian+flag+art%2C+food%2C+(1).png,https://apneyyimages.s3.eu-north-1.amazonaws.com/Restaurant/eggless+mayonnaise+veg+roll%2Cside+view.png,Restaurant
"Dinuba House Movers, Inc.",(559) 591-0173,"40508 Road 84, Dinuba",Dinuba,California,93618,United States,"40508 Rd 84, Dinuba, CA 93618, USA",36.5260042,-119.3854547,http://www.dhm-inc.com/,https://apneyyimages.s3.eu-north-1.amazonaws.com/home+cleaner/Photo%2C+cleaner%2C+professional+cleaner%2C+on+a+blue+background.png,https://apneyyimages.s3.eu-north-1.amazonaws.com/home+cleaner/Photo%2C+cleaner%2C+professional+cleaner%2C+on+a+blue+background.png,https://apneyyimages.s3.eu-north-1.amazonaws.com/home+cleaner/A+cleaner+at+work.png,Home service
Dos Palos Internet Service,(209) 392-1962,"2218 Blossom Street, Dos Palos",Dos Palos,California,93620,United States,"2218 Blossom St, Dos Palos, CA 93620, USA",36.9863695,-120.6308953,http://dospalos.org,https://apneyyimages.s3.eu-north-1.amazonaws.com/home+cleaner/Caucasian+man+uses+vacuum+cleaner+to+keep+living+space+tidy.+Man+with+vacuum+cleaner+in+hand+ensures+home+remaining+tidy+place+to+live.+Vertical+photo.png,https://apneyyimages.s3.eu-north-1.amazonaws.com/home+cleaner/Caucasian+man+uses+vacuum+cleaner+to+keep+living+space+tidy.+Man+with+vacuum+cleaner+in+hand+ensures+home+remaining+tidy+place+to+live.+Vertical+photo.png,https://apneyyimages.s3.eu-north-1.amazonaws.com/home+cleaner/Photo%2C+cleaner%2C+professional+cleaner%2C+on+a+blue+background.png,Home service
Jay Bharat Foods LLC,(562) 205-1234,"7871 Paramount Boulevard, Pico Rivera",Pico Rivera,California,90660,United States,"7871 Paramount Blvd, Pico Rivera, CA 90660, USA",33.9741931,-118.1128788,https://shop.jaybharat.com/,https://apneyyimages.s3.eu-north-1.amazonaws.com/home+cleaner/A+cleaner+at+work.png,https://apneyyimages.s3.eu-north-1.amazonaws.com/home+cleaner/A+cleaner+at+work.png,https://apneyyimages.s3.eu-north-1.amazonaws.com/home+cleaner/Caucasian+man+uses+vacuum+cleaner+to+keep+living+space+tidy.+Man+with+vacuum+cleaner+in+hand+ensures+home+remaining+tidy+place+to+live.+Vertical+photo.png,Home service
Fatima's Grill,(562) 659-7585,"7840 Firestone Boulevard, Downey",Downey,California,90241,United States,"7840 Firestone Blvd, Downey, CA 90241, USA",33.9440111,-118.1407806,https://order.fatimas-grill.com/,https://apneyyimages.s3.eu-north-1.amazonaws.com/Restaurant/a+plate+decorated+by+the+food+items%2C+indian+cuisine.png,https://apneyyimages.s3.eu-north-1.amazonaws.com/Restaurant/indian+flag+art%2C+food%2C+(3).png,https://apneyyimages.s3.eu-north-1.amazonaws.com/Restaurant/Emerging+Food+%26amp_+Beverage+Trends+2021_+AI+Reduces+This+Year%26%23039_s+Unpredictability%2C.png,Restaurant
Wah Tiffin,(510) 800-8945,"132 State Street, Los Altos",Los Altos,California,94022,United States,"132 State St, Los Altos, CA 94022, USA",37.3801424,-122.1156664,https://wahtiffin.com/,https://apneyyimages.s3.eu-north-1.amazonaws.com/home+cleaner/A+cleaner+at+work.png,https://apneyyimages.s3.eu-north-1.amazonaws.com/home+cleaner/Photo%2C+cleaner%2C+professional+cleaner%2C+on+a+blue+background.png,https://apneyyimages.s3.eu-north-1.amazonaws.com/home+cleaner/Caucasian+man+uses+vacuum+cleaner+to+keep+living+space+tidy.+Man+with+vacuum+cleaner+in+hand+ensures+home+remaining+tidy+place+to+live.+Vertical+photo.png,Home service
Chaat House Sunnyvale,(408) 733-1111,"939 West El Camino Real, Sunnyvale",Sunnyvale,California,94087,United States,"939 W El Camino Real, Sunnyvale, CA 94087, USA",37.371699,-122.0457481,http://www.chaathouse.us/,https://apneyyimages.s3.eu-north-1.amazonaws.com/Restaurant/a+real+4k+image+of+a+bowl+with+daal+makhni+in+it+covered+with+melted+cheese.png,https://apneyyimages.s3.eu-north-1.amazonaws.com/Restaurant/indian+flag+art%2C+food%2C.png,https://apneyyimages.s3.eu-north-1.amazonaws.com/Restaurant/erated+im+street+food.png,Restaurant
Pal Market,(650) 321-4163,"2398 University Avenue, East Palo Alto",East Palo Alto,California,94303,United States,"2398 University Ave, East Palo Alto, CA 94303, USA",37.4712168,-122.1391967,,https://apneyyimages.s3.eu-north-1.amazonaws.com/Grocery/a+farmhouse+grocery+store.png,https://apneyyimages.s3.eu-north-1.amazonaws.com/Grocery/in+the+shop%2C+grocery+store%2C+grocery+carts%2C+photography%2C.png,https://apneyyimages.s3.eu-north-1.amazonaws.com/Grocery/grocery+layout+hyperrealistic%2C+4k%2C+wideshot.png,Grocery
india kitchen,,"2619 West Taron Court Suite 120, Elk Grove",Elk Grove,California,95757,United States,"2619 W Taron Ct Suite 120, Elk Grove, CA 95757, USA",38.4072751,-121.478285,,https://apneyyimages.s3.eu-north-1.amazonaws.com/Restaurant/a+round+barbeque+table+with+3+veg+items+with+Punjabi+people+eating+veg+barbeque+food%2C+wide+angle+shot%2C+and+a+minimal+light+background+with+bokeh+lights.png,https://apneyyimages.s3.eu-north-1.amazonaws.com/Restaurant/indian+food+%2C+illustrations+%2C+cute+%2C+innocent+%2C+dark+color+%2C+aerial+view%2C+wide+angle+short.png,https://apneyyimages.s3.eu-north-1.amazonaws.com/Restaurant/Exploring+Irresistible+Fast+Food.png,Restaurant
Kanen Coffee: Espresso Machines,(510) 859-4425,"2319 Fourth Street, Berkeley",Berkeley,California,94710,United States,"2319 Fourth St, Berkeley, CA 94710, USA",37.8623199,-122.2979854,https://www.kanencoffee.com/?utm_source=googlemybusiness&utm_medium=kanencoffeelink&utm_campaign=GMB&utm_id=googlemybusiness,https://apneyyimages.s3.eu-north-1.amazonaws.com/Cafe/%EF%BC%8C+morning+coffe.png,https://apneyyimages.s3.eu-north-1.amazonaws.com/Cafe/coffe+foam+top+view.png,https://apneyyimages.s3.eu-north-1.amazonaws.com/Cafe/international+coffe+day.png,Cafe
Wazwan Indian Cuisine,(510) 655-3398,"5959 Shellmound Street Suite 9, Emeryville",Emeryville,California,94608,United States,"5959 Shellmound St Suite 9, Emeryville, CA 94608, USA",37.8412447,-122.2938916,,https://apneyyimages.s3.eu-north-1.amazonaws.com/Restaurant/a+sandwich+inside+a+sandwich.png,https://apneyyimages.s3.eu-north-1.amazonaws.com/Restaurant/indian+food+(1).png,https://apneyyimages.s3.eu-north-1.amazonaws.com/Restaurant/Eye+level+POV+of+a+dining+table+filled+with+modak%2C+kheer%2C+laddoo+and+indian+sweets%2C+daylight.png,Restaurant
kc's tandoor - Indian Restaurant & Catering Services,(760) 753-7452,"1070 North El Camino Real, Encinitas",Encinitas,California,92024,United States,"1070 N El Camino Real, Encinitas, CA 92024, USA",33.067053,-117.2633699,http://www.kcstandoor.com/,https://apneyyimages.s3.eu-north-1.amazonaws.com/Restaurant/A+table+full+of+indian+food+dishes%2C+wide+angle%2C+8k+relastic+image_.png,https://apneyyimages.s3.eu-north-1.amazonaws.com/Restaurant/indian+food+(2).png,https://apneyyimages.s3.eu-north-1.amazonaws.com/Restaurant/Eye+level+POV+of+a+dining+table+filled+with+modak%2C+kheer%2C+laddoo+and+indian+sweets.png,Restaurant
India Food Kitchen,(650) 787-8649,"707 Shell Boulevard, Foster City",Foster City,California,94404,United States,"707 Shell Blvd, Foster City, CA 94404, USA",37.5557697,-122.2672899,https://www.indiafoodkitchen.com/,https://apneyyimages.s3.eu-north-1.amazonaws.com/Restaurant/a+table+full+off+food+chinese+food.png,https://apneyyimages.s3.eu-north-1.amazonaws.com/Restaurant/indian+food+(3).png,https://apneyyimages.s3.eu-north-1.amazonaws.com/Restaurant/fast+food+(1).png,Restaurant
Indian Chatkhara,(510) 713-2100,"3395 Walnut Avenue, Fremont",Fremont,California,94538,United States,"3395 Walnut Ave, Fremont, CA 94538, USA",37.5500841,-121.9797252,https://chatkhararestaurant.com/,https://apneyyimages.s3.eu-north-1.amazonaws.com/Restaurant/A+tricolor+display+of+Indian+sweets+and+delicacies+(1).png,https://apneyyimages.s3.eu-north-1.amazonaws.com/Restaurant/Indian+food+brunch.png,https://apneyyimages.s3.eu-north-1.amazonaws.com/Restaurant/fast+food+(2).png,Restaurant
India Kitchen,(510) 896-3620,"3878 Walnut Avenue, Fremont",Fremont,California,94538,United States,"3878 Walnut Ave, Fremont, CA 94538, USA",37.5462588,-121.981719,,https://apneyyimages.s3.eu-north-1.amazonaws.com/Restaurant/A+tricolor+display+of+Indian+sweets+and+delicacies.png,https://apneyyimages.s3.eu-north-1.amazonaws.com/Restaurant/indian+food+chicken+tikka.png,https://apneyyimages.s3.eu-north-1.amazonaws.com/Restaurant/fast+food+(3).png,Restaurant
Punjabi food home made,(559) 569-4108,"5312 North Valentine Avenue, Fresno",Fresno,California,93711,United States,"5312 N Valentine Ave, Fresno, CA 93711, USA",36.8133208,-119.8504282,,https://apneyyimages.s3.eu-north-1.amazonaws.com/home+cleaner/Photo%2C+cleaner%2C+professional+cleaner%2C+on+a+blue+background.png,https://apneyyimages.s3.eu-north-1.amazonaws.com/home+cleaner/Photo%2C+cleaner%2C+professional+cleaner%2C+on+a+blue+background.png,https://apneyyimages.s3.eu-north-1.amazonaws.com/home+cleaner/A+cleaner+at+work.png,Home service
Palka Bazaar,(559) 237-3333,"2438 North Marks Avenue, Fresno",Fresno,California,93722,United States,"2438 N Marks Ave, Fresno, CA 93722, USA",36.7724818,-119.8437391,,https://apneyyimages.s3.eu-north-1.amazonaws.com/Grocery/a+future+grocery+store.png,https://apneyyimages.s3.eu-north-1.amazonaws.com/Grocery/inside+a+grocery+store.png,https://apneyyimages.s3.eu-north-1.amazonaws.com/Grocery/Grocery+Pick+Up.+Grocery+Pick+up_+grocery%2C+call+for%2C+pandemic%2C+separation%2C+sanitation.png,Grocery
Sher-E-Punjab,(559) 284-4759,"2152 North Briarwood Avenue, Fresno",Fresno,California,93705,United States,"2152 N Briarwood Ave, Fresno, CA 93705, USA",36.769254,-119.8412555,https://tiptonbuildingplus.wixsite.com/tipton-building-plus,https://apneyyimages.s3.eu-north-1.amazonaws.com/Restaurant/a+Veg+schezwan+momo+with+a+red+and+white+sauce+served+over+a+rustic+wooden+background%2C+selective+focus+(1).png,https://apneyyimages.s3.eu-north-1.amazonaws.com/Restaurant/Indian+food+closeup+view+on+a+white+table.png,https://apneyyimages.s3.eu-north-1.amazonaws.com/Restaurant/fast+food+and+unhealthy+eating+concept+-+close+up+of+fast+food+snacks+and+cola+drink+on+wooden+table%2C.png,Restaurant
Anita House Cleaning,,"21250 Western Boulevard, Hayward",Hayward,California,94541,United States,"21250 Western Blvd, Hayward, CA 94541, USA",37.6798357,-122.1012813,,https://apneyyimages.s3.eu-north-1.amazonaws.com/home+cleaner/Caucasian+man+uses+vacuum+cleaner+to+keep+living+space+tidy.+Man+with+vacuum+cleaner+in+hand+ensures+home+remaining+tidy+place+to+live.+Vertical+photo.png,https://apneyyimages.s3.eu-north-1.amazonaws.com/home+cleaner/Caucasian+man+uses+vacuum+cleaner+to+keep+living+space+tidy.+Man+with+vacuum+cleaner+in+hand+ensures+home+remaining+tidy+place+to+live.+Vertical+photo.png,https://apneyyimages.s3.eu-north-1.amazonaws.com/home+cleaner/Photo%2C+cleaner%2C+professional+cleaner%2C+on+a+blue+background.png,Home service
North Indian Dabba,(510) 274-5855,"22554 Foothill Boulevard, Hayward",Hayward,California,94541,United States,"22554 Foothill Blvd, Hayward, CA 94541, USA",37.6745841,-122.0810929,,https://apneyyimages.s3.eu-north-1.amazonaws.com/Restaurant/a+Veg+schezwan+momo+with+a+red+and+white+sauce+served+over+a+rustic+wooden+background%2C+selective+focus.png,https://apneyyimages.s3.eu-north-1.amazonaws.com/Restaurant/Indian+food+Dal+halwa+in+a+plate+on+yellow+%2C+UHD%2C+8k%2C.png,https://apneyyimages.s3.eu-north-1.amazonaws.com/Restaurant/fast+food+and+unhealthy+eating+concept+-+close+up+of+fast+food+snacks+and+cola+drink+on+wooden+table.png,Restaurant
APNA DHABA,(510) 431-3110,"32513 Mission Boulevard, Hayward",Hayward,California,94544,United States,"32513 Mission Blvd, Hayward, CA 94544, USA",37.6122938,-122.0274952,http://www.apnadhabahayward.com/#/,https://apneyyimages.s3.eu-north-1.amazonaws.com/Restaurant/A+vibrant+Indian+street+food+market+with+rich%2C+spicy+food_.png,https://apneyyimages.s3.eu-north-1.amazonaws.com/Restaurant/Indian+food+feast+with+chicken+tikka+masala+curry%2C+tandoori+chicken+and+appetizers+(1).png,https://apneyyimages.s3.eu-north-1.amazonaws.com/Restaurant/Fast+food+box+lunch.png,Restaurant
Halal Kabob House,(310) 641-4435,"1117 West Manchester Boulevard suite g, Inglewood",Inglewood,California,90301,United States,"1117 W Manchester Blvd suite g, Inglewood, CA 90301, USA",33.9602773,-118.3757842,https://halalkabobhouseinglewood.com/,https://apneyyimages.s3.eu-north-1.amazonaws.com/home+cleaner/A+cleaner+at+work.png,https://apneyyimages.s3.eu-north-1.amazonaws.com/home+cleaner/A+cleaner+at+work.png,https://apneyyimages.s3.eu-north-1.amazonaws.com/home+cleaner/Caucasian+man+uses+vacuum+cleaner+to+keep+living+space+tidy.+Man+with+vacuum+cleaner+in+hand+ensures+home+remaining+tidy+place+to+live.+Vertical+photo.png,Home service
India Cook House,(949) 857-4858,"14130 Culver Drive M, Irvine",Irvine,California,92604,United States,"14130 Culver Dr M, Irvine, CA 92604, USA",33.70794,-117.7820087,http://www.indiacookhouseoc.com/,https://apneyyimages.s3.eu-north-1.amazonaws.com/Restaurant/aesthetic+food%2C+breakfast%2C+waffles.png,https://apneyyimages.s3.eu-north-1.amazonaws.com/Restaurant/Indian+food+feast+with+chicken+tikka+masala+curry%2C+tandoori+chicken+and+appetizers+(2).png,https://apneyyimages.s3.eu-north-1.amazonaws.com/Restaurant/Fast+Food+Box+with+French+Fries.png,Restaurant
Singh Jagjit,(209) 481-5194,"17196 Canyon Oak Lane, Lathrop",Lathrop,California,95330,United States,"17196 Canyon Oak Ln, Lathrop, CA 95330, USA",37.8046408,-121.3050852,,https://apneyyimages.s3.eu-north-1.amazonaws.com/Truck/pexels-borishamer-16966615.jpg,https://apneyyimages.s3.eu-north-1.amazonaws.com/Truck/pexels-jrobbauthor-12267889+(1).jpg,https://apneyyimages.s3.eu-north-1.amazonaws.com/Truck/pexels-robertkso-18468412.jpg,Truck
India Merchandise,(209) 824-6710,"200 West Yosemite Avenue, Manteca",Manteca,California,95337,United States,"200 W Yosemite Ave, Manteca, CA 95337, USA",37.7971761,-121.2179569,http://indiamerchandise.com/,https://apneyyimages.s3.eu-north-1.amazonaws.com/Grocery/a+grocery+store+utopia.png,https://apneyyimages.s3.eu-north-1.amazonaws.com/Grocery/inside+of+a+small+grocery+shop.png,https://apneyyimages.s3.eu-north-1.amazonaws.com/Grocery/grocery+portal%2C+realistic%2C+modern+grocery%2C+realism%2C+ultra+realistic.png,Grocery
By appointment Indian Designer clothing boutique and alteration services,(708) 802-3064,"971 Stanley Avenue, Los Altos",Los Altos,California,94024,United States,"971 Stanley Ave, Los Altos, CA 94024, USA",37.3641035,-122.0877653,https://www.amazon.com/photos/share/LUyKwXb0awcvLtHC0rHVi0l5so7R8SMIGsj95w12tuV,https://apneyyimages.s3.eu-north-1.amazonaws.com/home+cleaner/A+cleaner+at+work.png,https://apneyyimages.s3.eu-north-1.amazonaws.com/home+cleaner/Photo%2C+cleaner%2C+professional+cleaner%2C+on+a+blue+background.png,https://apneyyimages.s3.eu-north-1.amazonaws.com/home+cleaner/Caucasian+man+uses+vacuum+cleaner+to+keep+living+space+tidy.+Man+with+vacuum+cleaner+in+hand+ensures+home+remaining+tidy+place+to+live.+Vertical+photo.png,Home service
Assam Indian Kitchen,(818) 849-6986,"6322 Van Nuys Boulevard, Van Nuys",Los Angeles,California,91401,United States,"6322 Van Nuys Blvd, Van Nuys, CA 91401, USA",34.1854066,-118.4484509,https://assamindiankitchenca.com/,https://apneyyimages.s3.eu-north-1.amazonaws.com/Restaurant/aesthetic+image+of+south+indian+food+with+minimal+backdrop+and+aesthetic+lighting.png,https://apneyyimages.s3.eu-north-1.amazonaws.com/Restaurant/indian+food+feast+with+chicken+tikka+masala+curry%2C+tandoori+chicken+and+appetizers.png,https://apneyyimages.s3.eu-north-1.amazonaws.com/Restaurant/fast+food+burrito%2C+food+photography%2C+bright+red+background.png,Restaurant
"Noya Kitchen, Your Halal Food Restaurant",(213) 529-4141,"4204 West 3rd Street, Los Angeles",Los Angeles,California,90020,United States,"4204 W 3rd St, Los Angeles, CA 90020, USA",34.0688102,-118.3057165,https://noyakitchen.com/,https://apneyyimages.s3.eu-north-1.amazonaws.com/Restaurant/Air+Fryer+Pakoras%2C+Indian+food+Photography.png,https://apneyyimages.s3.eu-north-1.amazonaws.com/Restaurant/indian+food+feast%2C+samosa%2C+daal%2C+palak+paneer%2C+roti%2C+naan%2C+sunset+backround%2C+arizona%2C+cactus.png,https://apneyyimages.s3.eu-north-1.amazonaws.com/Restaurant/fast+food+cheeseburger.png,Restaurant
Saffron India Restaurant,(213) 488-9754,"505 Flower Street #250, Los Angeles",Los Angeles,California,90071,United States,"505 Flower St #250, Los Angeles, CA 90071, USA",34.0514473,-118.2566062,http://saffronindia.com/,https://apneyyimages.s3.eu-north-1.amazonaws.com/Restaurant/all+fast+food%2C+delicious+dishes.png,https://apneyyimages.s3.eu-north-1.amazonaws.com/Restaurant/indian+food+flavour+in+true+photo.png,https://apneyyimages.s3.eu-north-1.amazonaws.com/Restaurant/Fast+Food+Classics.png,Restaurant
Curry boys,(213) 395-0221,"517 South Spring Street, Los Angeles",Los Angeles,California,90013,United States,"517 S Spring St, Los Angeles, CA 90013, USA",34.0470696,-118.250165,,https://apneyyimages.s3.eu-north-1.amazonaws.com/Restaurant/Aloo+Gobi+Indian+food+(1).png,https://apneyyimages.s3.eu-north-1.amazonaws.com/Restaurant/Indian+food+in+amber+glass+lunch+box+(1).png,https://apneyyimages.s3.eu-north-1.amazonaws.com/Restaurant/Fast+Food+Combo+Specials.png,Restaurant
Anar Indian Restaurant | Order Food Online,(323) 466-0422,"1807 North Cahuenga Boulevard, Los Angeles",Los Angeles,California,90028,United States,"1807 N Cahuenga Blvd, Los Angeles, CA 90028, USA",34.1041162,-118.3304416,https://www.anarla.com/,https://apneyyimages.s3.eu-north-1.amazonaws.com/Restaurant/Aloo+Gobi+Indian+food.png,https://apneyyimages.s3.eu-north-1.amazonaws.com/Restaurant/Indian+food+in+amber+glass+lunch+box.png,https://apneyyimages.s3.eu-north-1.amazonaws.com/Restaurant/Fast+food+delicious+burger+(1).png,Restaurant
Tandoor India,(310) 581-9964,"2622 Pico Boulevard, Santa Monica",Santa Monica,California,90405,United States,"2622 Pico Blvd, Santa Monica, CA 90405, USA",34.0233211,-118.461637,https://eat.chownow.com/order/35321/locations/55033,https://apneyyimages.s3.eu-north-1.amazonaws.com/Restaurant/american+breakfast%2C+breakfast+sandwich+on+a+plate%2C+Professional+Food+photography%2C+Photograph+with+a+Sony+Alpha+a7+III+at+1_160+sec%2C+f_3+(1).5,https://apneyyimages.s3.eu-north-1.amazonaws.com/Restaurant/indian+food+in+clay+pots+hd+(1).png,https://apneyyimages.s3.eu-north-1.amazonaws.com/Restaurant/Fast+food+delicious+burger.png,Restaurant
Saffron Indian Restaurant,(213) 687-0555,"300 South Grand Avenue LP100, Los Angeles",Los Angeles,California,90071,United States,"300 S Grand Ave LP100, Los Angeles, CA 90071, USA",34.0530154,-118.250933,http://www.saffronindia.com/,https://apneyyimages.s3.eu-north-1.amazonaws.com/Restaurant/american+breakfast%2C+breakfast+sandwich+on+a+plate%2C+Professional+Food+photography%2C+Photograph+with+a+Sony+Alpha+a7+III+at+1_160+sec%2C+f_3.5,https://apneyyimages.s3.eu-north-1.amazonaws.com/Restaurant/indian+food+in+clay+pots+hd.png,https://apneyyimages.s3.eu-north-1.amazonaws.com/Restaurant/Fast+Food+Delivery+Services+in+Alabama.png,Restaurant
KISAN INDIAN MARKET & RESTAURANT,(209) 328-1918,"1237 North Main Street, Manteca",Manteca,California,95336,United States,"1237 N Main St, Manteca, CA 95336, USA",37.8144167,-121.2177914,,https://apneyyimages.s3.eu-north-1.amazonaws.com/Restaurant/american+breakfast%2C+breakfast+wrap+on+a+plate%2C+Professional+Food+photography%2C+Photograph+with+a+Sony+Alpha+a7+III+at+1_160+sec%2C+f_3.5,https://apneyyimages.s3.eu-north-1.amazonaws.com/Restaurant/indian+food+industry.png,https://apneyyimages.s3.eu-north-1.amazonaws.com/Restaurant/fast+food+familiar+to+aliens%2C+food+other+digitalization%2C+macdonald%E2%80%99s+for+UFOs.png,Restaurant
Habibi's International Market & Deli,(209) 239-9990,"137 North Main Street, Manteca",Manteca,California,95336,United States,"137 N Main St, Manteca, CA 95336, USA",37.7982819,-121.2167642,,https://apneyyimages.s3.eu-north-1.amazonaws.com/Restaurant/American+fast+food+restaurant%2C+fast+food+on+the+table.png,https://apneyyimages.s3.eu-north-1.amazonaws.com/Restaurant/indian+food+items+on+kitchen+table%2C+in+kitchen+hd.png,https://apneyyimages.s3.eu-north-1.amazonaws.com/Restaurant/Fast+Food+Feast+at+Home.png,Restaurant
Sanatana Vydica Vidya Peetham ( Hindu Temple & Yagna Center),(512) 775-4420,"2952 Diablo View Drive, Manteca",Manteca,California,95337,United States,"2952 Diablo View Dr, Manteca, CA 95337, USA",37.772897,-121.26943,http://vydicavidya.org/,https://apneyyimages.s3.eu-north-1.amazonaws.com/Temple/a+small+indian+devotional+temple+in+house+like+above+mentioned+reference+images+and+generate+same+like+that%2C+wide+angle+image+view%2C+8K.png,https://apneyyimages.s3.eu-north-1.amazonaws.com/Temple/generate+a+image+of+indian+goddess+sherovali+mata+vaishni+devi+temple.png,https://apneyyimages.s3.eu-north-1.amazonaws.com/Temple/ujjain+mahakal+temple%2C+photorealistic+image.png,Temple
Sri Krishna Balaram Goshala,(949) 546-7252,"2425 Old Calaveras Road, Milpitas",Milpitas,California,95035,United States,"2425 Old Calaveras Rd, Milpitas, CA 95035, USA",37.4498023,-121.8717787,https://www.kbgoshala.org/,https://apneyyimages.s3.eu-north-1.amazonaws.com/Temple/diwali+indian+Temple+Celebrations.png,https://apneyyimages.s3.eu-north-1.amazonaws.com/Temple/ultra+realistic+image+of+trivandrum+sree+padmanabhaswamy+temple.png,https://apneyyimages.s3.eu-north-1.amazonaws.com/Temple/fireworks+and+diya%26%23039_s+in+the+indian+temple%2C+4k%2C+realistic.png,Temple
Brahma Kumaris Silicon Valley - Meditation Center,(408) 809-1908,"540 South Abel Street, Milpitas",Milpitas,California,95035,United States,"540 S Abel St, Milpitas, CA 95035, USA",37.422517,-121.9064786,http://svbrahmakumaris.org/,https://apneyyimages.s3.eu-north-1.amazonaws.com/Temple/thanjavur+temple+image+chola+dynasty.png,https://apneyyimages.s3.eu-north-1.amazonaws.com/Temple/diwali+indian+Temple+Celebrations.png,https://apneyyimages.s3.eu-north-1.amazonaws.com/Temple/thanjavur+temple+image+chola+dynasty.png,Temple
Rasoi Catering Co,,"260 West Arrow Highway # A, San Dimas",San Dimas,California,91773,United States,"260 W Arrow Hwy # A, San Dimas, CA 91773, USA",34.1024657,-117.8103437,https://rasoicateringco.com/,https://apneyyimages.s3.eu-north-1.amazonaws.com/home+cleaner/Caucasian+man+uses+vacuum+cleaner+to+keep+living+space+tidy.+Man+with+vacuum+cleaner+in+hand+ensures+home+remaining+tidy+place+to+live.+Vertical+photo.png,https://apneyyimages.s3.eu-north-1.amazonaws.com/home+cleaner/Caucasian+man+uses+vacuum+cleaner+to+keep+living+space+tidy.+Man+with+vacuum+cleaner+in+hand+ensures+home+remaining+tidy+place+to+live.+Vertical+photo.png,https://apneyyimages.s3.eu-north-1.amazonaws.com/home+cleaner/Photo%2C+cleaner%2C+professional+cleaner%2C+on+a+blue+background.png,Home service
India's Tandoori Santa Monica,(310) 310-2258,"2309 Ocean Park Boulevard, Santa Monica",Santa Monica,California,90405,United States,"2309 Ocean Park Blvd, Santa Monica, CA 90405, USA",34.0157506,-118.4616716,https://indiastandoori.com/,https://apneyyimages.s3.eu-north-1.amazonaws.com/Restaurant/An+English+breakfast+plate+of+food+with+eggs%2C+sausage+and+toast.png,https://apneyyimages.s3.eu-north-1.amazonaws.com/Restaurant/Indian+food+list.png,https://apneyyimages.s3.eu-north-1.amazonaws.com/Restaurant/fast+food+fried+chicken%2C+Ultra+realistic%2C.png,Restaurant
dhaba Xpress,(650) 261-3987,"312 Arguello Street, Redwood City",Redwood City,California,94063,United States,"312 Arguello St, Redwood City, CA 94063, USA",37.4865592,-122.2320181,,https://apneyyimages.s3.eu-north-1.amazonaws.com/Restaurant/an+image+raising+awareness+about+global+hunger+and+food+securit.png,https://apneyyimages.s3.eu-north-1.amazonaws.com/Restaurant/Indian+food+Mattar+paneer.png,https://apneyyimages.s3.eu-north-1.amazonaws.com/Restaurant/fast+food+meal%2C+white+background.png,Restaurant
Indian Wells Valley Internet,(760) 446-5006,"417 West Inyokern Road, Ridgecrest",Ridgecrest,California,93555,United States,"417 W Inyokern Rd, Ridgecrest, CA 93555, USA",35.6513983,-117.6774548,https://www.iwvisp.com/,https://apneyyimages.s3.eu-north-1.amazonaws.com/home+cleaner/A+cleaner+at+work.png,https://apneyyimages.s3.eu-north-1.amazonaws.com/home+cleaner/A+cleaner+at+work.png,https://apneyyimages.s3.eu-north-1.amazonaws.com/home+cleaner/Caucasian+man+uses+vacuum+cleaner+to+keep+living+space+tidy.+Man+with+vacuum+cleaner+in+hand+ensures+home+remaining+tidy+place+to+live.+Vertical+photo.png,Home service
India Cuisine,(707) 978-4178,"6480 Redwood Drive, Rohnert Park",Rohnert Park,California,94928,United States,"6480 Redwood Dr, Rohnert Park, CA 94928, USA",38.3457946,-122.715201,,https://apneyyimages.s3.eu-north-1.amazonaws.com/Restaurant/An+Indian+Diwali+Sweet+Food+(1).png,https://apneyyimages.s3.eu-north-1.amazonaws.com/Restaurant/indian+food+meal+with+christmas+tree+in+the+background+in+a+restaurant.png,https://apneyyimages.s3.eu-north-1.amazonaws.com/Restaurant/fast+food+on+a+table.png,Restaurant
Indian Bowl,(916) 780-0665,"1725 Santa Clara Drive #150, Roseville",Roseville,California,95661,United States,"1725 Santa Clara Dr #150, Roseville, CA 95661, USA",38.7456246,-121.2632201,https://mymozo.com/myrestaurant/default?CompanyId=624,https://apneyyimages.s3.eu-north-1.amazonaws.com/Restaurant/An+Indian+Diwali+Sweet+Food+(2).png,https://apneyyimages.s3.eu-north-1.amazonaws.com/Restaurant/indian+food+on+a+restaurant+table.webp,https://apneyyimages.s3.eu-north-1.amazonaws.com/Restaurant/fast+food+or+greasy+fast+food+stock+photos+royalty+free+image%2C+in+the+style+of+white+background%2C+uhd+image%2C+pictorial%2C+golden+palette%2C+multiple+styles.png,Restaurant
Halal Indian Cuisine,(415) 419-2642,"2042 4th Street, San Rafael",San Rafael,California,94901,United States,"2042 4th St, San Rafael, CA 94901, USA",37.9754652,-122.5450709,,https://apneyyimages.s3.eu-north-1.amazonaws.com/Restaurant/An+Indian+Diwali+Sweet+Food.png,https://apneyyimages.s3.eu-north-1.amazonaws.com/Restaurant/Indian+food+on+plate+top+view+(1).png,https://apneyyimages.s3.eu-north-1.amazonaws.com/Restaurant/Fast+food+restaurant+set+meal.png,Restaurant
Jassan Banquet Indian Bar & Grill,(909) 888-1199,"1650 South E Street, San Bernardino",San Bernardino,California,92408,United States,"1650 S E St, San Bernardino, CA 92408, USA",34.0713489,-117.29492,,https://apneyyimages.s3.eu-north-1.amazonaws.com/Restaurant/appetising+veg+rice+bowl+in+takeaway+packaging+(1).png,https://apneyyimages.s3.eu-north-1.amazonaws.com/Restaurant/Indian+food+on+plate+top+view+(2).png,https://apneyyimages.s3.eu-north-1.amazonaws.com/Restaurant/fast+food+with+party+invirment.png,Restaurant
Kamakshi's Kitchen Restaurant,(650) 401-6564,"601 Old County Road, San Carlos",San Carlos,California,94070,United States,"601 Old County Rd, San Carlos, CA 94070, USA",37.507778,-122.25941,http://www.kamakshiskitchen.com/,https://apneyyimages.s3.eu-north-1.amazonaws.com/Restaurant/appetising+veg+rice+bowl+in+takeaway+packaging.png,https://apneyyimages.s3.eu-north-1.amazonaws.com/Restaurant/Indian+food+on+plate+top+view+(3).png,https://apneyyimages.s3.eu-north-1.amazonaws.com/Restaurant/fast+food+with+white+background+top+view+Created+With+Generative+AI+Technology+8k%2C+4k%2C+photoreal%2C+realistic+lighting%2C+unreal+engine%2C+(1).png,Restaurant
BAHAR Indian Restaurant & Catering,(858) 836-1000,"10436 Craftsman Way ste 120, San Diego",San Diego,California,92127,United States,"10436 Craftsman Way ste 120, San Diego, CA 92127, USA",33.0202121,-117.114112,http://www.baharsd.com/,https://apneyyimages.s3.eu-north-1.amazonaws.com/Restaurant/Apple+pie+preparation+with+raw+apples+being+sliced+next+to+pie+crust.png,https://apneyyimages.s3.eu-north-1.amazonaws.com/Restaurant/Indian+food+on+plate+top+view.png,https://apneyyimages.s3.eu-north-1.amazonaws.com/Restaurant/fast+food+with+white+background+top+view+Created+With+Generative+AI+Technology+8k%2C+4k%2C+photoreal%2C+realistic+lighting%2C+unreal+engine%2C.png,Restaurant
Sunshine House Cleaning,(415) 933-3682,"Geary Boulevard, San Francisco",San Francisco,California,94118,United States,"Geary Blvd, San Francisco, CA 94118, USA",37.7812339,-122.4633759,https://www.sunshinehousecleansf.com/,https://apneyyimages.s3.eu-north-1.amazonaws.com/home+cleaner/A+cleaner+at+work.png,https://apneyyimages.s3.eu-north-1.amazonaws.com/home+cleaner/Photo%2C+cleaner%2C+professional+cleaner%2C+on+a+blue+background.png,https://apneyyimages.s3.eu-north-1.amazonaws.com/home+cleaner/Caucasian+man+uses+vacuum+cleaner+to+keep+living+space+tidy.+Man+with+vacuum+cleaner+in+hand+ensures+home+remaining+tidy+place+to+live.+Vertical+photo.png,Home service
Sewa Indian and Nepalese Cuisine,(415) 742-4596,"815 Clement Street, San Francisco",San Francisco,California,94118,United States,"815 Clement St, San Francisco, CA 94118, USA",37.7825793,-122.4680199,https://www.sewacuisine.com/,https://apneyyimages.s3.eu-north-1.amazonaws.com/Restaurant/arepas%2C+fast+food%2C+venezuela%2C+photorealistic.png,https://apneyyimages.s3.eu-north-1.amazonaws.com/Restaurant/Indian+food+photography%2C+black+stone+textured+background%2C+topshot%2C+professionl+light+(1).png,https://apneyyimages.s3.eu-north-1.amazonaws.com/Restaurant/fast+food%2C+christmas+style%2C+clear+composition.png,Restaurant
Himalayan Hub,(415) 860-6972,"508 Valencia Street, San Francisco",San Francisco,California,94110,United States,"508 Valencia St, San Francisco, CA 94110, USA",37.7646493,-122.4221182,http://himalayanhubs.com/,https://apneyyimages.s3.eu-north-1.amazonaws.com/Restaurant/Aromatic+Cup+of+Steaming+Chai+Tea_+Prompt_+Create+a+cozy+image+of+an+aromatic+cup+of+steaming+chai+tea%2C+capturing+the+warmth+and+comforting+atmosphere+of+a+tea+moment.png,https://apneyyimages.s3.eu-north-1.amazonaws.com/Restaurant/Indian+food+photography%2C+black+stone+textured+background%2C+topshot%2C+professionl+light+(2).png,https://apneyyimages.s3.eu-north-1.amazonaws.com/Restaurant/Fast+Food.png,Restaurant
Indian Pizza & Pasta House,(628) 263-4737,"60 Morris Street, San Francisco",San Francisco,California,94107,United States,"60 Morris St, San Francisco, CA 94107, USA",37.7765239,-122.402191,,https://apneyyimages.s3.eu-north-1.amazonaws.com/Restaurant/Assorted+indian+food.png,https://apneyyimages.s3.eu-north-1.amazonaws.com/Restaurant/Indian+food+photography%2C+black+stone+textured+background%2C+topshot%2C+professionl+light+(3).png,https://apneyyimages.s3.eu-north-1.amazonaws.com/Restaurant/Festive+lunch+with+delicious+food+and+wine+on+white+table+indoors.+Christmas+celebration%2Cbright+photo.png,Restaurant
Al Hamra Indian Pizza & Curry,(415) 621-3935,"3083 16th Street, San Francisco",San Francisco,California,94103,United States,"3083 16th St, San Francisco, CA 94103, USA",37.764847,-122.4213328,https://www.alhamraindianpizzancurry.com/,https://apneyyimages.s3.eu-north-1.amazonaws.com/Restaurant/assorted+indian+food(1).png,https://apneyyimages.s3.eu-north-1.amazonaws.com/Restaurant/Indian+food+photography%2C+black+stone+textured+background%2C+topshot%2C+professionl+light+(4).png,https://apneyyimages.s3.eu-north-1.amazonaws.com/Restaurant/Fine+dining+Closeup+photo+Veg+Biryani.png,Restaurant
Nepalese Indian Cuisine,(415) 770-1954,"1298 Market Street, San Francisco",San Francisco,California,94102,United States,"1298 Market St, San Francisco, CA 94102, USA",37.7778861,-122.4163057,https://nepaleseindiancuisine.com/,https://apneyyimages.s3.eu-north-1.amazonaws.com/Restaurant/Assorted+Indian+recipes+food+various.png,https://apneyyimages.s3.eu-north-1.amazonaws.com/Restaurant/Indian+food+photography%2C+black+stone+textured+background%2C+topshot%2C+professionl+light.png,https://apneyyimages.s3.eu-north-1.amazonaws.com/Restaurant/Fish+pie.png,Restaurant
Biryani Best,(415) 966-0753,"Located inside Kasa, 4001 18th Street A, San Francisco",San Francisco,California,94114,United States,"Located inside Kasa, 4001 18th St A, San Francisco, CA 94114, USA",37.760873,-122.4329885,https://www.biryanibest.com/,https://apneyyimages.s3.eu-north-1.amazonaws.com/Restaurant/Assortment+of+traditional+Indian+sweets+and+snacks+prepared+for+Holi+festival_+appetizing+and+colorful%2C+high-quality+food+photography%2C+studio+lighting%2C.png,https://apneyyimages.s3.eu-north-1.amazonaws.com/Restaurant/indian+food+plate+dish+in+side+pose+3d+digital+painting.png,https://apneyyimages.s3.eu-north-1.amazonaws.com/Restaurant/Flavorful+Mix+Veg+Curry%2C+shot+with+a+high-speed+lens+to+freeze+the+steam_.png,Restaurant
Indian Take Home Food,(408) 637-8068,"5010 Forest View Drive, San Jose",San Jose,California,95129,United States,"5010 Forest View Dr, San Jose, CA 95129, USA",37.3128466,-121.9908614,,https://apneyyimages.s3.eu-north-1.amazonaws.com/Restaurant/Authentic+Saag+Paneer%2C+Indian+food+Photography+(1).png,https://apneyyimages.s3.eu-north-1.amazonaws.com/Restaurant/indian+food+plate+placed+ok+the+table%2C+ultra+realistic%2C+sky+background.webp,https://apneyyimages.s3.eu-north-1.amazonaws.com/Restaurant/Flavorful+Mix+Veg+Curry%2C+shot+with+a+high-speed+lens+to+freeze+the+steam.png,Restaurant
Mangal's Market,(510) 352-3337,"1699 East 14th Street, San Leandro",San Leandro,California,94577,United States,"1699 E 14th St, San Leandro, CA 94577, USA",37.7220258,-122.1522927,http://www.anzfjfoods.com/,https://apneyyimages.s3.eu-north-1.amazonaws.com/Grocery/a+grocery+with+crochet+food.png,https://apneyyimages.s3.eu-north-1.amazonaws.com/Grocery/Internet+site+of+a+grocery+store.png,https://apneyyimages.s3.eu-north-1.amazonaws.com/Grocery/grocery+store+(1).png,Grocery
Koolfi Creamery and Cafe,(415) 390-6210,"599 MacArthur Boulevard, San Leandro",San Leandro,California,94577,United States,"599 MacArthur Blvd, San Leandro, CA 94577, USA",37.7385401,-122.1441313,http://www.koolficreamery.com/,https://apneyyimages.s3.eu-north-1.amazonaws.com/Cafe/2+friends+drinking+coffe+happy%2C+wooden+table%2C+white+coffe+cups+in+the+foreground%2C+smooth+background+in+a+restaurant%2C+realistic+photography.png,https://apneyyimages.s3.eu-north-1.amazonaws.com/Cafe/coffe+icon.png,https://apneyyimages.s3.eu-north-1.amazonaws.com/Cafe/make+me+a+cup+of+coffe.png,Cafe
The Gurkha Kitchen,(925) 791-5600,"2475 San Ramon Valley Boulevard, San Ramon",San Ramon,California,94583,United States,"2475 San Ramon Valley Blvd, San Ramon, CA 94583, USA",37.7738286,-121.9774463,https://gurkhaskitchensanramon.com/,https://apneyyimages.s3.eu-north-1.amazonaws.com/Restaurant/Authentic+Saag+Paneer%2C+Indian+food+Photography+(2).png,https://apneyyimages.s3.eu-north-1.amazonaws.com/Restaurant/indian+food+product+photo.png,https://apneyyimages.s3.eu-north-1.amazonaws.com/Restaurant/Flavorful+Rajma+Chawal%2C+a+North+Indian+staple%2C+shot+with+a+standard+lens+and+a+narrow+aperture+to+capture+every+detail.png,Restaurant
India House,(805) 962-5070,"418 State Street, Santa Barbara",Santa Barbara,California,93101,United States,"418 State St, Santa Barbara, CA 93101, USA",34.4163935,-119.6947189,,https://apneyyimages.s3.eu-north-1.amazonaws.com/Restaurant/Authentic+Saag+Paneer%2C+Indian+food+Photography.png,https://apneyyimages.s3.eu-north-1.amazonaws.com/Restaurant/Indian+food+restaurant+food%2C+realistic+image+(1).webp,https://apneyyimages.s3.eu-north-1.amazonaws.com/Restaurant/Flavorful+Vegetable+Pulao%2C+Indian+recipe%2C+realistic%2C+depth+of+field%2C+4k%2C+highly+detailed%2C+heat+of+the+food+in+the+air.png,Restaurant
Jalsa Catering & Events,(408) 480-3825,"1285 Homestead Road, Santa Clara",Santa Clara,California,95050,United States,"1285 Homestead Rd, Santa Clara, CA 95050, USA",37.3480119,-121.9474444,http://www.jalsasf.com/,https://apneyyimages.s3.eu-north-1.amazonaws.com/home+cleaner/A+cleaner+at+work.png,https://apneyyimages.s3.eu-north-1.amazonaws.com/home+cleaner/A+cleaner+at+work.png,https://apneyyimages.s3.eu-north-1.amazonaws.com/home+cleaner/Caucasian+man+uses+vacuum+cleaner+to+keep+living+space+tidy.+Man+with+vacuum+cleaner+in+hand+ensures+home+remaining+tidy+place+to+live.+Vertical+photo.png,Home service
Sitar Indian Kitchen,(661) 263-2300,"28112 Bouquet Canyon Road, Santa Clarita",Santa Clarita,California,91350,United States,"28112 Bouquet Canyon Rd, Santa Clarita, CA 91350, USA",34.450337,-118.4972401,,https://apneyyimages.s3.eu-north-1.amazonaws.com/Restaurant/award+wining+food+photography+of+South+Indian+food+Vadai+in+a+plate_+(1).png,https://apneyyimages.s3.eu-north-1.amazonaws.com/Restaurant/Indian+food+restaurant+food%2C+realistic+image+(2).webp,https://apneyyimages.s3.eu-north-1.amazonaws.com/Restaurant/food+at+an+Indian+restaurant%2C+realistic%2C+photography%2C+(1).png,Restaurant
Razia Indian Restaurant,(661) 263-2300,"28112 Bouquet Canyon Road, Santa Clarita",Santa Clarita,California,91350,United States,"28112 Bouquet Canyon Rd, Santa Clarita, CA 91350, USA",34.4503326,-118.4972378,,https://apneyyimages.s3.eu-north-1.amazonaws.com/Restaurant/award+wining+food+photography+of+South+Indian+food+Vadai+in+a+plate_.png,https://apneyyimages.s3.eu-north-1.amazonaws.com/Restaurant/Indian+food+restaurant+food%2C+realistic+image.webp,https://apneyyimages.s3.eu-north-1.amazonaws.com/Restaurant/food+at+an+Indian+restaurant%2C+realistic%2C+photography%2C.png,Restaurant
Dhaba Cuisine of India,,"2104 Main Street, Santa Monica",Santa Monica,California,90405,United States,"2104 Main St, Santa Monica, CA 90405, USA",34.0061477,-118.4881439,,https://apneyyimages.s3.eu-north-1.amazonaws.com/Restaurant/award+wining+food+photography+of+South+Indian+food+Vadai+in+a+plate.png,https://apneyyimages.s3.eu-north-1.amazonaws.com/Restaurant/indian+food+thali%2C+deliciuos+indian+food%2C+beautiful+lights+in+background%2C+art+room%2C+digital+art%2C.png,https://apneyyimages.s3.eu-north-1.amazonaws.com/Restaurant/Food+banner+toast+sandwich+with+smoked+beef%2C+cheese%2C+tomatoes+and+lettuce.+Traditional+breakfast+or+lunch.png,Restaurant
Flame of India,(530) 563-5078,"11421 Deerfield Drive, Truckee",Truckee,California,96161,United States,"11421 Deerfield Dr, Truckee, CA 96161, USA",39.3202511,-120.2091244,,https://apneyyimages.s3.eu-north-1.amazonaws.com/Restaurant/award+winning+food+photography%2C+a+world+of+fast+food.png,https://apneyyimages.s3.eu-north-1.amazonaws.com/Restaurant/indian+food%2C+Biryani+dish%2C+Realistic+photo%2C+stock+style%2C+UHD+image%2C+High+resolution%2C+detailed.png,https://apneyyimages.s3.eu-north-1.amazonaws.com/Restaurant/Food+delivery+concept+-+healthy+lunch+in+boxes.png,Restaurant
99 Food Market,(559) 685-8529,"1357 South K Street, Tulare",Tulare,California,93274,United States,"1357 S K St, Tulare, CA 93274, USA",36.1934927,-119.343236,http://www.newdelhideli.com/,https://apneyyimages.s3.eu-north-1.amazonaws.com/Grocery/A+local+Indian+grocery+grocery+shop+inside%2C+grocey+items+in+the+shelf+behind+the+background%2C+high+exposure%2C+8k%2C.png,https://apneyyimages.s3.eu-north-1.amazonaws.com/Grocery/Japanese+grocery+store%2C+realistic+object+texture%2C+sunlight%2C+reflective%2C+grocery+art%2Chighly+realistic%2C+simple%2C+colorful+illustrations--ar+93_128.png,https://apneyyimages.s3.eu-north-1.amazonaws.com/Grocery/grocery+store+(2).png,Grocery
Punjab Transport Inc,(209) 632-1733,"111 North Golden State Boulevard, Turlock",Turlock,California,95380,United States,"111 N Golden State Blvd, Turlock, CA 95380, USA",37.4946661,-120.846587,,https://apneyyimages.s3.eu-north-1.amazonaws.com/Truck/pexels-carloscruz-artegrafia-172084181-11087837.jpg,https://apneyyimages.s3.eu-north-1.amazonaws.com/Truck/pexels-m-javad-nemati-116278374-30037629.jpg,https://apneyyimages.s3.eu-north-1.amazonaws.com/Truck/pexels-robertkso-20733229.jpg,Truck
Northern Circle Indian Housing Authority,(707) 468-1336,"694 Pinoleville Road, Ukiah",Ukiah,California,95482,United States,"694 Pinoleville Rd, Ukiah, CA 95482, USA",39.179984,-123.2241471,http://www.nciha.org/,https://apneyyimages.s3.eu-north-1.amazonaws.com/Restaurant/Barbecue+with+vegetable+skewers+.+Healthy+food+background.png,https://apneyyimages.s3.eu-north-1.amazonaws.com/Restaurant/indian+food%2C+cinematic%2C+(1).png,https://apneyyimages.s3.eu-north-1.amazonaws.com/Restaurant/Food+in+lunch+boxes.+Delivery+of+food.+Ukrainian+cuisine.+On+a+wooden+background.+Top+view.+Copy+space.png,Restaurant
Kauras Indian kitchen,(559) 513-4856,"231 East Taylor Avenue, Visalia",Visalia,California,93291,United States,"231 E Taylor Ave, Visalia, CA 93291, USA",36.362889,-119.292208,,https://apneyyimages.s3.eu-north-1.amazonaws.com/Restaurant/Barbecue+with+vegetable+skewers.+Healthy+food+background.png,https://apneyyimages.s3.eu-north-1.amazonaws.com/Restaurant/indian+food%2C+cinematic%2C.png,https://apneyyimages.s3.eu-north-1.amazonaws.com/Restaurant/food+instagrammer%26%23039_s+nikon+d850+photograph+of+half-eaten+Indian+Szechwan+noodles%2C+extremely+detailed+in+Indian+restaurant+in+Mumbai.png,Restaurant
Patra Indian Grill,(925) 934-1225,"2317 Oak Grove Road, Walnut Creek",Walnut Creek,California,94598,United States,"2317 Oak Grove Rd, Walnut Creek, CA 94598, USA",37.9286181,-122.0163834,,https://apneyyimages.s3.eu-north-1.amazonaws.com/Restaurant/bean+stew+Brazilian+food+rice+orange+gourmet+packed+lunch+top+view+white+background.png,https://apneyyimages.s3.eu-north-1.amazonaws.com/Restaurant/indian+food%2C+closeup%2C.png,https://apneyyimages.s3.eu-north-1.amazonaws.com/Restaurant/food+item%2C+vadapav%2C+indian+food%2C+advertisement%2C+product+image.png,Restaurant
Gurdwara Sahib Sikh Temple West Sacramento,(916) 371-5415,"2301 Evergreen Avenue, West Sacramento",West Sacramento,California,95691,United States,"2301 Evergreen Ave, West Sacramento, CA 95691, USA",38.5765238,-121.5405423,http://sikhtemple.org/,https://apneyyimages.s3.eu-north-1.amazonaws.com/Gurudwara/steptodown.com104233.jpg,https://apneyyimages.s3.eu-north-1.amazonaws.com/Gurudwara/steptodown.com358979.jpg,https://apneyyimages.s3.eu-north-1.amazonaws.com/Gurudwara/steptodown.com262650.jpg,Gurudawara
Mann Brothers: INDIAN Grocery-AT&T Prepaid-Red Pocket Authorized Dealer,(530) 751-1439,"601 North Palora Avenue, Yuba City",Yuba City,California,95991,United States,"601 N Palora Ave, Yuba City, CA 95991, USA",39.1313396,-121.6331903,,https://apneyyimages.s3.eu-north-1.amazonaws.com/Grocery/a+variety+of+grocery+store+aisles.png,https://apneyyimages.s3.eu-north-1.amazonaws.com/Grocery/man+facing+me+pushing+a+grocery+cart+in+a+grocery+store%2C+Wes+Anderson+style.png,https://apneyyimages.s3.eu-north-1.amazonaws.com/Grocery/grocery+store+drink+display.png,Grocery