businessName,phoneNumber,streetaddress,city,state,zipcode,country,address,longitude,latitude,category,websiteUrl,Image 1,Image 2,Image 3
Law offices of Kuldeep Kaur,1 559-512-6691,1233 W Shaw Ave #100,Fresno,California,93711,United States,"1233 W Shaw Ave #100, Fresno, CA 93711, USA",36.8080796,-119.813775,Law,https://www.yourcalawyer.com/,https://apneyyimages.s3.eu-north-1.amazonaws.com/Law/%5BAYXP%3D5727-2%5D+Illich%26%23039_s+law.+advertising%2C+infography%2C+ultra+quality%2C+professionnal%2C+image+only%2C+8k.png,https://apneyyimages.s3.eu-north-1.amazonaws.com/Law/law+office%2C+law%2C+document%2C+table%2C+photographic%2C+realistic%2C+4K+(5).png,https://apneyyimages.s3.eu-north-1.amazonaws.com/Law/Law+book%2C+housing%2C+energy+law%2C+law+paragraphs%2C+warm+colours.png
Singh Ahluwalia Attorneys at Law,1 559-878-4958,7075 N Chestnut Ave STE 103,Fresno,California,93720,United States,"7075 N Chestnut Ave STE 103, Fresno, CA 93720, USA",36.838767,-119.7375419,Law,https://www.singhahluwalia.com/fresno-personal-injury-lawyer/?utm_source=GBP&utm_medium=Google&utm_campaign=Fresno,https://apneyyimages.s3.eu-north-1.amazonaws.com/Law/a+hyper+photo+realistic+image+of+a+law+symbol+on+the+table+with+laptop.png,https://apneyyimages.s3.eu-north-1.amazonaws.com/Law/law+office%2C+law%2C+document%2C+table%2C+photographic%2C+realistic%2C+4K+(6).png,https://apneyyimages.s3.eu-north-1.amazonaws.com/Law/Law+firm+background+image+for+arbitration+and+mediation+section%2C+minimalist%2C+elegant%2C+photography+style%2C+branding+style.png
Jaspreet Singh Law Office,1 559-271-5511,1625 E Shaw Ave #122,Fresno,California,93710,United States,"1625 E Shaw Ave #122, Fresno, CA 93710, USA",36.8079861,-119.7578952,Law,https://lawofficeofjaspreetsingh.com/,https://apneyyimages.s3.eu-north-1.amazonaws.com/Law/a+reallistic+law+office+for+bankruptcy+law+more+alive.png,https://apneyyimages.s3.eu-north-1.amazonaws.com/Law/law+office%2C+law%2C+document%2C+table%2C+photographic%2C+realistic%2C+4K+(7).png,https://apneyyimages.s3.eu-north-1.amazonaws.com/Law/law+office%2C+law%2C+document%2C+table%2C+photographic%2C+realistic%2C+4K+(1).png
Singh Ahluwalia Attorneys at Law,1 559-878-4958,7075 N Chestnut Ave STE 103,Fresno,California,93720,United States,"7075 N Chestnut Ave STE 103, Fresno, CA 93720, USA",36.838767,-119.7375419,Law,,https://apneyyimages.s3.eu-north-1.amazonaws.com/Law/an+image+that+represents+tax+law.png,https://apneyyimages.s3.eu-north-1.amazonaws.com/Law/law+office%2C+law%2C+document%2C+table%2C+photographic%2C+realistic%2C+4K.png,https://apneyyimages.s3.eu-north-1.amazonaws.com/Law/law+office%2C+law%2C+document%2C+table%2C+photographic%2C+realistic%2C+4K+(2).png
Rama's Interpretation,1 559-274-1332,2926 N West Ave,Fresno,California,93705,United States,"2926 N West Ave, Fresno, CA 93705, USA",36.7771736,-119.8262574,Law,,https://apneyyimages.s3.eu-north-1.amazonaws.com/Law/case+law%2C+law+change%2C+law%2C+image+for+a+blog+post.png,https://apneyyimages.s3.eu-north-1.amazonaws.com/Law/Legal+law+concept+image%2C+extreme+close+up+of+scales+symbol+of+Justice.png,https://apneyyimages.s3.eu-north-1.amazonaws.com/Law/law+office%2C+law%2C+document%2C+table%2C+photographic%2C+realistic%2C+4K+(3).png
Joshi Law Firm,1 559-312-0083,516 W Shaw Ave #200,Fresno,California,93704,United States,"516 W Shaw Ave suite 200, Fresno, CA 93704, USA",36.8082796,-119.801765,Law,,https://apneyyimages.s3.eu-north-1.amazonaws.com/Law/Create+an+image+of+a+law.png,https://apneyyimages.s3.eu-north-1.amazonaws.com/Law/present+card+about+law+and+justice+for+the+day+of+law.png,https://apneyyimages.s3.eu-north-1.amazonaws.com/Law/law+office%2C+law%2C+document%2C+table%2C+photographic%2C+realistic%2C+4K+(4).png
Law offices of Kuldeep Kaur,1 559-512-6691,1233 W Shaw Ave #100,Fresno,California,93711,United States,"1233 W Shaw Ave #100, Fresno, CA 93711, USA",36.8080796,-119.813775,Law,,https://apneyyimages.s3.eu-north-1.amazonaws.com/Law/image+of+a+stack+of+documents+and+a+hand+holding+a+law+book.png,https://apneyyimages.s3.eu-north-1.amazonaws.com/Law/stock+photo+showing+Indian+low+and+jurisdiction+-+Indian+national+flag+or+tricolour+with+wooden+gavel+showing+concept+of+law+in+India.png,https://apneyyimages.s3.eu-north-1.amazonaws.com/Law/a+hyper+photo+realistic+image+of+a+law+symbol+on+the+table+with+laptop.png
Jaspreet Singh Law Office,1 559-271-5511,1625 E Shaw Ave #122,Fresno,California,93710,United States,"1625 E Shaw Ave #122, Fresno, CA 93710, USA",36.8079861,-119.7578952,Law,,https://apneyyimages.s3.eu-north-1.amazonaws.com/Law/Law+206+of+the+Egyptian+Tax+Law+%5Bid_7483392%5D.png,https://apneyyimages.s3.eu-north-1.amazonaws.com/Law/The+Statue+of+Justice+symbol%2C+legal+law+concept+image%2C+Realistic+Photo%2C+Minimal+Composition%2C+law+theme%2C.png,https://apneyyimages.s3.eu-north-1.amazonaws.com/Law/a+reallistic+law+office+for+bankruptcy+law+more+alive.png
Peter Singh,1 559-256-9800,744 P St Suite 130,Fresno,California,93721,United States,"744 P St Suite 130, Fresno, CA 93721, USA",36.736197,-119.7812257,Law,,https://apneyyimages.s3.eu-north-1.amazonaws.com/Law/%5BAYXP%3D5727-2%5D+Illich%26%23039_s+law.+advertising%2C+infography%2C+ultra+quality%2C+professionnal%2C+image+only%2C+8k.png,https://apneyyimages.s3.eu-north-1.amazonaws.com/Law/law+office%2C+law%2C+document%2C+table%2C+photographic%2C+realistic%2C+4K+(5).png,https://apneyyimages.s3.eu-north-1.amazonaws.com/Law/Law+book%2C+housing%2C+energy+law%2C+law+paragraphs%2C+warm+colours.png
Bal Immigration & Tax services,1 510-890-6495,4221 W Sierra Madre Ave Suite 104,Fresno,California,93722,United States,"4221 W Sierra Madre Ave Suite 104, Fresno, CA 93722, USA",36.806563,-119.867441,Law,,https://apneyyimages.s3.eu-north-1.amazonaws.com/Law/a+hyper+photo+realistic+image+of+a+law+symbol+on+the+table+with+laptop.png,https://apneyyimages.s3.eu-north-1.amazonaws.com/Law/law+office%2C+law%2C+document%2C+table%2C+photographic%2C+realistic%2C+4K+(6).png,https://apneyyimages.s3.eu-north-1.amazonaws.com/Law/Law+firm+background+image+for+arbitration+and+mediation+section%2C+minimalist%2C+elegant%2C+photography+style%2C+branding+style.png
"GILL IMMIGRATION CONSULTANT, INC",1 559-412-2876,4709 N El Capitan Ave #103,Fresno,California,93722,United States,"4709 N El Capitan Ave #103, Fresno, CA 93722, USA",36.806469,-119.868708,Law,,https://apneyyimages.s3.eu-north-1.amazonaws.com/Law/a+reallistic+law+office+for+bankruptcy+law+more+alive.png,https://apneyyimages.s3.eu-north-1.amazonaws.com/Law/law+office%2C+law%2C+document%2C+table%2C+photographic%2C+realistic%2C+4K+(7).png,https://apneyyimages.s3.eu-north-1.amazonaws.com/Law/law+office%2C+law%2C+document%2C+table%2C+photographic%2C+realistic%2C+4K+(1).png
SM IMMIGRATION CONSULTANT LLC,1 559-569-5644,4165 W Alamos Ave Ste 102,Fresno,California,93722,United States,"4165 W Alamos Ave Ste 102, Fresno, CA 93722, USA",36.8051863,-119.8665203,Law,,https://apneyyimages.s3.eu-north-1.amazonaws.com/Law/an+image+that+represents+tax+law.png,https://apneyyimages.s3.eu-north-1.amazonaws.com/Law/law+office%2C+law%2C+document%2C+table%2C+photographic%2C+realistic%2C+4K.png,https://apneyyimages.s3.eu-north-1.amazonaws.com/Law/law+office%2C+law%2C+document%2C+table%2C+photographic%2C+realistic%2C+4K+(2).png
Law Office of Najda Kazarian,1 559-365-8973,1401 Fulton St Suite 906,Fresno,California,93721,United States,"1401 Fulton St Suite 906, Fresno, CA 93721, USA",36.7378373,-119.7950092,Law,,https://apneyyimages.s3.eu-north-1.amazonaws.com/Law/case+law%2C+law+change%2C+law%2C+image+for+a+blog+post.png,https://apneyyimages.s3.eu-north-1.amazonaws.com/Law/Legal+law+concept+image%2C+extreme+close+up+of+scales+symbol+of+Justice.png,https://apneyyimages.s3.eu-north-1.amazonaws.com/Law/law+office%2C+law%2C+document%2C+table%2C+photographic%2C+realistic%2C+4K+(3).png
The Bains Law Offices,1 559-282-8924,516 W Shaw Ave #200,Fresno,California,93704,United States,"516 W Shaw Ave suite 200, Fresno, CA 93704, USA",36.8082796,-119.801765,Law,,https://apneyyimages.s3.eu-north-1.amazonaws.com/Law/Create+an+image+of+a+law.png,https://apneyyimages.s3.eu-north-1.amazonaws.com/Law/present+card+about+law+and+justice+for+the+day+of+law.png,https://apneyyimages.s3.eu-north-1.amazonaws.com/Law/law+office%2C+law%2C+document%2C+table%2C+photographic%2C+realistic%2C+4K+(4).png
Law Offices of Sam Salhab,1 559-412-9888,2445 Capitol St Ste 140,Fresno,California,93721,United States,"2445 Capitol St Ste 140, Fresno, CA 93721, USA",36.736166,-119.7839888,Law,,https://apneyyimages.s3.eu-north-1.amazonaws.com/Law/image+of+a+stack+of+documents+and+a+hand+holding+a+law+book.png,https://apneyyimages.s3.eu-north-1.amazonaws.com/Law/stock+photo+showing+Indian+low+and+jurisdiction+-+Indian+national+flag+or+tricolour+with+wooden+gavel+showing+concept+of+law+in+India.png,https://apneyyimages.s3.eu-north-1.amazonaws.com/Law/a+hyper+photo+realistic+image+of+a+law+symbol+on+the+table+with+laptop.png
Singh Ahluwalia Attorneys at Law,1 559-354-7093,4185 W Figarden Dr #104,Fresno,California,93722,United States,"4185 W Figarden Dr #104, Fresno, CA 93722, USA",36.8289964,-119.8661904,Law,,https://apneyyimages.s3.eu-north-1.amazonaws.com/Law/Law+206+of+the+Egyptian+Tax+Law+%5Bid_7483392%5D.png,https://apneyyimages.s3.eu-north-1.amazonaws.com/Law/The+Statue+of+Justice+symbol%2C+legal+law+concept+image%2C+Realistic+Photo%2C+Minimal+Composition%2C+law+theme%2C.png,https://apneyyimages.s3.eu-north-1.amazonaws.com/Law/a+reallistic+law+office+for+bankruptcy+law+more+alive.png
Law Office of Alaina N. Ybarra,1 559-437-9200,4478 W Spaatz Ave,Fresno,California,93722,United States,"4478 W Spaatz Ave, Fresno, CA 93722, USA",36.8388786,-119.8734138,Law,,https://apneyyimages.s3.eu-north-1.amazonaws.com/Law/a+hyper+photo+realistic+image+of+a+law+symbol+on+the+table+with+laptop.png,https://apneyyimages.s3.eu-north-1.amazonaws.com/Law/law+office%2C+law%2C+document%2C+table%2C+photographic%2C+realistic%2C+4K+(6).png,https://apneyyimages.s3.eu-north-1.amazonaws.com/Law/Law+firm+background+image+for+arbitration+and+mediation+section%2C+minimalist%2C+elegant%2C+photography+style%2C+branding+style.png
Emerzian Shankar Legal Inc,1 559-490-0451,,Fresno,California,,United States,,,,Law,,https://apneyyimages.s3.eu-north-1.amazonaws.com/Law/a+reallistic+law+office+for+bankruptcy+law+more+alive.png,https://apneyyimages.s3.eu-north-1.amazonaws.com/Law/law+office%2C+law%2C+document%2C+table%2C+photographic%2C+realistic%2C+4K+(7).png,https://apneyyimages.s3.eu-north-1.amazonaws.com/Law/law+office%2C+law%2C+document%2C+table%2C+photographic%2C+realistic%2C+4K+(1).png
"Law Offices of Tina M. Barberi, PC",1 559-447-1240,7493 N Ingram Ave #103,Fresno,California,93711,United States,"7493 N Ingram Ave #103, Fresno, CA 93711, USA",36.8457352,-119.8023355,Law,,https://apneyyimages.s3.eu-north-1.amazonaws.com/Law/case+law%2C+law+change%2C+law%2C+image+for+a+blog+post.png,https://apneyyimages.s3.eu-north-1.amazonaws.com/Law/Legal+law+concept+image%2C+extreme+close+up+of+scales+symbol+of+Justice.png,https://apneyyimages.s3.eu-north-1.amazonaws.com/Law/law+office%2C+law%2C+document%2C+table%2C+photographic%2C+realistic%2C+4K+(3).png
Aadar Indian Bistro,,9447 N Fort Washington Rd #112,Fresno,California,93730,United States,"9447 N Fort Washington Rd #112, Fresno, CA 93730, USA",36.8747941,-119.7780815,Restaurant,,https://apneyyimages.s3.eu-north-1.amazonaws.com/Restaurant/_bowl+Grilled+Chicken+Caesar+Salad%2C+gourmet+salad%2C+lunch%2C+flavorful+creation%2C+film+camera%2C+street+food+photography%2C+(1).png,https://apneyyimages.s3.eu-north-1.amazonaws.com/Restaurant/Indian+Chicken+Curry%2C+Indian+food+Photography+(1).png,https://apneyyimages.s3.eu-north-1.amazonaws.com/Restaurant/Delicious+gyros+fast+food+in+flatbread%2C+lettuce%2C+tomatoes%2C+onions%2C+rolled%2C+isolated%2C+generative+ai.png
King Indian Restaurant,,6611 N Riverside Dr suite #104,Fresno,California,93722,United States,"6611 N Riverside Dr suite #104, Fresno, CA 93722, USA",36.8338909,-119.9103984,Restaurant,,https://apneyyimages.s3.eu-north-1.amazonaws.com/Restaurant/_bowl+Grilled+Chicken+Caesar+Salad%2C+gourmet+salad%2C+lunch%2C+flavorful+creation%2C+film+camera%2C+street+food+photography%2C.png,https://apneyyimages.s3.eu-north-1.amazonaws.com/Restaurant/Indian+Chicken+Curry%2C+Indian+food+Photography.png,https://apneyyimages.s3.eu-north-1.amazonaws.com/Restaurant/delicious+veg+biryani+on+plate.png
Bay Leaf Indian Kitchen,,4368 W Shaw Ave,Fresno,California,93722,United States,"4368 W Shaw Ave, Fresno, CA 93722, USA",36.8094678,-119.8706081,Restaurant,,https://apneyyimages.s3.eu-north-1.amazonaws.com/Restaurant/%2C+kerala+appam%2C+top-view%2C+indian+food%2C+gold+plate%2C+photo-realistic.png,https://apneyyimages.s3.eu-north-1.amazonaws.com/Restaurant/Indian+chicken+tikka+masala+with+rice+food+dish+%2C+realistic+photo+%2C+high+resolution.png,https://apneyyimages.s3.eu-north-1.amazonaws.com/Restaurant/delicious+veg+momos%2C+scattared%2C+top+view%2C+circle+plate%2C+studio+shot%2C+realistic.webp
Golden Punjab Indian Restaurant Fresno,,8064 N Cedar Ave,Fresno,California,93720,United States,"8064 N Cedar Ave, Fresno, CA 93720, USA",36.8532627,-119.7553392,Restaurant,,https://apneyyimages.s3.eu-north-1.amazonaws.com/Restaurant/(Image+of+a+plate+filled+with+luscious+Gulab+Jamun+in+a+vibrant+Diwali+setting)%2C+Diwali%2C+Indian+Sweets%2C+DSLR%2C+50mm%2C+Overhead%2C+Golden+Hour%2C+Colorful.png,https://apneyyimages.s3.eu-north-1.amazonaws.com/Restaurant/Indian+chicken+tikka+masala+with+rice+food+dish%2C+(1).png,https://apneyyimages.s3.eu-north-1.amazonaws.com/Restaurant/Delicious+vegan+Quinoa+Food+Photo%2C+AI+Generative.png
Punjabi Dhaba - Indian Cuisine,,3767 S Golden State Blvd,Fresno,California,93725,United States,"3767 S Golden State Blvd, Fresno, CA 93725, USA",36.6797779,-119.7376417,Restaurant,,https://apneyyimages.s3.eu-north-1.amazonaws.com/Restaurant/(Image+of+Aloo+Tikki+served+on+a+festive+platter+with+vibrant+chutneys)%2C+Diwali%2C+Indian+Street+Food%2C+DSLR%2C+50mm%2C+Overhead%2C+Golden+Hour%2C+Colorful+(1).png,https://apneyyimages.s3.eu-north-1.amazonaws.com/Restaurant/Indian+chicken+tikka+masala+with+rice+food+dish%2C.png,https://apneyyimages.s3.eu-north-1.amazonaws.com/Restaurant/Design+a+visually+captivating+AI-generated+image+of+a+Diwali+feast%2C+with+a+table+adorned+with+delicious+sweets+and+traditional+dishes+(1).png
Royal Taj Fine Indian Cuisine,,6735 N First St,Fresno,California,93710,United States,"6735 N First St, Fresno, CA 93710, USA",36.8365286,-119.7747226,Restaurant,,https://apneyyimages.s3.eu-north-1.amazonaws.com/Restaurant/(Image+of+Aloo+Tikki+served+on+a+festive+platter+with+vibrant+chutneys)%2C+Diwali%2C+Indian+Street+Food%2C+DSLR%2C+50mm%2C+Overhead%2C+Golden+Hour%2C+Colorful.png,https://apneyyimages.s3.eu-north-1.amazonaws.com/Restaurant/Indian+cuisine+food+on+white+background%2C+ultra+realistic%2C+photography%2C+raw%2C+8k+(1).png,https://apneyyimages.s3.eu-north-1.amazonaws.com/Restaurant/Design+a+visually+captivating+AI-generated+image+of+a+Diwali+feast%2C+with+a+table+adorned+with+delicious+sweets+and+traditional+dishes+(2).png
Tandoori Night,,6751 N Blackstone Ave,Fresno,California,93710,United States,"6751 N Blackstone Ave, Fresno, CA 93710, USA",36.8362539,-119.7912314,Restaurant,,https://apneyyimages.s3.eu-north-1.amazonaws.com/Restaurant/%5B4974394044%5D+simple+daal+illustration+with+yellow+lentils.+cozy.+vegan.+minimalist.+thick+pen.+with+lots+of+green.+square.png,https://apneyyimages.s3.eu-north-1.amazonaws.com/Restaurant/Indian+cuisine+food+on+white+background%2C+ultra+realistic%2C+photography%2C+raw%2C+8k.png,https://apneyyimages.s3.eu-north-1.amazonaws.com/Restaurant/Design+a+visually+captivating+AI-generated+image+of+a+Diwali+feast%2C+with+a+table+adorned+with+delicious+sweets+and+traditional+dishes+(3).png
Luv Punjab,,5560 E Kings Canyon Rd,Fresno,California,93727,United States,"5560 E Kings Canyon Rd, Fresno, CA 93727, USA",36.7352512,-119.7013591,Restaurant,,https://apneyyimages.s3.eu-north-1.amazonaws.com/Restaurant/3d+modeling+indian+daal+tadaka+%2Cclose+up%2C+16k%2C+super+high+definition%2C+HD%2C+shot+with+nikon.png,https://apneyyimages.s3.eu-north-1.amazonaws.com/Restaurant/indian+dal+chawal+in+a+takeaway%2C+Indian+Food.+Green%2C+white%2C+black%2C+ui%2C+ux%2C+ui_ux+%2C.png,https://apneyyimages.s3.eu-north-1.amazonaws.com/Restaurant/Design+a+visually+captivating+AI-generated+image+of+a+Diwali+feast%2C+with+a+table+adorned+with+delicious+sweets+and+traditional+dishes.png
Mirchi Massala Fine Indian Cuisine,,1069 E Shaw Ave,Fresno,California,93710,United States,"1069 E Shaw Ave, Fresno, CA 93710, USA",36.807293,-119.7711266,Restaurant,,https://apneyyimages.s3.eu-north-1.amazonaws.com/Restaurant/3D+pixar+animation%2C+An+indian+village+food+(1).png,https://apneyyimages.s3.eu-north-1.amazonaws.com/Restaurant/Indian+dish+butter+chicken+as+a+food+styling+shot+(1).png,https://apneyyimages.s3.eu-north-1.amazonaws.com/Restaurant/Dhokla+or+sandwich+dhokla+_+Indian+savory+snacks+made+of+chick+pea+flour+or+rice+flour%2C+selective+focus+stock+photo+Asia%2C+Breakfast%2C+Cheese%2C+Cooked%2C+Food.png
Aroma Indian Food,,5076 W Shaw Ave,Fresno,California,93722,United States,"5076 W Shaw Ave, Fresno, CA 93722, USA",36.8084671,-119.8824113,Restaurant,,https://apneyyimages.s3.eu-north-1.amazonaws.com/Restaurant/3D+pixar+animation%2C+An+indian+village+food.png,https://apneyyimages.s3.eu-north-1.amazonaws.com/Restaurant/Indian+dish+butter+chicken+as+a+food+styling+shot.png,https://apneyyimages.s3.eu-north-1.amazonaws.com/Restaurant/dnd+style+sandwich.png
Royal Indian Kitchen,,2885 E Jensen Ave,Fresno,California,93706,United States,"2885 E Jensen Ave, Fresno, CA 93706, USA",36.7073098,-119.7765681,Restaurant,,https://apneyyimages.s3.eu-north-1.amazonaws.com/Restaurant/4k+picture+of+Indian+food+momos+background+black.png,https://apneyyimages.s3.eu-north-1.amazonaws.com/Restaurant/Indian+family+in+a+restaurant+enjoying+food+and+making+memories.png,https://apneyyimages.s3.eu-north-1.amazonaws.com/Restaurant/donuts%2C+look+tasty%2C+cooking%2C+high+accuracy+of+eating+and+image%2C+food%2C+detail%2C+commercial+photography%2C+focus+on+food%2C+different+camera+position.png
Indian Kebab Palace,,1552 E Champlain Dr,Fresno,California,93720,United States,"1552 E Champlain Dr, Fresno, CA 93720, USA",36.8680296,-119.7549999,Restaurant,,https://apneyyimages.s3.eu-north-1.amazonaws.com/Restaurant/4k+picture+of+Indian+food+pani+puri+background+black.png,https://apneyyimages.s3.eu-north-1.amazonaws.com/Restaurant/Indian+festival+makar+sankranti+special+haldi+kumkum+with+sankranti+sweets+of+jaggery+recipes%2C+til+ladoo%2C+peanut+chikki%2C+til+chikki%2C+rajgira+laddu.png,https://apneyyimages.s3.eu-north-1.amazonaws.com/Restaurant/Easy+Curry+Sauce%2C+Indian+food+Photography.png
Sher-E-Punjab Restaurant & Catering,,7050 N Cedar Ave,Fresno,California,93720,United States,"7050 N Cedar Ave, Fresno, CA 93720, USA",36.8387477,-119.7525118,Restaurant,,https://apneyyimages.s3.eu-north-1.amazonaws.com/Restaurant/a+breakfast+with+kosher+food+photorealistic.png,https://apneyyimages.s3.eu-north-1.amazonaws.com/Restaurant/Indian+Fish+Curry%2C+Indian+food+Photography+(1).png,https://apneyyimages.s3.eu-north-1.amazonaws.com/Restaurant/Easy+Two-Ingredient+Naan%2C+Indian+food+Photography+(2).png
Brahma Indian Cuisine,,3050 W Shaw Ave #108,Fresno,California,93711,United States,"3050 W Shaw Ave #108, Fresno, CA 93711, USA",36.8094528,-119.8452056,Restaurant,,https://apneyyimages.s3.eu-north-1.amazonaws.com/Restaurant/a+golden+pot+having+swwet+indian+food+like+sweet+milke.png,https://apneyyimages.s3.eu-north-1.amazonaws.com/Restaurant/Indian+Fish+Curry%2C+Indian+food+Photography.png,https://apneyyimages.s3.eu-north-1.amazonaws.com/Restaurant/Easy+Two-Ingredient+Naan%2C+Indian+food+Photography.png
Bollywood Indian Street Food,,7059 N Cedar Ave,Fresno,California,93720,United States,"7059 N Cedar Ave, Fresno, CA 93720, USA",36.8380524,-119.7565154,Restaurant,,https://apneyyimages.s3.eu-north-1.amazonaws.com/Restaurant/a+photograph+of+a+smiling+Zulu+woman+in+a+fast+food+uniform+standing+behind+a+fast+food+counter%2C+steamed+dumplings.png,https://apneyyimages.s3.eu-north-1.amazonaws.com/Restaurant/indian+flag+art%2C+food%2C+(1).png,https://apneyyimages.s3.eu-north-1.amazonaws.com/Restaurant/eggless+mayonnaise+veg+roll%2Cside+view.png
Indiaâ€™s Oven Restaurant and Bar,,1153 N Fulton St,Fresno,California,93728,United States,"1153 N Fulton St, Fresno, CA 93728, USA",36.7575246,-119.800495,Restaurant,,https://apneyyimages.s3.eu-north-1.amazonaws.com/Restaurant/a+plate+decorated+by+the+food+items%2C+indian+cuisine.png,https://apneyyimages.s3.eu-north-1.amazonaws.com/Restaurant/indian+flag+art%2C+food%2C+(3).png,https://apneyyimages.s3.eu-north-1.amazonaws.com/Restaurant/Emerging+Food+%26amp_+Beverage+Trends+2021_+AI+Reduces+This+Year%26%23039_s+Unpredictability%2C.png
India Bazaar & Amritsari Rasoi,,3752 W Shields Ave Suite 103,Fresno,California,93722,United States,"3752 W Shields Ave Suite 103, Fresno, CA 93722, USA",36.7795474,-119.8604115,Restaurant,,https://apneyyimages.s3.eu-north-1.amazonaws.com/Restaurant/a+real+4k+image+of+a+bowl+with+daal+makhni+in+it+covered+with+melted+cheese.png,https://apneyyimages.s3.eu-north-1.amazonaws.com/Restaurant/indian+flag+art%2C+food%2C.png,https://apneyyimages.s3.eu-north-1.amazonaws.com/Restaurant/erated+im+street+food.png
Rajdhani Express (Indian Food Factory),,6451 E Shields Ave,Fresno,California,93727,United States,"6451 E Shields Ave, Fresno, CA 93727, USA",36.778872,-119.6736553,Restaurant,,https://apneyyimages.s3.eu-north-1.amazonaws.com/Restaurant/a+round+barbeque+table+with+3+veg+items+with+Punjabi+people+eating+veg+barbeque+food%2C+wide+angle+shot%2C+and+a+minimal+light+background+with+bokeh+lights.png,https://apneyyimages.s3.eu-north-1.amazonaws.com/Restaurant/indian+food+%2C+illustrations+%2C+cute+%2C+innocent+%2C+dark+color+%2C+aerial+view%2C+wide+angle+short.png,https://apneyyimages.s3.eu-north-1.amazonaws.com/Restaurant/Exploring+Irresistible+Fast+Food.png
New Star Indian Cuisine,,5348 W Spruce Ave,Fresno,California,93722,United States,"5348 W Spruce Ave, Fresno, CA 93722, USA",36.838644,-119.8889329,Restaurant,,https://apneyyimages.s3.eu-north-1.amazonaws.com/Restaurant/a+sandwich+inside+a+sandwich.png,https://apneyyimages.s3.eu-north-1.amazonaws.com/Restaurant/indian+food+(1).png,https://apneyyimages.s3.eu-north-1.amazonaws.com/Restaurant/Eye+level+POV+of+a+dining+table+filled+with+modak%2C+kheer%2C+laddoo+and+indian+sweets%2C+daylight.png
Punjabi Tadka,,3999 N Parkway Dr,Fresno,California,93722,United States,"3999 N Parkway Dr, Fresno, CA 93722, USA",36.7933684,-119.8675577,Restaurant,,https://apneyyimages.s3.eu-north-1.amazonaws.com/Restaurant/A+table+full+of+indian+food+dishes%2C+wide+angle%2C+8k+relastic+image_.png,https://apneyyimages.s3.eu-north-1.amazonaws.com/Restaurant/indian+food+(2).png,https://apneyyimages.s3.eu-north-1.amazonaws.com/Restaurant/Eye+level+POV+of+a+dining+table+filled+with+modak%2C+kheer%2C+laddoo+and+indian+sweets.png
India's Oven - Indian Cuisine / Indian Food Restaurants / Best Indian Restaurants (Fresno),,3035 W Ashlan Ave,Fresno,California,93722,United States,"3035 W Ashlan Ave, Fresno, CA 93722, USA",36.7928427,-119.8452202,Restaurant,,https://apneyyimages.s3.eu-north-1.amazonaws.com/Restaurant/a+table+full+off+food+chinese+food.png,https://apneyyimages.s3.eu-north-1.amazonaws.com/Restaurant/indian+food+(3).png,https://apneyyimages.s3.eu-north-1.amazonaws.com/Restaurant/fast+food+(1).png
Veggie Indian food,,4249 W Shaw Ave,Fresno,California,93722,United States,"4249 W Shaw Ave, Fresno, CA 93722, USA",36.8075916,-119.8680905,Restaurant,,https://apneyyimages.s3.eu-north-1.amazonaws.com/Restaurant/A+tricolor+display+of+Indian+sweets+and+delicacies+(1).png,https://apneyyimages.s3.eu-north-1.amazonaws.com/Restaurant/Indian+food+brunch.png,https://apneyyimages.s3.eu-north-1.amazonaws.com/Restaurant/fast+food+(2).png
Daana Paani indian cuisine,,3135 E Central Ave,Fresno,California,93725,United States,"3135 E Central Ave, Fresno, CA 93725, USA",36.6775895,-119.7350031,Restaurant,,https://apneyyimages.s3.eu-north-1.amazonaws.com/Restaurant/A+tricolor+display+of+Indian+sweets+and+delicacies.png,https://apneyyimages.s3.eu-north-1.amazonaws.com/Restaurant/indian+food+chicken+tikka.png,https://apneyyimages.s3.eu-north-1.amazonaws.com/Restaurant/fast+food+(3).png
Curry House,,7735 N Blackstone Ave #105,Fresno,California,93720,United States,"7735 N Blackstone Ave #105, Fresno, CA 93720, USA",36.8481228,-119.7918058,Restaurant,,https://apneyyimages.s3.eu-north-1.amazonaws.com/Restaurant/a+Veg+schezwan+momo+with+a+red+and+white+sauce+served+over+a+rustic+wooden+background%2C+selective+focus+(1).png,https://apneyyimages.s3.eu-north-1.amazonaws.com/Restaurant/Indian+food+closeup+view+on+a+white+table.png,https://apneyyimages.s3.eu-north-1.amazonaws.com/Restaurant/fast+food+and+unhealthy+eating+concept+-+close+up+of+fast+food+snacks+and+cola+drink+on+wooden+table%2C.png
Tandoori Grill,,5189 E Cesar Chavez Blvd,Fresno,California,93727,United States,"5189 E Cesar Chavez Blvd, Fresno, CA 93727, USA",36.7363398,-119.7186685,Restaurant,,https://apneyyimages.s3.eu-north-1.amazonaws.com/Restaurant/a+Veg+schezwan+momo+with+a+red+and+white+sauce+served+over+a+rustic+wooden+background%2C+selective+focus.png,https://apneyyimages.s3.eu-north-1.amazonaws.com/Restaurant/Indian+food+Dal+halwa+in+a+plate+on+yellow+%2C+UHD%2C+8k%2C.png,https://apneyyimages.s3.eu-north-1.amazonaws.com/Restaurant/fast+food+and+unhealthy+eating+concept+-+close+up+of+fast+food+snacks+and+cola+drink+on+wooden+table.png
Food Junction (Indian Street Food),,2600 N Marks Ave,Fresno,California,93722,United States,"2600 N Marks Ave, Fresno, CA 93722, USA",36.775709,-119.8443884,Restaurant,,https://apneyyimages.s3.eu-north-1.amazonaws.com/Restaurant/A+vibrant+Indian+street+food+market+with+rich%2C+spicy+food_.png,https://apneyyimages.s3.eu-north-1.amazonaws.com/Restaurant/Indian+food+feast+with+chicken+tikka+masala+curry%2C+tandoori+chicken+and+appetizers+(1).png,https://apneyyimages.s3.eu-north-1.amazonaws.com/Restaurant/Fast+food+box+lunch.png
Food Junction 2 (Indian Street Food),,1095 N Fowler Ave,Fresno,California,93727,United States,"1095 N Fowler Ave, Fresno, CA 93727, USA",36.751456,-119.682365,Restaurant,,https://apneyyimages.s3.eu-north-1.amazonaws.com/Restaurant/aesthetic+food%2C+breakfast%2C+waffles.png,https://apneyyimages.s3.eu-north-1.amazonaws.com/Restaurant/Indian+food+feast+with+chicken+tikka+masala+curry%2C+tandoori+chicken+and+appetizers+(2).png,https://apneyyimages.s3.eu-north-1.amazonaws.com/Restaurant/Fast+Food+Box+with+French+Fries.png
Bharat Royal Cuisine,,6443 N Riverside Dr Suite 104,Fresno,California,93722,United States,"6443 N Riverside Dr Suite 104, Fresno, CA 93722, USA",36.8300917,-119.9071894,Restaurant,,https://apneyyimages.s3.eu-north-1.amazonaws.com/Restaurant/aesthetic+image+of+south+indian+food+with+minimal+backdrop+and+aesthetic+lighting.png,https://apneyyimages.s3.eu-north-1.amazonaws.com/Restaurant/indian+food+feast+with+chicken+tikka+masala+curry%2C+tandoori+chicken+and+appetizers.png,https://apneyyimages.s3.eu-north-1.amazonaws.com/Restaurant/fast+food+burrito%2C+food+photography%2C+bright+red+background.png
Curry House #2,,4277 N West Ave,Fresno,California,93705,United States,"4277 N West Ave, Fresno, CA 93705, USA",36.7950869,-119.8271793,Restaurant,,https://apneyyimages.s3.eu-north-1.amazonaws.com/Restaurant/Air+Fryer+Pakoras%2C+Indian+food+Photography.png,https://apneyyimages.s3.eu-north-1.amazonaws.com/Restaurant/indian+food+feast%2C+samosa%2C+daal%2C+palak+paneer%2C+roti%2C+naan%2C+sunset+backround%2C+arizona%2C+cactus.png,https://apneyyimages.s3.eu-north-1.amazonaws.com/Restaurant/fast+food+cheeseburger.png
Indian Grocery Superstore (IGS) & Restaurant,,5091 N Fresno St 145 B,Fresno,California,93710,United States,"5091 N Fresno St 145 B, Fresno, CA 93710, USA",36.8107216,-119.7820509,Restaurant,,https://apneyyimages.s3.eu-north-1.amazonaws.com/Restaurant/all+fast+food%2C+delicious+dishes.png,https://apneyyimages.s3.eu-north-1.amazonaws.com/Restaurant/indian+food+flavour+in+true+photo.png,https://apneyyimages.s3.eu-north-1.amazonaws.com/Restaurant/Fast+Food+Classics.png
INDIAN BAZZAR,,3622 W Shaw Ave,Fresno,California,93711,United States,"3622 W Shaw Ave, Fresno, CA 93711, USA",36.8086237,-119.8590891,Restaurant,,https://apneyyimages.s3.eu-north-1.amazonaws.com/Restaurant/Aloo+Gobi+Indian+food+(1).png,https://apneyyimages.s3.eu-north-1.amazonaws.com/Restaurant/Indian+food+in+amber+glass+lunch+box+(1).png,https://apneyyimages.s3.eu-north-1.amazonaws.com/Restaurant/Fast+Food+Combo+Specials.png
Gulab Indian Bistro,,1820 Shaw Ave,Fresno,California,93611,United States,"1820 Shaw Ave, Clovis, CA 93611, USA",36.8070123,-119.6811875,Restaurant,,https://apneyyimages.s3.eu-north-1.amazonaws.com/Restaurant/Aloo+Gobi+Indian+food.png,https://apneyyimages.s3.eu-north-1.amazonaws.com/Restaurant/Indian+food+in+amber+glass+lunch+box.png,https://apneyyimages.s3.eu-north-1.amazonaws.com/Restaurant/Fast+food+delicious+burger+(1).png
Moga Mandi Indian Market And Restaurant,,5187 E Belmont Ave,Fresno,California,93727,United States,"5187 E Belmont Ave, Fresno, CA 93727, USA",36.75163,-119.718703,Restaurant,,https://apneyyimages.s3.eu-north-1.amazonaws.com/Restaurant/american+breakfast%2C+breakfast+sandwich+on+a+plate%2C+Professional+Food+photography%2C+Photograph+with+a+Sony+Alpha+a7+III+at+1_160+sec%2C+f_3+(1).5,https://apneyyimages.s3.eu-north-1.amazonaws.com/Restaurant/indian+food+in+clay+pots+hd+(1).png,https://apneyyimages.s3.eu-north-1.amazonaws.com/Restaurant/Fast+food+delicious+burger.png
Standard Sweets & Spices,,1819 E Dakota Ave,Fresno,California,93726,United States,"1819 E Dakota Ave, Fresno, CA 93726, USA",36.7872228,-119.7894896,Restaurant,,https://apneyyimages.s3.eu-north-1.amazonaws.com/Restaurant/american+breakfast%2C+breakfast+sandwich+on+a+plate%2C+Professional+Food+photography%2C+Photograph+with+a+Sony+Alpha+a7+III+at+1_160+sec%2C+f_3.5,https://apneyyimages.s3.eu-north-1.amazonaws.com/Restaurant/indian+food+in+clay+pots+hd.png,https://apneyyimages.s3.eu-north-1.amazonaws.com/Restaurant/Fast+Food+Delivery+Services+in+Alabama.png
Desi Kitchen,,3716 W Shields Ave,Fresno,California,93722,United States,"3716 W Shields Ave, Fresno, CA 93722, USA",36.7799646,-119.8597673,Restaurant,,https://apneyyimages.s3.eu-north-1.amazonaws.com/Restaurant/american+breakfast%2C+breakfast+wrap+on+a+plate%2C+Professional+Food+photography%2C+Photograph+with+a+Sony+Alpha+a7+III+at+1_160+sec%2C+f_3.5,https://apneyyimages.s3.eu-north-1.amazonaws.com/Restaurant/indian+food+industry.png,https://apneyyimages.s3.eu-north-1.amazonaws.com/Restaurant/fast+food+familiar+to+aliens%2C+food+other+digitalization%2C+macdonald%E2%80%99s+for+UFOs.png
Indian Market,,2811 W Clinton Ave,Fresno,California,93705,United States,"2811 W Clinton Ave, Fresno, CA 93705, USA",36.7711387,-119.8435779,Restaurant,,https://apneyyimages.s3.eu-north-1.amazonaws.com/home+cleaner/A+cleaner+at+work.png,https://apneyyimages.s3.eu-north-1.amazonaws.com/home+cleaner/A+cleaner+at+work.png,https://apneyyimages.s3.eu-north-1.amazonaws.com/home+cleaner/Caucasian+man+uses+vacuum+cleaner+to+keep+living+space+tidy.+Man+with+vacuum+cleaner+in+hand+ensures+home+remaining+tidy+place+to+live.+Vertical+photo.png
Fusion Indian Cuisine & Chaat Corner,,1210 Shaw Ave #103,Fresno,California,93612,United States,"1210 Shaw Ave #103, Clovis, CA 93612, USA",36.8080688,-119.69364,Restaurant,,https://apneyyimages.s3.eu-north-1.amazonaws.com/Restaurant/American+fast+food+restaurant%2C+fast+food+on+the+table.png,https://apneyyimages.s3.eu-north-1.amazonaws.com/Restaurant/indian+food+items+on+kitchen+table%2C+in+kitchen+hd.png,https://apneyyimages.s3.eu-north-1.amazonaws.com/Restaurant/Fast+Food+Feast+at+Home.png
Slice Of India,,1345 N Willow Ave #110,Fresno,California,93619,United States,"1345 N Willow Ave #110, Clovis, CA 93619, USA",36.8534414,-119.7280095,Restaurant,,https://apneyyimages.s3.eu-north-1.amazonaws.com/Restaurant/An+English+breakfast+plate+of+food+with+eggs%2C+sausage+and+toast.png,https://apneyyimages.s3.eu-north-1.amazonaws.com/Restaurant/Indian+food+list.png,https://apneyyimages.s3.eu-north-1.amazonaws.com/Restaurant/fast+food+fried+chicken%2C+Ultra+realistic%2C.png
The Curry Pizza Company #1 - Shaw,,3173 W Shaw Ave #103,Fresno,California,93711,United States,"3173 W Shaw Ave #103, Fresno, CA 93711, USA",36.8079111,-119.8483111,Restaurant,,https://apneyyimages.s3.eu-north-1.amazonaws.com/Restaurant/an+image+raising+awareness+about+global+hunger+and+food+securit.png,https://apneyyimages.s3.eu-north-1.amazonaws.com/Restaurant/Indian+food+Mattar+paneer.png,https://apneyyimages.s3.eu-north-1.amazonaws.com/Restaurant/fast+food+meal%2C+white+background.png
Sanjha punjab,,2930 E Nees Ave,Fresno,California,93720,United States,"2930 E Nees Ave, Fresno, CA 93720, USA",36.8531384,-119.7316896,Restaurant,,https://apneyyimages.s3.eu-north-1.amazonaws.com/Restaurant/_bowl+Grilled+Chicken+Caesar+Salad%2C+gourmet+salad%2C+lunch%2C+flavorful+creation%2C+film+camera%2C+street+food+photography%2C+(1).png,https://apneyyimages.s3.eu-north-1.amazonaws.com/Restaurant/Indian+Chicken+Curry%2C+Indian+food+Photography+(1).png,https://apneyyimages.s3.eu-north-1.amazonaws.com/Restaurant/Delicious+gyros+fast+food+in+flatbread%2C+lettuce%2C+tomatoes%2C+onions%2C+rolled%2C+isolated%2C+generative+ai.png
Khalsa Burger,,5480 W Shaw Ave,Fresno,California,93722,United States,"5480 W Shaw Ave, Fresno, CA 93722, USA",36.8085474,-119.8890807,Restaurant,,https://apneyyimages.s3.eu-north-1.amazonaws.com/Restaurant/_bowl+Grilled+Chicken+Caesar+Salad%2C+gourmet+salad%2C+lunch%2C+flavorful+creation%2C+film+camera%2C+street+food+photography%2C.png,https://apneyyimages.s3.eu-north-1.amazonaws.com/Restaurant/Indian+Chicken+Curry%2C+Indian+food+Photography.png,https://apneyyimages.s3.eu-north-1.amazonaws.com/Restaurant/delicious+veg+biryani+on+plate.png
Indian Curry Naan Stop,,32603 Ave 7,Fresno,California,93637,United States,"32603 Ave 7, Madera, CA 93637, USA",36.8523539,-119.951866,Restaurant,,https://apneyyimages.s3.eu-north-1.amazonaws.com/Restaurant/%2C+kerala+appam%2C+top-view%2C+indian+food%2C+gold+plate%2C+photo-realistic.png,https://apneyyimages.s3.eu-north-1.amazonaws.com/Restaurant/Indian+chicken+tikka+masala+with+rice+food+dish+%2C+realistic+photo+%2C+high+resolution.png,https://apneyyimages.s3.eu-north-1.amazonaws.com/Restaurant/delicious+veg+momos%2C+scattared%2C+top+view%2C+circle+plate%2C+studio+shot%2C+realistic.webp
India Sweets & Spices,,3055 W Ashlan Ave,Fresno,California,93722,United States,"3055 W Ashlan Ave, Fresno, CA 93722, USA",36.7928423,-119.8456549,Restaurant,,https://apneyyimages.s3.eu-north-1.amazonaws.com/Restaurant/(Image+of+a+plate+filled+with+luscious+Gulab+Jamun+in+a+vibrant+Diwali+setting)%2C+Diwali%2C+Indian+Sweets%2C+DSLR%2C+50mm%2C+Overhead%2C+Golden+Hour%2C+Colorful.png,https://apneyyimages.s3.eu-north-1.amazonaws.com/Restaurant/Indian+chicken+tikka+masala+with+rice+food+dish%2C+(1).png,https://apneyyimages.s3.eu-north-1.amazonaws.com/Restaurant/Delicious+vegan+Quinoa+Food+Photo%2C+AI+Generative.png
Maharaja Sweets & Spices,,435 N Clovis Ave,Fresno,California,93611,United States,"435 N Clovis Ave, Clovis, CA 93611, USA",36.8384551,-119.6995016,Restaurant,,https://apneyyimages.s3.eu-north-1.amazonaws.com/Restaurant/(Image+of+Aloo+Tikki+served+on+a+festive+platter+with+vibrant+chutneys)%2C+Diwali%2C+Indian+Street+Food%2C+DSLR%2C+50mm%2C+Overhead%2C+Golden+Hour%2C+Colorful+(1).png,https://apneyyimages.s3.eu-north-1.amazonaws.com/Restaurant/Indian+chicken+tikka+masala+with+rice+food+dish%2C.png,https://apneyyimages.s3.eu-north-1.amazonaws.com/Restaurant/Design+a+visually+captivating+AI-generated+image+of+a+Diwali+feast%2C+with+a+table+adorned+with+delicious+sweets+and+traditional+dishes+(1).png
New India Sweets & Spices,,3225 W Shaw Ave Suite 103,Fresno,California,93711,United States,"3225 W Shaw Ave #103, Fresno, CA 93711, USA",36.8068165,-119.8501795,Restaurant,,https://apneyyimages.s3.eu-north-1.amazonaws.com/Restaurant/(Image+of+Aloo+Tikki+served+on+a+festive+platter+with+vibrant+chutneys)%2C+Diwali%2C+Indian+Street+Food%2C+DSLR%2C+50mm%2C+Overhead%2C+Golden+Hour%2C+Colorful.png,https://apneyyimages.s3.eu-north-1.amazonaws.com/Restaurant/Indian+cuisine+food+on+white+background%2C+ultra+realistic%2C+photography%2C+raw%2C+8k+(1).png,https://apneyyimages.s3.eu-north-1.amazonaws.com/Restaurant/Design+a+visually+captivating+AI-generated+image+of+a+Diwali+feast%2C+with+a+table+adorned+with+delicious+sweets+and+traditional+dishes+(2).png
Indus Republic Restaurant,,744 P St Suite 103,Fresno,California,93721,United States,"744 P St Suite 103, Fresno, CA 93721, USA",36.7361952,-119.7811907,Restaurant,,https://apneyyimages.s3.eu-north-1.amazonaws.com/Restaurant/%5B4974394044%5D+simple+daal+illustration+with+yellow+lentils.+cozy.+vegan.+minimalist.+thick+pen.+with+lots+of+green.+square.png,https://apneyyimages.s3.eu-north-1.amazonaws.com/Restaurant/Indian+cuisine+food+on+white+background%2C+ultra+realistic%2C+photography%2C+raw%2C+8k.png,https://apneyyimages.s3.eu-north-1.amazonaws.com/Restaurant/Design+a+visually+captivating+AI-generated+image+of+a+Diwali+feast%2C+with+a+table+adorned+with+delicious+sweets+and+traditional+dishes+(3).png
Apna Bazar,,5627 Cesar Chavez Boulevard,Fresno,California,93727,United States,"5627 Cesar Chavez Blvd, Fresno, CA 93727, USA",36.7359276,-119.7184963,Restaurant,,https://apneyyimages.s3.eu-north-1.amazonaws.com/Restaurant/3d+modeling+indian+daal+tadaka+%2Cclose+up%2C+16k%2C+super+high+definition%2C+HD%2C+shot+with+nikon.png,https://apneyyimages.s3.eu-north-1.amazonaws.com/Restaurant/indian+dal+chawal+in+a+takeaway%2C+Indian+Food.+Green%2C+white%2C+black%2C+ui%2C+ux%2C+ui_ux+%2C.png,https://apneyyimages.s3.eu-north-1.amazonaws.com/Restaurant/Design+a+visually+captivating+AI-generated+image+of+a+Diwali+feast%2C+with+a+table+adorned+with+delicious+sweets+and+traditional+dishes.png
Desi Tadka,,2508 W Belmont Ave,Fresno,California,93728,United States,"2508 W Belmont Ave, Fresno, CA 93728, USA",36.7504531,-119.8403041,Restaurant,,https://apneyyimages.s3.eu-north-1.amazonaws.com/Restaurant/3D+pixar+animation%2C+An+indian+village+food+(1).png,https://apneyyimages.s3.eu-north-1.amazonaws.com/Restaurant/Indian+dish+butter+chicken+as+a+food+styling+shot+(1).png,https://apneyyimages.s3.eu-north-1.amazonaws.com/Restaurant/Dhokla+or+sandwich+dhokla+_+Indian+savory+snacks+made+of+chick+pea+flour+or+rice+flour%2C+selective+focus+stock+photo+Asia%2C+Breakfast%2C+Cheese%2C+Cooked%2C+Food.png
The Meat Bazaar,,6105 E Kings Canyon Rd UNIT 103,Fresno,California,93727,United States,"6105 E Kings Canyon Rd UNIT 103, Fresno, CA 93727, USA",36.73586,-119.6806952,Restaurant,,https://apneyyimages.s3.eu-north-1.amazonaws.com/Restaurant/3D+pixar+animation%2C+An+indian+village+food.png,https://apneyyimages.s3.eu-north-1.amazonaws.com/Restaurant/Indian+dish+butter+chicken+as+a+food+styling+shot.png,https://apneyyimages.s3.eu-north-1.amazonaws.com/Restaurant/dnd+style+sandwich.png
"Shan-e-Punjab supermarket Indian Grocery - Sweets, Snacks, Spices, Etc.",,4741 W Shaw Ave #106,Fresno,California,93722,United States,"4741 W Shaw Ave #106, Fresno, CA 93722, USA",36.8072717,-119.8789055,Restaurant,,https://apneyyimages.s3.eu-north-1.amazonaws.com/Restaurant/4k+picture+of+Indian+food+momos+background+black.png,https://apneyyimages.s3.eu-north-1.amazonaws.com/Restaurant/Indian+family+in+a+restaurant+enjoying+food+and+making+memories.png,https://apneyyimages.s3.eu-north-1.amazonaws.com/Restaurant/donuts%2C+look+tasty%2C+cooking%2C+high+accuracy+of+eating+and+image%2C+food%2C+detail%2C+commercial+photography%2C+focus+on+food%2C+different+camera+position.png
Taco Twist W Shaw Ave,,3050 W Shaw Ave # 106,Fresno,California,93711,United States,"3050 W Shaw Ave # 106, Fresno, CA 93711, USA",36.8093482,-119.8449752,Restaurant,,https://apneyyimages.s3.eu-north-1.amazonaws.com/Restaurant/4k+picture+of+Indian+food+pani+puri+background+black.png,https://apneyyimages.s3.eu-north-1.amazonaws.com/Restaurant/Indian+festival+makar+sankranti+special+haldi+kumkum+with+sankranti+sweets+of+jaggery+recipes%2C+til+ladoo%2C+peanut+chikki%2C+til+chikki%2C+rajgira+laddu.png,https://apneyyimages.s3.eu-north-1.amazonaws.com/Restaurant/Easy+Curry+Sauce%2C+Indian+food+Photography.png
India Express - Sweet & Spice,,208 N 8th St,Fresno,California,93702,United States,"208 N 8th St , Fresno, CA 93702, USA",36.7451784,-119.7605922,Restaurant,,https://apneyyimages.s3.eu-north-1.amazonaws.com/Restaurant/a+breakfast+with+kosher+food+photorealistic.png,https://apneyyimages.s3.eu-north-1.amazonaws.com/Restaurant/Indian+Fish+Curry%2C+Indian+food+Photography+(1).png,https://apneyyimages.s3.eu-north-1.amazonaws.com/Restaurant/Easy+Two-Ingredient+Naan%2C+Indian+food+Photography+(2).png
Fusion Indian Cuisine & Bar,,2674 Owens Mountain Pkwy,Fresno,California,93611,United States,"2674 Owens Mountain Pkwy, Clovis, CA 93611, USA",36.8451011,-119.6634,Restaurant,,https://apneyyimages.s3.eu-north-1.amazonaws.com/Restaurant/a+golden+pot+having+swwet+indian+food+like+sweet+milke.png,https://apneyyimages.s3.eu-north-1.amazonaws.com/Restaurant/Indian+Fish+Curry%2C+Indian+food+Photography.png,https://apneyyimages.s3.eu-north-1.amazonaws.com/Restaurant/Easy+Two-Ingredient+Naan%2C+Indian+food+Photography.png
Indian Restaurant,,5754 W Chennault Ave,Fresno,California,93722,United States,"5754 W Chennault Ave, Fresno, CA 93722, USA",36.842095,-119.8954481,Restaurant,,https://apneyyimages.s3.eu-north-1.amazonaws.com/Restaurant/a+photograph+of+a+smiling+Zulu+woman+in+a+fast+food+uniform+standing+behind+a+fast+food+counter%2C+steamed+dumplings.png,https://apneyyimages.s3.eu-north-1.amazonaws.com/Restaurant/indian+flag+art%2C+food%2C+(1).png,https://apneyyimages.s3.eu-north-1.amazonaws.com/Restaurant/eggless+mayonnaise+veg+roll%2Cside+view.png
Moga indian cuisine,,2450 N Marks Ave,Fresno,California,93722,United States,"2450 N Marks Ave, Fresno, CA 93722, USA",36.7726358,-119.843617,Restaurant,,https://apneyyimages.s3.eu-north-1.amazonaws.com/Restaurant/a+plate+decorated+by+the+food+items%2C+indian+cuisine.png,https://apneyyimages.s3.eu-north-1.amazonaws.com/Restaurant/indian+flag+art%2C+food%2C+(3).png,https://apneyyimages.s3.eu-north-1.amazonaws.com/Restaurant/Emerging+Food+%26amp_+Beverage+Trends+2021_+AI+Reduces+This+Year%26%23039_s+Unpredictability%2C.png
Chatore India Cuisine LLC.,,6701 N Milburn Ave,Fresno,California,93722,United States,"6701 N Milburn Ave, Fresno, CA 93722, USA",36.8347498,-119.8795076,Restaurant,,https://apneyyimages.s3.eu-north-1.amazonaws.com/Restaurant/a+real+4k+image+of+a+bowl+with+daal+makhni+in+it+covered+with+melted+cheese.png,https://apneyyimages.s3.eu-north-1.amazonaws.com/Restaurant/indian+flag+art%2C+food%2C.png,https://apneyyimages.s3.eu-north-1.amazonaws.com/Restaurant/erated+im+street+food.png
Veggie Indian food,,4798 N Marty Ave,Fresno,California,93711,United States,"4798 N Marty Ave, Fresno, CA 93711, USA",36.8067383,-119.8576041,Restaurant,,https://apneyyimages.s3.eu-north-1.amazonaws.com/Restaurant/a+round+barbeque+table+with+3+veg+items+with+Punjabi+people+eating+veg+barbeque+food%2C+wide+angle+shot%2C+and+a+minimal+light+background+with+bokeh+lights.png,https://apneyyimages.s3.eu-north-1.amazonaws.com/Restaurant/indian+food+%2C+illustrations+%2C+cute+%2C+innocent+%2C+dark+color+%2C+aerial+view%2C+wide+angle+short.png,https://apneyyimages.s3.eu-north-1.amazonaws.com/Restaurant/Exploring+Irresistible+Fast+Food.png
The Curry Life,,7070 N West Ave,Fresno,California,93711,United States,"7070 N West Ave, Fresno, CA 93711, USA",36.8383524,-119.8245181,Restaurant,,https://apneyyimages.s3.eu-north-1.amazonaws.com/Restaurant/a+sandwich+inside+a+sandwich.png,https://apneyyimages.s3.eu-north-1.amazonaws.com/Restaurant/indian+food+(1).png,https://apneyyimages.s3.eu-north-1.amazonaws.com/Restaurant/Eye+level+POV+of+a+dining+table+filled+with+modak%2C+kheer%2C+laddoo+and+indian+sweets%2C+daylight.png
HOME MADE FOOD,,5248 N Valentine Ave #201,Fresno,California,93722,United States,"5248 N Valentine Ave #201, Fresno, CA 93711, USA",36.8126805,-119.8512121,Restaurant,,https://apneyyimages.s3.eu-north-1.amazonaws.com/Restaurant/A+table+full+of+indian+food+dishes%2C+wide+angle%2C+8k+relastic+image_.png,https://apneyyimages.s3.eu-north-1.amazonaws.com/Restaurant/indian+food+(2).png,https://apneyyimages.s3.eu-north-1.amazonaws.com/Restaurant/Eye+level+POV+of+a+dining+table+filled+with+modak%2C+kheer%2C+laddoo+and+indian+sweets.png
Punjab Truck Driving School,1 559-835-4100,3150 N Weber Ave,Fresno,California,93706,United States,"3150 N Weber Ave, Fresno, CA 93722, USA",36.7817426,-119.8429244,Truck Driving School,,https://apneyyimages.s3.eu-north-1.amazonaws.com/Truck/pexels-cyndi-378229757-14971465.jpg,https://apneyyimages.s3.eu-north-1.amazonaws.com/Truck/pexels-markie-mad-336302786-14005602.jpg,https://apneyyimages.s3.eu-north-1.amazonaws.com/Truck/pexels-theshuttervision-9754798.jpg
Dashmesh Truck Driving School & Services,1 559-277-2400,2829 W Nielsen Ave,Fresno,California,93706,United States,"2829 W Nielsen Ave, Fresno, CA 93706, USA",36.7421937,-119.8440239,Truck Driving School,,https://apneyyimages.s3.eu-north-1.amazonaws.com/Truck/pexels-eduardo199o9-178988127-12756876.jpg,,https://apneyyimages.s3.eu-north-1.amazonaws.com/Truck/pexels-tom-jackson-1238161-27099096+(1).jpg
Guru kirpa driving school,1 559-653-8181,3261 S Elm Ave,Fresno,California,93706,United States,"3261 S Elm Ave, Fresno, CA 93706, USA",36.6871217,-119.7918476,Truck Driving School,,https://apneyyimages.s3.eu-north-1.amazonaws.com/Truck/pexels-eduardo199o9-178988127-12756876.jpg,https://apneyyimages.s3.eu-north-1.amazonaws.com/Truck/pexels-nc-farm-bureau-mark-5876475.jpg,https://apneyyimages.s3.eu-north-1.amazonaws.com/Truck/pexels-tom-jackson-1238161-27099096.jpg
Gholia Truck Driving School,,2306 W Dan Ronquillo Dr,Fresno,California,93706,United States,"2306 W Dan Ronquillo Dr, Fresno, CA 93706, USA",36.739236,-119.8383576,Truck Driving School,,https://apneyyimages.s3.eu-north-1.amazonaws.com/Truck/pexels-esmihel-12418935+(1).jpg,https://apneyyimages.s3.eu-north-1.amazonaws.com/Truck/pexels-none-2149218088-30484147.jpg,https://apneyyimages.s3.eu-north-1.amazonaws.com/Truck/pexels-y-d-179881567-15898182.jpg
Haryana Truck &Trailer repair shop,1 559-519-1119,4041 S Golden State Blvd,Fresno,California,93725,United states,"4041 S Golden State Blvd, Fresno, CA 93725",36.7123,-119.789,truck repair,http://haryanaworkshop.com/,https://apneyyimages.s3.eu-north-1.amazonaws.com/AUTO/pexels-sejio402-29226618.jpg,https://apneyyimages.s3.eu-north-1.amazonaws.com/AUTO/pexels-calin-razvan-262045390-12658302.jpg,https://apneyyimages.s3.eu-north-1.amazonaws.com/AUTO/pexels-calin-razvan-262045390-12658302.jpg
Singh 24HR Road service truck repair,1 559-395-3011,Shaw Ave,Fresno,California,93704,United states,"Shaw Ave, Fresno, CA 93704 (approximate)",36.7745,-119.7901,truck repair,,https://apneyyimages.s3.eu-north-1.amazonaws.com/AUTO/pexels-mikebirdy-190574.jpg,https://apneyyimages.s3.eu-north-1.amazonaws.com/AUTO/pexels-calin-razvan-262045390-12658302.jpg,https://apneyyimages.s3.eu-north-1.amazonaws.com/AUTO/pexels-lumierestudiomx-4116194.jpg
Malhi Truck Road Service,1 559-548-9293,2929 S Peach Ave,Fresno,California,93725,United states,"2929 S Peach Ave, Fresno, CA 93725",36.7189,-119.7567,truck repair,,https://apneyyimages.s3.eu-north-1.amazonaws.com/AUTO/pexels-sejio402-29226618.jpg,https://apneyyimages.s3.eu-north-1.amazonaws.com/AUTO/pexels-lumierestudiomx-4116194.jpg,https://apneyyimages.s3.eu-north-1.amazonaws.com/AUTO/pexels-calin-razvan-262045390-12658302.jpg
HAR TRUCK REPAIR ( KAMALJEET SINGH ),1 559-755-7947,3078 W Olive Ave,Fresno,California,93728,United states,"3078 W Olive Ave, Fresno, CA 93728",36.782,-119.8248,truck repair,,https://apneyyimages.s3.eu-north-1.amazonaws.com/AUTO/pexels-calin-razvan-262045390-12658302.jpg,https://apneyyimages.s3.eu-north-1.amazonaws.com/AUTO/pexels-sejio402-29226618.jpg,https://apneyyimages.s3.eu-north-1.amazonaws.com/AUTO/pexels-calin-razvan-262045390-12658302.jpg
Gopi Truck and Trailer Repair Shop,1 929-241-4836,4834 N Cornelia Ave,Fresno,California,93722,United states,"4834 N Cornelia Ave, Fresno, CA 93722",36.8286,-119.7348,truck repair,,https://apneyyimages.s3.eu-north-1.amazonaws.com/AUTO/pexels-mikebirdy-190574.jpg,https://apneyyimages.s3.eu-north-1.amazonaws.com/AUTO/pexels-calin-razvan-262045390-12658302.jpg,https://apneyyimages.s3.eu-north-1.amazonaws.com/AUTO/pexels-calin-razvan-262045390-12658302.jpg
JTS Truck Repair,1 866-466-4600,3054 E Cartwright Ave,Fresno,California,93725,United states,"3054 E Cartwright Ave, Fresno, CA 93725",36.7196,-119.7554,truck repair,,https://apneyyimages.s3.eu-north-1.amazonaws.com/AUTO/pexels-sejio402-29226618.jpg,https://apneyyimages.s3.eu-north-1.amazonaws.com/AUTO/pexels-calin-razvan-262045390-12658302.jpg,https://apneyyimages.s3.eu-north-1.amazonaws.com/AUTO/pexels-calin-razvan-262045390-12658302.jpg
RK Truck Repair,1 559-500-2008,2431 Foundry Park Ave,Fresno,California,93706,United states,"2431 Foundry Park Ave, Fresno, CA 93706",36.7565,-119.761,truck repair,,https://apneyyimages.s3.eu-north-1.amazonaws.com/AUTO/pexels-mikebirdy-190574.jpg,https://apneyyimages.s3.eu-north-1.amazonaws.com/AUTO/pexels-calin-razvan-262045390-12658302.jpg,https://apneyyimages.s3.eu-north-1.amazonaws.com/AUTO/pexels-lumierestudiomx-4116194.jpg
DHILLON TRUCKS HOSPITAL,1 559-495-8788,2347 W Belmont Ave,Fresno,California,93728,United states,"2347 W Belmont Ave, Fresno, CA 93728",36.7816,-119.8257,truck repair,,https://apneyyimages.s3.eu-north-1.amazonaws.com/AUTO/pexels-sejio402-29226618.jpg,https://apneyyimages.s3.eu-north-1.amazonaws.com/AUTO/pexels-lumierestudiomx-4116194.jpg,https://apneyyimages.s3.eu-north-1.amazonaws.com/AUTO/pexels-calin-razvan-262045390-12658302.jpg
Garry's Truck Repair,1 559-264-7174,4895 E Annadale Ave,Fresno,California,93727,United states,"4895 E Annadale Ave, Fresno, CA 93727",36.829,-119.7521,truck repair,,https://apneyyimages.s3.eu-north-1.amazonaws.com/AUTO/pexels-calin-razvan-262045390-12658302.jpg,https://apneyyimages.s3.eu-north-1.amazonaws.com/AUTO/pexels-sejio402-29226618.jpg,https://apneyyimages.s3.eu-north-1.amazonaws.com/AUTO/pexels-calin-razvan-262045390-12658302.jpg
Teji Truck & Trailer Repair,1 559-455-8130,3259 S Elm Ave,Fresno,California,93725,United states,"3259 S Elm Ave, Fresno, CA 93725",36.7168,-119.7891,truck repair,,https://apneyyimages.s3.eu-north-1.amazonaws.com/AUTO/pexels-mikebirdy-190574.jpg,https://apneyyimages.s3.eu-north-1.amazonaws.com/AUTO/pexels-calin-razvan-262045390-12658302.jpg,https://apneyyimages.s3.eu-north-1.amazonaws.com/AUTO/pexels-calin-razvan-262045390-12658302.jpg
SINGH truck &tire repair and road service,1 424-450-4004,Golden State Hwy,Fresno,California,93725,United states,"Golden State Hwy, Fresno, CA 93725 (approximate)",36.7123,-119.789,truck repair,,https://apneyyimages.s3.eu-north-1.amazonaws.com/AUTO/pexels-sejio402-29226618.jpg,https://apneyyimages.s3.eu-north-1.amazonaws.com/AUTO/pexels-calin-razvan-262045390-12658302.jpg,https://apneyyimages.s3.eu-north-1.amazonaws.com/AUTO/pexels-calin-razvan-262045390-12658302.jpg
Om truck and trailer repair,1 559-676-0997,3640 W Nielsen Ave,Fresno,California,93722,United states,"3640 W Nielsen Ave, Fresno, CA 93722",36.8197,-119.7346,truck repair,,https://apneyyimages.s3.eu-north-1.amazonaws.com/AUTO/pexels-mikebirdy-190574.jpg,https://apneyyimages.s3.eu-north-1.amazonaws.com/AUTO/pexels-calin-razvan-262045390-12658302.jpg,https://apneyyimages.s3.eu-north-1.amazonaws.com/AUTO/pexels-lumierestudiomx-4116194.jpg
AKS Truck and Trailer repair,1 206-412-2593,5437 S Cedar Ave,Fresno,California,93725,United states,"5437 S Cedar Ave, Fresno, CA 93725",36.7027,-119.7185,truck repair,,https://apneyyimages.s3.eu-north-1.amazonaws.com/AUTO/pexels-sejio402-29226618.jpg,https://apneyyimages.s3.eu-north-1.amazonaws.com/AUTO/pexels-lumierestudiomx-4116194.jpg,https://apneyyimages.s3.eu-north-1.amazonaws.com/AUTO/pexels-calin-razvan-262045390-12658302.jpg
1313 Cheema Truck and Trailer Repair,1 559-519-8065,3259 S Elm Ave,Fresno,California,93725,United states,"3259 S Elm Ave, Fresno, CA 93725",36.7168,-119.7891,truck repair,,https://apneyyimages.s3.eu-north-1.amazonaws.com/AUTO/pexels-calin-razvan-262045390-12658302.jpg,https://apneyyimages.s3.eu-north-1.amazonaws.com/AUTO/pexels-sejio402-29226618.jpg,https://apneyyimages.s3.eu-north-1.amazonaws.com/AUTO/pexels-calin-razvan-262045390-12658302.jpg
RN Truck & Trailer Repair and Road Service,1 559-394-2014,1121 S West Ave,Fresno,California,93706,United states,"1121 S West Ave, Fresno, CA 93706",36.7516,-119.7621,truck repair,,https://apneyyimages.s3.eu-north-1.amazonaws.com/AUTO/pexels-mikebirdy-190574.jpg,https://apneyyimages.s3.eu-north-1.amazonaws.com/AUTO/pexels-calin-razvan-262045390-12658302.jpg,https://apneyyimages.s3.eu-north-1.amazonaws.com/AUTO/pexels-calin-razvan-262045390-12658302.jpg
S S Truck & Trailer Repair,1 559-233-4550,3490 S Maple Ave,Fresno,California,93725,United states,"3490 S Maple Ave, Fresno, CA 93725",36.7161,-119.7893,truck repair,,https://apneyyimages.s3.eu-north-1.amazonaws.com/AUTO/pexels-sejio402-29226618.jpg,https://apneyyimages.s3.eu-north-1.amazonaws.com/AUTO/pexels-calin-razvan-262045390-12658302.jpg,https://apneyyimages.s3.eu-north-1.amazonaws.com/AUTO/pexels-calin-razvan-262045390-12658302.jpg
DTS Truck and Trailer Repair,1 661-667-1284,3107 E Malaga Ave,Fresno,California,93725,United states,"3107 E Malaga Ave, Fresno, CA 93725",36.7183,-119.7892,truck repair,,https://apneyyimages.s3.eu-north-1.amazonaws.com/AUTO/pexels-mikebirdy-190574.jpg,https://apneyyimages.s3.eu-north-1.amazonaws.com/AUTO/pexels-calin-razvan-262045390-12658302.jpg,https://apneyyimages.s3.eu-north-1.amazonaws.com/AUTO/pexels-lumierestudiomx-4116194.jpg
SK Truck & Trailer Repair,1 559-210-0071,2301 W Belmont Ave,Fresno,California,93728,United states,"2301 W Belmont Ave, Fresno, CA 93728",36.7816,-119.8257,truck repair,,https://apneyyimages.s3.eu-north-1.amazonaws.com/AUTO/pexels-sejio402-29226618.jpg,https://apneyyimages.s3.eu-north-1.amazonaws.com/AUTO/pexels-lumierestudiomx-4116194.jpg,https://apneyyimages.s3.eu-north-1.amazonaws.com/AUTO/pexels-calin-razvan-262045390-12658302.jpg
Nagi Truck and Trailer Repair,1 559-476-6791,2301 W Belmont Ave,Fresno,California,93728,United states,"2301 W Belmont Ave, Fresno, CA 93728",36.7816,-119.8257,truck repair,,https://apneyyimages.s3.eu-north-1.amazonaws.com/AUTO/pexels-calin-razvan-262045390-12658302.jpg,https://apneyyimages.s3.eu-north-1.amazonaws.com/AUTO/pexels-sejio402-29226618.jpg,https://apneyyimages.s3.eu-north-1.amazonaws.com/AUTO/pexels-calin-razvan-262045390-12658302.jpg
Gill Express Truck Repair,1 559-977-7946,6943 N Golden State Blvd,Fresno,California,93725,United states,"6943 N Golden State Blvd, Fresno, CA 93725",36.7123,-119.789,truck repair,http://www.gillexpress.com/,https://apneyyimages.s3.eu-north-1.amazonaws.com/AUTO/pexels-mikebirdy-190574.jpg,https://apneyyimages.s3.eu-north-1.amazonaws.com/AUTO/pexels-calin-razvan-262045390-12658302.jpg,https://apneyyimages.s3.eu-north-1.amazonaws.com/AUTO/pexels-calin-razvan-262045390-12658302.jpg
Haryana Truck &Trailer repair shop,1 559-519-1119,4041 S Golden State Blvd,Fresno,California,93725,United states,"4041 S Golden State Blvd, Fresno, CA 93725",36.7123,-119.789,auto repair,http://haryanaworkshop.com/,https://apneyyimages.s3.eu-north-1.amazonaws.com/AUTO/pexels-sejio402-29226618.jpg,https://apneyyimages.s3.eu-north-1.amazonaws.com/AUTO/pexels-calin-razvan-262045390-12658302.jpg,https://apneyyimages.s3.eu-north-1.amazonaws.com/AUTO/pexels-calin-razvan-262045390-12658302.jpg
Punjab Auto Repair,1 559-252-2711,2508 W Belmont Ave,Fresno,California,93728,United states,"2508 W Belmont Ave, Fresno, CA 93728",36.7816,-119.8257,auto repair,,https://apneyyimages.s3.eu-north-1.amazonaws.com/AUTO/pexels-mikebirdy-190574.jpg,https://apneyyimages.s3.eu-north-1.amazonaws.com/AUTO/pexels-calin-razvan-262045390-12658302.jpg,https://apneyyimages.s3.eu-north-1.amazonaws.com/AUTO/pexels-lumierestudiomx-4116194.jpg
Romita Auto Service,1 559-485-5675,4909 E Dakota Ave,Fresno,California,93727,United states,"4909 E Dakota Ave, Fresno, CA 93727",36.7735,-119.7523,auto repair,https://romitaauto.com/,https://apneyyimages.s3.eu-north-1.amazonaws.com/AUTO/pexels-sejio402-29226618.jpg,https://apneyyimages.s3.eu-north-1.amazonaws.com/AUTO/pexels-lumierestudiomx-4116194.jpg,https://apneyyimages.s3.eu-north-1.amazonaws.com/AUTO/pexels-calin-razvan-262045390-12658302.jpg
Aram's Auto Repair Center,1 559-436-8436,6333 N Blackstone Ave,Fresno,California,93710,United states,"6333 N Blackstone Ave, Fresno, CA 93710",36.866,-119.7928,auto repair,http://aramsauto.com/,https://apneyyimages.s3.eu-north-1.amazonaws.com/AUTO/pexels-calin-razvan-262045390-12658302.jpg,https://apneyyimages.s3.eu-north-1.amazonaws.com/AUTO/pexels-sejio402-29226618.jpg,https://apneyyimages.s3.eu-north-1.amazonaws.com/AUTO/pexels-calin-razvan-262045390-12658302.jpg
Kurata Auto,1 559-264-2045,606 E Divisadero St,Fresno,California,93721,United states,"606 E Divisadero St, Fresno, CA 93721",36.7461,-119.7896,auto repair,,https://apneyyimages.s3.eu-north-1.amazonaws.com/AUTO/pexels-mikebirdy-190574.jpg,https://apneyyimages.s3.eu-north-1.amazonaws.com/AUTO/pexels-calin-razvan-262045390-12658302.jpg,https://apneyyimages.s3.eu-north-1.amazonaws.com/AUTO/pexels-calin-razvan-262045390-12658302.jpg
Deep's Auto Repair,1 559-485-1140,5240 E Jensen Ave,Fresno,California,93727,United states,"5240 E Jensen Ave, Fresno, CA 93727",36.7758,-119.7423,auto repair,http://deepsautorepair.com/,https://apneyyimages.s3.eu-north-1.amazonaws.com/AUTO/pexels-sejio402-29226618.jpg,https://apneyyimages.s3.eu-north-1.amazonaws.com/AUTO/pexels-calin-razvan-262045390-12658302.jpg,https://apneyyimages.s3.eu-north-1.amazonaws.com/AUTO/pexels-calin-razvan-262045390-12658302.jpg
Rasmussen Auto Repair,1 559-251-0669,1023 N Maple Ave,Fresno,California,93727,United states,"1023 N Maple Ave, Fresno, CA 93727",36.7957,-119.7893,auto repair,https://rasmussenautorepairfresno.com/,https://apneyyimages.s3.eu-north-1.amazonaws.com/AUTO/pexels-mikebirdy-190574.jpg,https://apneyyimages.s3.eu-north-1.amazonaws.com/AUTO/pexels-calin-razvan-262045390-12658302.jpg,https://apneyyimages.s3.eu-north-1.amazonaws.com/AUTO/pexels-lumierestudiomx-4116194.jpg
Suki's Auto Repair & Shop,1 559-276-0869,4386 W Shields Ave,Fresno,California,93722,United states,"4386 W Shields Ave, Fresno, CA 93722",36.779454,-119.869987,auto repair,,https://apneyyimages.s3.eu-north-1.amazonaws.com/AUTO/pexels-sejio402-29226618.jpg,https://apneyyimages.s3.eu-north-1.amazonaws.com/AUTO/pexels-lumierestudiomx-4116194.jpg,https://apneyyimages.s3.eu-north-1.amazonaws.com/AUTO/pexels-calin-razvan-262045390-12658302.jpg
Singh 24HR Road service truck repair,1 559-395-3011,Shaw Ave,Fresno,California,93704,United states,"Shaw Ave, Fresno, CA 93704 (approximate)",36.7745,-119.7901,auto repair,,https://apneyyimages.s3.eu-north-1.amazonaws.com/AUTO/pexels-calin-razvan-262045390-12658302.jpg,https://apneyyimages.s3.eu-north-1.amazonaws.com/AUTO/pexels-sejio402-29226618.jpg,https://apneyyimages.s3.eu-north-1.amazonaws.com/AUTO/pexels-calin-razvan-262045390-12658302.jpg
SINGH truck &tire repair and road service,1 424-450-4004,Golden State Hwy,Fresno,California,93725,United states,"Golden State Hwy, Fresno, CA 93725 (approximate)",36.7123,-119.789,auto repair,,https://apneyyimages.s3.eu-north-1.amazonaws.com/AUTO/pexels-mikebirdy-190574.jpg,https://apneyyimages.s3.eu-north-1.amazonaws.com/AUTO/pexels-calin-razvan-262045390-12658302.jpg,https://apneyyimages.s3.eu-north-1.amazonaws.com/AUTO/pexels-calin-razvan-262045390-12658302.jpg
Romita Auto Service,1 559-485-5675,4909 E Dakota Ave,Fresno,California,93727,United states,"4909 E Dakota Ave, Fresno, CA 93727",36.7735,-119.7523,car repair,https://romitaauto.com/,https://apneyyimages.s3.eu-north-1.amazonaws.com/CAR/pexels-artempodrez-8985455.jpg,https://apneyyimages.s3.eu-north-1.amazonaws.com/CAR/pexels-lumierestudiomx-4116225.jpg,https://apneyyimages.s3.eu-north-1.amazonaws.com/CAR/pexels-artempodrez-8985455.jpg
Punjab Auto Repair,1 559-252-2711,2508 W Belmont Ave,Fresno,California,93728,United states,"2508 W Belmont Ave, Fresno, CA 93728",36.7816,-119.8257,car repair,,https://apneyyimages.s3.eu-north-1.amazonaws.com/CAR/pexels-artempodrez-8986177+(1).jpg,https://apneyyimages.s3.eu-north-1.amazonaws.com/CAR/pexels-maltelu-2244746.jpg,https://apneyyimages.s3.eu-north-1.amazonaws.com/CAR/pexels-artempodrez-8986177+(1).jpg
Kurata Auto,1 559-264-2045,606 E Divisadero St,Fresno,California,93721,United states,"606 E Divisadero St, Fresno, CA 93721",36.7461,-119.7896,car repair,,https://apneyyimages.s3.eu-north-1.amazonaws.com/CAR/pexels-19x14-8478201.jpg,https://apneyyimages.s3.eu-north-1.amazonaws.com/CAR/pexels-19x14-8478220.jpg,https://apneyyimages.s3.eu-north-1.amazonaws.com/CAR/pexels-19x14-8478201.jpg
Deep's Auto Repair,1 559-485-1140,5240 E Jensen Ave,Fresno,California,93727,United states,"5240 E Jensen Ave, Fresno, CA 93727",36.7758,-119.7423,car repair,http://deepsautorepair.com/,https://apneyyimages.s3.eu-north-1.amazonaws.com/CAR/pexels-artempodrez-8986033.jpg,https://apneyyimages.s3.eu-north-1.amazonaws.com/CAR/pexels-maltelu-2244746.jpg,https://apneyyimages.s3.eu-north-1.amazonaws.com/CAR/pexels-19x14-8478220.jpg
Rasmussen Auto Repair,1 559-251-0669,1023 N Maple Ave,Fresno,California,93727,United states,"1023 N Maple Ave, Fresno, CA 93727",36.7957,-119.7893,car repair,https://rasmussenautorepairfresno.com/,https://apneyyimages.s3.eu-north-1.amazonaws.com/CAR/pexels-artempodrez-8986177+(1).jpg,https://apneyyimages.s3.eu-north-1.amazonaws.com/CAR/pexels-artempodrez-8985455.jpg,https://apneyyimages.s3.eu-north-1.amazonaws.com/CAR/pexels-lumierestudiomx-4116225.jpg
Suki's Auto Repair & Shop,1 559-276-0869,4386 W Shields Ave,Fresno,California,93722,United states,"4386 W Shields Ave, Fresno, CA 93722",36.8095,-119.7901,car repair,,https://apneyyimages.s3.eu-north-1.amazonaws.com/CAR/pexels-lumierestudiomx-4116225.jpg,https://apneyyimages.s3.eu-north-1.amazonaws.com/CAR/pexels-artempodrez-8985455.jpg,https://apneyyimages.s3.eu-north-1.amazonaws.com/CAR/pexels-lumierestudiomx-4116225.jpg
Papa Shop Mobile Mechanic,,1929 S Fifth St,Fresno,California,93702,United states,"1929 S Fifth St, Fresno, CA 93702",36.7328,-119.7925,car repair,http://fresnomobilemechanics.com/,https://apneyyimages.s3.eu-north-1.amazonaws.com/CAR/pexels-artempodrez-8986177+(1).jpg,https://apneyyimages.s3.eu-north-1.amazonaws.com/CAR/pexels-artempodrez-8985455.jpg,https://apneyyimages.s3.eu-north-1.amazonaws.com/CAR/pexels-lumierestudiomx-4116225.jpg
"Jagdeep Singh Insurance Agency, Inc",1 559-277-5580,4185 W Figarden Dr #101,Fresno,California,93722,United states,"4185 W Figarden Dr #101, Fresno, CA 93722",36.8095,-119.7523,Insurance,http://www.jsinghagency.com/,https://apneyyimages.s3.eu-north-1.amazonaws.com/Insurance_/Business+people+signing+contract+making+deal+with+life+insurance+agent+Concept+for+consultant+health+insurance.life+insurance+savings+plan.png,https://apneyyimages.s3.eu-north-1.amazonaws.com/Insurance_/Female+health+insurance+broker+presenting+his+insurance+benefits+to+businessman+fill+out+insurance+policy.+To+prevent+future+incidents.png,https://apneyyimages.s3.eu-north-1.amazonaws.com/Insurance_/Featured+image+of+article+title+Life+Insurance+Glossary.png
"Sandhu Bros Insurance Agency, Inc.",1 559-549-0002,4337 N Golden State Blvd #104,Fresno,California,93722,United states,"4337 N Golden State Blvd #104, Fresno, CA 93722",36.8242,-119.7915,Insurance,http://sandhubrosagency.com/,https://apneyyimages.s3.eu-north-1.amazonaws.com/Insurance_/Estate+agent+pointing+finger+on+document+showing+total+cost.+Signing+a+paper+document+for+buying+house.Real+estate%2C+home+loan+and+insurance+concept.png,https://apneyyimages.s3.eu-north-1.amazonaws.com/Insurance_/Photo-realistic+image+for+the+insurance+sector.+Handshake+between+2+people.png,https://apneyyimages.s3.eu-north-1.amazonaws.com/Insurance_/Estate+agent+pointing+finger+on+document+showing+total+cost.+Signing+a+paper+document+for+buying+house.Real+estate%2C+home+loan+and+insurance+concept.png
Farmers Insurance - Rajdeep Pannu,1 559-825-5000,5550 W Spruce Ave Ste 101,Fresno,California,93722,United states,"5550 W Spruce Ave Ste 101, Fresno, CA 93722",36.8413,-119.8052,Insurance,https://agents.farmers.com/ca/fresno/rajdeep-pannu?SourceID=AMPALFGMAG&utm_source=GMB&utm_medium=Local&y_source=1_NTQ5NzczNi03MTUtbG9jYXRpb24ud2Vic2l0ZQ==,https://apneyyimages.s3.eu-north-1.amazonaws.com/Insurance_/Family+couple+consultations+with+a+lawyer+or+insurance+agent.png,https://apneyyimages.s3.eu-north-1.amazonaws.com/Insurance_/Photo-realistic+image+for+the+insurance+sector.+Handshake+between+2+people.png,https://apneyyimages.s3.eu-north-1.amazonaws.com/Insurance_/Female+health+insurance+broker+presenting+his+insurance+benefits+to+businessman+fill+out+insurance+policy.+To+prevent+future+incidents.png
Farmers Insurance - Charanjit Sodhi,1 559-230-2006,1300 E Shaw Ave #150,Fresno,California,93710,United states,"1300 E Shaw Ave #150, Fresno, CA 93710",36.7745,-119.7303,Insurance,https://agents.farmers.com/ca/fresno/charanjit-sodhi?SourceID=AMPALFGMAG&utm_source=GMB&utm_medium=Local&y_source=1_MTU0Nzg5Ni03MTUtbG9jYXRpb24uZ29vZ2xlX3dlYnNpdGVfb3ZlcnJpZGU%3D,https://apneyyimages.s3.eu-north-1.amazonaws.com/Insurance_/Business+people+signing+contract+making+deal+with+life+insurance+agent+Concept+for+consultant+health+insurance.life+insurance+savings+plan.png,https://apneyyimages.s3.eu-north-1.amazonaws.com/Insurance_/Female+health+insurance+broker+presenting+his+insurance+benefits+to+businessman+fill+out+insurance+policy.+To+prevent+future+incidents.png,https://apneyyimages.s3.eu-north-1.amazonaws.com/Insurance_/Featured+image+of+article+title+Life+Insurance+Glossary.png
Fresno American Indian Health Project,1 559-320-0490,1551 E Shaw Ave Ste 139,Fresno,California,93710,United states,"1551 E Shaw Ave Ste 139, Fresno, CA 93710",36.7745,-119.7303,Insurance,http://www.faihp.org/,https://apneyyimages.s3.eu-north-1.amazonaws.com/Insurance_/Estate+agent+pointing+finger+on+document+showing+total+cost.+Signing+a+paper+document+for+buying+house.Real+estate%2C+home+loan+and+insurance+concept.png,https://apneyyimages.s3.eu-north-1.amazonaws.com/Insurance_/Photo-realistic+image+for+the+insurance+sector.+Handshake+between+2+people.png,https://apneyyimages.s3.eu-north-1.amazonaws.com/Insurance_/Estate+agent+pointing+finger+on+document+showing+total+cost.+Signing+a+paper+document+for+buying+house.Real+estate%2C+home+loan+and+insurance+concept.png
"Jagdeep Singh Insurance Agency, Inc",1 559-277-5580,4185 W Figarden Dr #101,Fresno,California,93722,United states,"4185 W Figarden Dr #101, Fresno, CA 93722",36.8095,-119.7523,Auto insurance,http://www.jsinghagency.com/,https://apneyyimages.s3.eu-north-1.amazonaws.com/Insurance_/Family+couple+consultations+with+a+lawyer+or+insurance+agent.png,https://apneyyimages.s3.eu-north-1.amazonaws.com/Insurance_/Photo-realistic+image+for+the+insurance+sector.+Handshake+between+2+people.png,https://apneyyimages.s3.eu-north-1.amazonaws.com/Insurance_/Female+health+insurance+broker+presenting+his+insurance+benefits+to+businessman+fill+out+insurance+policy.+To+prevent+future+incidents.png
Guru Commercial Insurance Brokers,1 559-842-5000,516 W Shaw Ave suite 200,Fresno,California,93704,United states,"516 W Shaw Ave suite 200, Fresno, CA 93704",36.7745,-119.7901,Auto insurance,http://www.gurucommercial.com/,https://apneyyimages.s3.eu-north-1.amazonaws.com/Insurance_/Business+people+signing+contract+making+deal+with+life+insurance+agent+Concept+for+consultant+health+insurance.life+insurance+savings+plan.png,https://apneyyimages.s3.eu-north-1.amazonaws.com/Insurance_/Female+health+insurance+broker+presenting+his+insurance+benefits+to+businessman+fill+out+insurance+policy.+To+prevent+future+incidents.png,https://apneyyimages.s3.eu-north-1.amazonaws.com/Insurance_/Featured+image+of+article+title+Life+Insurance+Glossary.png
"Sandhu Bros Insurance Agency, Inc.",1 559-549-0002,4337 N Golden State Blvd #104,Fresno,California,93722,United states,"4337 N Golden State Blvd #104, Fresno, CA 93722",36.8242,-119.7915,Auto insurance,http://sandhubrosagency.com/,https://apneyyimages.s3.eu-north-1.amazonaws.com/Insurance_/Business+people+signing+contract+making+deal+with+life+insurance+agent+Concept+for+consultant+health+insurance.life+insurance+savings+plan.png,https://apneyyimages.s3.eu-north-1.amazonaws.com/Insurance_/Female+health+insurance+broker+presenting+his+insurance+benefits+to+businessman+fill+out+insurance+policy.+To+prevent+future+incidents.png,https://apneyyimages.s3.eu-north-1.amazonaws.com/Insurance_/Featured+image+of+article+title+Life+Insurance+Glossary.png
Dawar Insurance Agency,1 559-538-0882,2926 N West Ave Ste A,Fresno,California,93705,United states,"2926 N West Ave Ste A, Fresno, CA 93705",36.782,-119.8248,Insurance,dawarinsuranceagency.com,https://apneyyimages.s3.eu-north-1.amazonaws.com/Insurance_/Estate+agent+pointing+finger+on+document+showing+total+cost.+Signing+a+paper+document+for+buying+house.Real+estate%2C+home+loan+and+insurance+concept.png,https://apneyyimages.s3.eu-north-1.amazonaws.com/Insurance_/Photo-realistic+image+for+the+insurance+sector.+Handshake+between+2+people.png,https://apneyyimages.s3.eu-north-1.amazonaws.com/Insurance_/Estate+agent+pointing+finger+on+document+showing+total+cost.+Signing+a+paper+document+for+buying+house.Real+estate%2C+home+loan+and+insurance+concept.png
"Jagdeep Singh Insurance Agency, Inc",1 559-277-5580,4185 W Figarden Dr #101,Fresno,California,93722,United states,"4185 W Figarden Dr #101, Fresno, CA 93722",36.8095,-119.7523,Auto insurance,http://www.jsinghagency.com/,https://apneyyimages.s3.eu-north-1.amazonaws.com/Insurance_/Family+couple+consultations+with+a+lawyer+or+insurance+agent.png,https://apneyyimages.s3.eu-north-1.amazonaws.com/Insurance_/Photo-realistic+image+for+the+insurance+sector.+Handshake+between+2+people.png,https://apneyyimages.s3.eu-north-1.amazonaws.com/Insurance_/Female+health+insurance+broker+presenting+his+insurance+benefits+to+businessman+fill+out+insurance+policy.+To+prevent+future+incidents.png
"Sandhu Bros Insurance Agency, Inc.",1 559-549-0002,4337 N Golden State Blvd #104,Fresno,California,93722,United states,"4337 N Golden State Blvd #104, Fresno, CA 93722",36.8242,-119.7915,Truck insurance,http://sandhubrosagency.com/,https://apneyyimages.s3.eu-north-1.amazonaws.com/Insurance_/Business+people+signing+contract+making+deal+with+life+insurance+agent+Concept+for+consultant+health+insurance.life+insurance+savings+plan.png,https://apneyyimages.s3.eu-north-1.amazonaws.com/Insurance_/Female+health+insurance+broker+presenting+his+insurance+benefits+to+businessman+fill+out+insurance+policy.+To+prevent+future+incidents.png,https://apneyyimages.s3.eu-north-1.amazonaws.com/Insurance_/Featured+image+of+article+title+Life+Insurance+Glossary.png
Farmers Insurance - Rajdeep Pannu,1 559-825-5000,5550 W Spruce Ave Ste 101,Fresno,California,93722,United states,"5550 W Spruce Ave Ste 101, Fresno, CA 93722",36.8413,-119.8052,Truck insurance,https://agents.farmers.com/ca/fresno/rajdeep-pannu?SourceID=AMPALFGMAG&utm_source=GMB&utm_medium=Local&y_source=1_NTQ5NzczNi03MTUtbG9jYXRpb24ud2Vic2l0ZQ==,https://apneyyimages.s3.eu-north-1.amazonaws.com/Insurance_/Business+people+signing+contract+making+deal+with+life+insurance+agent+Concept+for+consultant+health+insurance.life+insurance+savings+plan.png,https://apneyyimages.s3.eu-north-1.amazonaws.com/Insurance_/Female+health+insurance+broker+presenting+his+insurance+benefits+to+businessman+fill+out+insurance+policy.+To+prevent+future+incidents.png,https://apneyyimages.s3.eu-north-1.amazonaws.com/Insurance_/Featured+image+of+article+title+Life+Insurance+Glossary.png
Farmers Insurance - Charanjit Sodhi,1 559-230-2006,1300 E Shaw Ave #150,Fresno,California,93710,United states,"1300 E Shaw Ave #150, Fresno, CA 93710",36.7745,-119.7303,Truck insurance,https://agents.farmers.com/ca/fresno/charanjit-sodhi?SourceID=AMPALFGMAG&utm_source=GMB&utm_medium=Local&y_source=1_MTU0Nzg5Ni03MTUtbG9jYXRpb24uZ29vZ2xlX3dlYnNpdGVfb3ZlcnJpZGU%3D,https://apneyyimages.s3.eu-north-1.amazonaws.com/Insurance_/Business+people+signing+contract+making+deal+with+life+insurance+agent+Concept+for+consultant+health+insurance.life+insurance+savings+plan.png,https://apneyyimages.s3.eu-north-1.amazonaws.com/Insurance_/Female+health+insurance+broker+presenting+his+insurance+benefits+to+businessman+fill+out+insurance+policy.+To+prevent+future+incidents.png,https://apneyyimages.s3.eu-north-1.amazonaws.com/Insurance_/Featured+image+of+article+title+Life+Insurance+Glossary.png
Whole Foods Market,,650 W Shaw Ave,Fresno,California,93704,United States,"650 W Shaw Ave, Fresno, CA 93704, USA",36.8093036,-119.8053868,Grocery,,https://apneyyimages.s3.eu-north-1.amazonaws.com/Grocery/a+1950s+grocery+store.png,https://apneyyimages.s3.eu-north-1.amazonaws.com/Grocery/in+a+grocery+store.png,https://apneyyimages.s3.eu-north-1.amazonaws.com/Grocery/grocery+collage+poster.png
Grocery Depot & Farmers Market,,4065 W Shaw Ave STE 105,Fresno,California,93711,United States,"4065 W Shaw Ave STE 105, Fresno, CA 93711, USA",36.8077847,-119.8637769,Grocery,,https://apneyyimages.s3.eu-north-1.amazonaws.com/Grocery/a+farmhouse+grocery+store.png,https://apneyyimages.s3.eu-north-1.amazonaws.com/Grocery/in+the+shop%2C+grocery+store%2C+grocery+carts%2C+photography%2C.png,https://apneyyimages.s3.eu-north-1.amazonaws.com/Grocery/grocery+layout+hyperrealistic%2C+4k%2C+wideshot.png
Indian Grocery Superstore (IGS) & Restaurant,,5091 N Fresno St 145 B,Fresno,California,93710,United States,"5091 N Fresno St 145 B, Fresno, CA 93710, USA",36.8107216,-119.7820509,Grocery,,https://apneyyimages.s3.eu-north-1.amazonaws.com/Grocery/a+future+grocery+store.png,https://apneyyimages.s3.eu-north-1.amazonaws.com/Grocery/inside+a+grocery+store.png,https://apneyyimages.s3.eu-north-1.amazonaws.com/Grocery/Grocery+Pick+Up.+Grocery+Pick+up_+grocery%2C+call+for%2C+pandemic%2C+separation%2C+sanitation.png
New India Sweets & Spices,,3225 W Shaw Ave Suite 103,Fresno,California,93711,United States,"3225 W Shaw Ave #103, Fresno, CA 93711, USA",36.8068165,-119.8501795,Grocery,,https://apneyyimages.s3.eu-north-1.amazonaws.com/Grocery/a+grocery+store+utopia.png,https://apneyyimages.s3.eu-north-1.amazonaws.com/Grocery/inside+of+a+small+grocery+shop.png,https://apneyyimages.s3.eu-north-1.amazonaws.com/Grocery/grocery+portal%2C+realistic%2C+modern+grocery%2C+realism%2C+ultra+realistic.png
Luv Punjab,,5560 E Kings Canyon Rd,Fresno,California,93727,United States,"Sunnyside Square Shopping Center, 5560 E Kings Canyon Rd, Fresno, CA 93727, USA",36.7348375,-119.7009744,Grocery,,https://apneyyimages.s3.eu-north-1.amazonaws.com/Grocery/a+grocery+with+crochet+food.png,https://apneyyimages.s3.eu-north-1.amazonaws.com/Grocery/Internet+site+of+a+grocery+store.png,https://apneyyimages.s3.eu-north-1.amazonaws.com/Grocery/grocery+store+(1).png
INDIAN BAZZAR,,3622 W Shaw Ave,Fresno,California,93711,United States,"3622 W Shaw Ave, Fresno, CA 93711, USA",36.8086237,-119.8590891,Grocery,,https://apneyyimages.s3.eu-north-1.amazonaws.com/Grocery/A+local+Indian+grocery+grocery+shop+inside%2C+grocey+items+in+the+shelf+behind+the+background%2C+high+exposure%2C+8k%2C.png,https://apneyyimages.s3.eu-north-1.amazonaws.com/Grocery/Japanese+grocery+store%2C+realistic+object+texture%2C+sunlight%2C+reflective%2C+grocery+art%2Chighly+realistic%2C+simple%2C+colorful+illustrations--ar+93_128.png,https://apneyyimages.s3.eu-north-1.amazonaws.com/Grocery/grocery+store+(2).png
"Shan-e-Punjab supermarket Indian Grocery - Sweets, Snacks, Spices, Etc.",,4741 W Shaw Ave #106,Fresno,California,93722,United States,"4741 W Shaw Ave #106, Fresno, CA 93722, USA",36.8072717,-119.8789055,Grocery,,https://apneyyimages.s3.eu-north-1.amazonaws.com/Grocery/a+variety+of+grocery+store+aisles.png,https://apneyyimages.s3.eu-north-1.amazonaws.com/Grocery/man+facing+me+pushing+a+grocery+cart+in+a+grocery+store%2C+Wes+Anderson+style.png,https://apneyyimages.s3.eu-north-1.amazonaws.com/Grocery/grocery+store+drink+display.png
Indian Market,,2811 W Clinton Ave,Fresno,California,93705,United States,"2811 W Clinton Ave, Fresno, CA 93705, USA",36.7711387,-119.8435779,Grocery,,https://apneyyimages.s3.eu-north-1.amazonaws.com/Grocery/as+interior+of+art+nouveau+grocery+store.png,https://apneyyimages.s3.eu-north-1.amazonaws.com/Grocery/man+shopping+in+grocery+store.png,https://apneyyimages.s3.eu-north-1.amazonaws.com/Grocery/grocery+store+fresh+fruits+and+vegetables.png
Standard Sweets & Spices,,1819 E Dakota Ave,Fresno,California,93726,United States,"1819 E Dakota Ave, Fresno, CA 93726, USA",36.7872228,-119.7894896,Grocery,,https://apneyyimages.s3.eu-north-1.amazonaws.com/Grocery/beautiful+grocery.png,https://apneyyimages.s3.eu-north-1.amazonaws.com/Grocery/maple+syrup%2C+honey+grocery+shelve%2C+beautiful+dramatic+lighting+inside+a+grocery+store.png,https://apneyyimages.s3.eu-north-1.amazonaws.com/Grocery/grocery+store+front.png
India Sweets & Spices,,3055 W Ashlan Ave,Fresno,California,93722,United States,"3055 W Ashlan Ave, Fresno, CA 93722, USA",36.7928423,-119.8456549,Grocery,,https://apneyyimages.s3.eu-north-1.amazonaws.com/Grocery/beautiful+Young+woman+shopping+in+the+frozen+food+aisle+at+a+grocery+store%2C+holding+a+grocery+item.png,https://apneyyimages.s3.eu-north-1.amazonaws.com/Grocery/modern+luxury+grocery+store%2C+realistic.png,https://apneyyimages.s3.eu-north-1.amazonaws.com/Grocery/Grocery+store+in+Israel%2C+shelves+(1).+cinematic%2C.png
Moga Mandi Indian Market And Restaurant,,5187 E Belmont Ave,Fresno,California,93727,United States,"5187 E Belmont Ave, Fresno, CA 93727, USA",36.75163,-119.718703,Grocery,,https://apneyyimages.s3.eu-north-1.amazonaws.com/Grocery/blurred+view+of+middle+grocery+aisle+of+condiments+in+a+grocery+store.png,https://apneyyimages.s3.eu-north-1.amazonaws.com/Grocery/People+shopping+organic+vegetables+at+grocery+store%E2%80%99s.png,https://apneyyimages.s3.eu-north-1.amazonaws.com/Grocery/Grocery+store+in+Israel%2C+shelves+(2).+cinematic%2C.png
Apna Bazar,,5627 Cesar Chavez Boulevard,Fresno,California,93727,United States,"5627 Cesar Chavez Blvd, Fresno, CA 93727, USA",36.7359276,-119.7184963,Grocery,,https://apneyyimages.s3.eu-north-1.amazonaws.com/home+cleaner/A+cleaner+at+work.png,https://apneyyimages.s3.eu-north-1.amazonaws.com/home+cleaner/Photo%2C+cleaner%2C+professional+cleaner%2C+on+a+blue+background.png,https://apneyyimages.s3.eu-north-1.amazonaws.com/home+cleaner/Caucasian+man+uses+vacuum+cleaner+to+keep+living+space+tidy.+Man+with+vacuum+cleaner+in+hand+ensures+home+remaining+tidy+place+to+live.+Vertical+photo.png
Sanjha punjab,,2930 E Nees Ave,Fresno,California,93720,United States,"2930 E Nees Ave, Fresno, CA 93720, USA",36.8531384,-119.7316896,Grocery,,https://apneyyimages.s3.eu-north-1.amazonaws.com/Grocery/bright+white+grocery+store.png,https://apneyyimages.s3.eu-north-1.amazonaws.com/Grocery/person+in+grocery+store.png,https://apneyyimages.s3.eu-north-1.amazonaws.com/Grocery/Grocery+store+in+Israel%2C+shelves.+cinematic%2C.png
DASTAAR WALE INDIAN Grocery & TURBAN Studio,,5722 Cesar Chavez Blvd,Fresno,California,93727,United States,"5722 Cesar Chavez Blvd, Fresno, CA 93727, USA",36.7357922,-119.7185263,Grocery,,https://apneyyimages.s3.eu-north-1.amazonaws.com/Grocery/cinematic+commercial%2C+thai+local+grocery+shop+woman+owner%2C+local+style+grocery+store.png,https://apneyyimages.s3.eu-north-1.amazonaws.com/Grocery/photorealistic%2C+grocery+store+shopping%2C+hyper-real.png,https://apneyyimages.s3.eu-north-1.amazonaws.com/Grocery/grocery+store+inside%2C+hyper+realistic%2C+4k.png
Palka Bazaar,,2438 N Marks Ave,Fresno,California,93722,United States,"2438 N Marks Ave, Fresno, CA 93722, USA",36.7724818,-119.8437391,Grocery,,https://apneyyimages.s3.eu-north-1.amazonaws.com/Grocery/Create+a+colorful+illustration.+Visualize+a+woman+shopping+in+the+grocery+section+of+the+grocery+store_.png,https://apneyyimages.s3.eu-north-1.amazonaws.com/Grocery/Ronald+Regan+pushing+a+grocery+cart+in+a+grocery+store.png,https://apneyyimages.s3.eu-north-1.amazonaws.com/Grocery/grocery+store+interior%2C+warm+lighting.png
India Bazaar & Amritsari Rasoi,,3752 W Shields Ave Suite 103,Fresno,California,93722,United States,"3752 W Shields Ave Suite 103, Fresno, CA 93722, USA",36.7795474,-119.8604115,Grocery,,https://apneyyimages.s3.eu-north-1.amazonaws.com/Grocery/focused+photograph+of+the+card+used+in+a+grocery%2C+paying+for+grocery%2C+ambient+lighting%2C+daytime%2C.png,https://apneyyimages.s3.eu-north-1.amazonaws.com/Grocery/shopper+buying+grocery%2C+supermarket.png,https://apneyyimages.s3.eu-north-1.amazonaws.com/Grocery/Grocery+Store+Inventory+Stock+Photos%2C+Pictures+%26amp_+Royalty+Free+Images+Grocery+store+inventory+tablet.png
"Sahib Punjabi Bazaar (Indian Groceries,Snacks,Sweets,Spices,Indian Dress,Indian Jewellary)",,1840 Shaw Ave Suite#100,Fresno,California,93711,United States,"1840 Shaw Ave Suite#100, Clovis, CA 93611, USA",36.8073353,-119.6804395,Grocery,,https://apneyyimages.s3.eu-north-1.amazonaws.com/Grocery/fresh+produce+in+a+grocery+store.png,https://apneyyimages.s3.eu-north-1.amazonaws.com/Grocery/the+inside+of+a+grocery+store.png,https://apneyyimages.s3.eu-north-1.amazonaws.com/Grocery/grocery+store+manager+in+blue+apron+showing+employee+in+yellow+apron+items+in+grocery+aisle%2C+natural+lighting%2C+photorealism.png
Freshco Food Center,,3750 W Shields Ave,Fresno,California,93722,United States,"3750 W Shields Ave, Fresno, CA 93722, USA",36.7805328,-119.8606303,Grocery,,https://apneyyimages.s3.eu-north-1.amazonaws.com/Grocery/front+long+shot+of+child%2C+facing+camera%2C+with+grocery+cart%2C+in+produce+section+of+grocery+store.png,https://apneyyimages.s3.eu-north-1.amazonaws.com/Grocery/The+worlds+largest+grocery+store.png,https://apneyyimages.s3.eu-north-1.amazonaws.com/Grocery/grocery+store+shelves_.png
Kohinoor Indian Bazaar,,270 Shaw Ave,Fresno,California,93704,United States,"270 Shaw Ave, Fresno, CA 93704, USA",36.8088839,-119.7965491,Grocery,,https://apneyyimages.s3.eu-north-1.amazonaws.com/Grocery/futurisitic+waste+free+grocery+store+concept.png,https://apneyyimages.s3.eu-north-1.amazonaws.com/Grocery/trend+grocery+store%2C+overall+atmosphere.png,https://apneyyimages.s3.eu-north-1.amazonaws.com/Grocery/grocery+store%2C+hyper+realistic.png
R-N Market Fresno,,6670 N Cedar Ave,Fresno,California,93710,United States,"6670 N Cedar Ave, Fresno, CA 93710, USA",36.8369816,-119.7531621,Grocery,,https://apneyyimages.s3.eu-north-1.amazonaws.com/Grocery/grocery+aisles+on+the+side+in+the+grocery+store.png,https://apneyyimages.s3.eu-north-1.amazonaws.com/Grocery/typical+grocery+store+in+usa%2C.png,https://apneyyimages.s3.eu-north-1.amazonaws.com/Grocery/Grocery+Store%2C.png
Golden Bowl Super Market,,1221 N First St,Fresno,California,93703,United States,"1221 N First St, Fresno, CA 93703, USA",36.7582345,-119.7731149,Grocery,,https://apneyyimages.s3.eu-north-1.amazonaws.com/Grocery/grocery+art.png,https://apneyyimages.s3.eu-north-1.amazonaws.com/Grocery/WinCo+grocery+store+chain.png,https://apneyyimages.s3.eu-north-1.amazonaws.com/Grocery/grocery+store.png
Indian store,,5206 E White Ave,Fresno,California,93727,United States,"5206 E White Ave, Fresno, CA 93727, USA",36.7510969,-119.717979,Grocery,,https://apneyyimages.s3.eu-north-1.amazonaws.com/Grocery/grocery+bags%2C+filled+kraft+bags%2C+food+bags%2C+grocery+shopping+bags.png,https://apneyyimages.s3.eu-north-1.amazonaws.com/Grocery/woman+looking+at+grocery+shelf%2C+she+is+comparing+prices%2C+interior+of+grocery+store%2C+bright+light%2C+warm%2C+daylight+(1).png,https://apneyyimages.s3.eu-north-1.amazonaws.com/Grocery/a+variety+of+grocery+store+aisles.png
Bhogal Gursharan Grocery,,4193 E Illinois Ave,Fresno,California,93702,United States,"4193 E Illinois Ave, Fresno, CA 93702, USA",36.7453747,-119.7546513,Grocery,,https://apneyyimages.s3.eu-north-1.amazonaws.com/Grocery/grocery+clerk%2C+side+view.png,https://apneyyimages.s3.eu-north-1.amazonaws.com/Grocery/woman+shopping+in+grocery+store.png,https://apneyyimages.s3.eu-north-1.amazonaws.com/Grocery/as+interior+of+art+nouveau+grocery+store.png
Sher Punjab Music & Groceries,,3022 W Clinton Ave,Fresno,California,93722,United States,"3022 W Clinton Ave, Fresno, CA 93722, USA",36.7723259,-119.8448829,Grocery,,https://apneyyimages.s3.eu-north-1.amazonaws.com/Grocery/a+1950s+grocery+store.png,https://apneyyimages.s3.eu-north-1.amazonaws.com/Grocery/in+a+grocery+store.png,https://apneyyimages.s3.eu-north-1.amazonaws.com/Grocery/grocery+collage+poster.png
Gobind Jewelers,(559) 275-2500,"3672 West Shaw Avenue, Fresno",Fresno,California,93711,United States,"3672 W Shaw Ave, Fresno, CA 93711, USA",36.8091042,-119.8594283,Jewelry,http://www.gobindjewelers.com/,https://apneyyimages.s3.eu-north-1.amazonaws.com/Jewelry_/a+high+jewellery+ad+with+diamond+jewellery+no+humans+or+figures+in+the+image.+Halloween+jewellery+ad.+Photograph.+8k+real.png,https://apneyyimages.s3.eu-north-1.amazonaws.com/Jewelry_/image+of+jewellery+stand+on+dresser+with+elegant+luxury+background.png,https://apneyyimages.s3.eu-north-1.amazonaws.com/Jewelry_/small+diamond+ring+in+the+jewellery+box%2C+hyper-realistic+image.png
A Sky Threading,(559) 287-6205,"2729 West Clinton Avenue, Fresno",Fresno,California,93705,United States,"2729 W Clinton Ave, Fresno, CA 93705, USA",36.7717539,-119.8424467,Hairstyle/Saloon,,https://apneyyimages.s3.eu-north-1.amazonaws.com/Salon_/elegant+hair+salon.png,https://apneyyimages.s3.eu-north-1.amazonaws.com/Salon_/this+salon.png,https://apneyyimages.s3.eu-north-1.amazonaws.com/Salon_/image+of+Adult+woman+having+laser+hair+removal+in+professional+beauty+salon.png
Shivani's Beauty Space - Threading Lashes Facial Waxing,(559) 878-4282,"3071 West Shaw Avenue STE 105, Fresno",Fresno,California,93711,United States,"3071 W Shaw Ave STE 105, Fresno, CA 93711, USA",36.8073666,-119.846222,Hairstyle/Saloon,,https://apneyyimages.s3.eu-north-1.amazonaws.com/Salon_/image+of+front+window+of+luxurious+light-brown+coloured+hair+salon.png,https://apneyyimages.s3.eu-north-1.amazonaws.com/Salon_/gucci+fashion+shoot+of+indian+crorpoate+model+woman+with+beautiful+long+hair+posing+in+high+fashion+pose+getting+her+nails+done+at+a+background+of+modern+salon.png,https://apneyyimages.s3.eu-north-1.amazonaws.com/Salon_/image+of+attractive+lady+enjoy+spa+salon+procedure.png
"KDS Beauty Salon, LLC",(559) 412-2207,"6554 East Woodward Avenue, Fresno",Fresno,California,93727,United States,"6554 E Woodward Ave, Fresno, CA 93727, USA",36.7238959,-119.6717153,Hairstyle/Saloon,,https://apneyyimages.s3.eu-north-1.amazonaws.com/Salon_/beauty+salon.png,https://apneyyimages.s3.eu-north-1.amazonaws.com/Salon_/luxury+salon.png,https://apneyyimages.s3.eu-north-1.amazonaws.com/Salon_/gucci+fashion+shoot+of+indian+crorpoate+model+woman+with+beautiful+long+hair+posing+in+high+fashion+pose+getting+her+nails+done+at+a+background+of+modern+salon.png
Bella Threading Salon & Spa,(559) 978-5453,"3627 West Shaw Avenue, Fresno",Fresno,California,93711,United States,"3627 W Shaw Ave, Fresno, CA 93711, USA",36.8067469,-119.8587933,Hairstyle/Saloon,,https://apneyyimages.s3.eu-north-1.amazonaws.com/Salon_/elegant+hair+salon.png,https://apneyyimages.s3.eu-north-1.amazonaws.com/Salon_/this+salon.png,https://apneyyimages.s3.eu-north-1.amazonaws.com/Salon_/image+of+Adult+woman+having+laser+hair+removal+in+professional+beauty+salon.png
Bombay Look Salon,(559) 277-1228,"5362 West Spruce Avenue, Fresno",Fresno,California,93722,United States,"5362 W Spruce Ave, Fresno, CA 93722, USA",36.8386348,-119.8892069,Hairstyle/Saloon,https://www.facebook.com/pages/Bombay-Look-Salon/100564996698715,https://apneyyimages.s3.eu-north-1.amazonaws.com/Salon_/image+of+front+window+of+luxurious+light-brown+coloured+hair+salon.png,https://apneyyimages.s3.eu-north-1.amazonaws.com/Salon_/gucci+fashion+shoot+of+indian+crorpoate+model+woman+with+beautiful+long+hair+posing+in+high+fashion+pose+getting+her+nails+done+at+a+background+of+modern+salon.png,https://apneyyimages.s3.eu-north-1.amazonaws.com/Salon_/image+of+attractive+lady+enjoy+spa+salon+procedure.png
Shubh Beauty,(559) 277-8888,"4080 West Shaw Avenue, Fresno",Fresno,California,93722,United States,"4080 W Shaw Ave, Fresno, CA 93722, USA",36.8108864,-119.8643442,Hairstyle/Saloon,,https://apneyyimages.s3.eu-north-1.amazonaws.com/Salon_/Contemporary+stylish+salon.+Salon+decor+features+sleek+chairs%2C+mirrors%2C+and+vibrant+lighting.+%2C,https://apneyyimages.s3.eu-north-1.amazonaws.com/Salon_/luxury+salon.png,https://apneyyimages.s3.eu-north-1.amazonaws.com/Salon_/hair+salon.png
Pam's Threading Salon,(559) 438-4000,"5780 North First Street #101, Fresno",Fresno,California,93710,United States,"5780 N First St #101, Fresno, CA 93710, USA",36.8226262,-119.7703772,Hairstyle/Saloon,,https://apneyyimages.s3.eu-north-1.amazonaws.com/Salon_/image+of+front+window+of+luxurious+light-brown+coloured+hair+salon.png,https://apneyyimages.s3.eu-north-1.amazonaws.com/Salon_/gucci+fashion+shoot+of+indian+crorpoate+model+woman+with+beautiful+long+hair+posing+in+high+fashion+pose+getting+her+nails+done+at+a+background+of+modern+salon.png,https://apneyyimages.s3.eu-north-1.amazonaws.com/Salon_/image+of+attractive+lady+enjoy+spa+salon+procedure.png
Unisex Threading Salon & Spa,(559) 628-7381,"7767 North First Street, Fresno",Fresno,California,93720,United States,"7767 N First St, Fresno, CA 93720, USA",36.8514321,-119.7769292,Hairstyle/Saloon,,https://apneyyimages.s3.eu-north-1.amazonaws.com/Salon_/Contemporary+stylish+salon.+Salon+decor+features+sleek+chairs%2C+mirrors%2C+and+vibrant+lighting.+%2C,https://apneyyimages.s3.eu-north-1.amazonaws.com/Salon_/luxury+salon.png,https://apneyyimages.s3.eu-north-1.amazonaws.com/Salon_/hair+salon.png
Punjabi family salon,(909) 278-2685,"3759 West Shaw Avenue, Fresno",Fresno,California,93711,United States,"3759 W Shaw Ave, Fresno, CA 93711, USA",36.807573,-119.861778,Hairstyle/Saloon,,https://apneyyimages.s3.eu-north-1.amazonaws.com/Salon_/elegant+hair+salon.png,https://apneyyimages.s3.eu-north-1.amazonaws.com/Salon_/this+salon.png,https://apneyyimages.s3.eu-north-1.amazonaws.com/Salon_/image+of+Adult+woman+having+laser+hair+removal+in+professional+beauty+salon.png
Gorgeous Salon,(559) 720-3540,"4185 West Figarden Drive #103, Fresno",Fresno,California,93722,United States,"4185 W Figarden Dr #103, Fresno, CA 93722, USA",36.8290532,-119.8663455,Hairstyle/Saloon,http://gorgeoussalon.net/,https://apneyyimages.s3.eu-north-1.amazonaws.com/Salon_/beauty+salon.png,https://apneyyimages.s3.eu-north-1.amazonaws.com/Salon_/luxury+salon.png,https://apneyyimages.s3.eu-north-1.amazonaws.com/Salon_/gucci+fashion+shoot+of+indian+crorpoate+model+woman+with+beautiful+long+hair+posing+in+high+fashion+pose+getting+her+nails+done+at+a+background+of+modern+salon.png
Perfect Threading & Henna,(559) 431-0888,"1085 East Herndon Avenue STE 108, Fresno",Fresno,California,93720,United States,"1085 E Herndon Ave STE 108, Fresno, CA 93720, USA",36.8369278,-119.7705885,Hairstyle/Saloon,,https://apneyyimages.s3.eu-north-1.amazonaws.com/Salon_/elegant+hair+salon.png,https://apneyyimages.s3.eu-north-1.amazonaws.com/Salon_/this+salon.png,https://apneyyimages.s3.eu-north-1.amazonaws.com/Salon_/image+of+Adult+woman+having+laser+hair+removal+in+professional+beauty+salon.png
Jannat Threading Salon,(559) 728-2695,"3730 West Shields Avenue, Fresno",Fresno,California,93722,United States,"3730 W Shields Ave, Fresno, CA 93722, USA",36.7802332,-119.8597673,Hairstyle/Saloon,https://www.jannatthreadingsalon.com/,https://apneyyimages.s3.eu-north-1.amazonaws.com/Salon_/image+of+front+window+of+luxurious+light-brown+coloured+hair+salon.png,https://apneyyimages.s3.eu-north-1.amazonaws.com/Salon_/gucci+fashion+shoot+of+indian+crorpoate+model+woman+with+beautiful+long+hair+posing+in+high+fashion+pose+getting+her+nails+done+at+a+background+of+modern+salon.png,https://apneyyimages.s3.eu-north-1.amazonaws.com/Salon_/image+of+attractive+lady+enjoy+spa+salon+procedure.png
Lucky family salon,(909) 278-2685,"3759 West Shaw Avenue, Fresno",Fresno,California,93711,United States,"3759 W Shaw Ave, Fresno, CA 93711, USA",36.807573,-119.861778,Hairstyle/Saloon,,https://apneyyimages.s3.eu-north-1.amazonaws.com/Salon_/Beauty+salon%2C.png,https://apneyyimages.s3.eu-north-1.amazonaws.com/Salon_/image+of+front+window+of+luxurious+light-brown+coloured+hair+salon.png,https://apneyyimages.s3.eu-north-1.amazonaws.com/Salon_/gucci+fashion+shoot+of+indian+crorpoate+model+woman+with+beautiful+long+hair+posing+in+high+fashion+pose+getting+her+nails+done+at+a+background+of+modern+salon.png
Em Lash Studio,(559) 455-0700,"5125 Cesar Chavez Boulevard, Fresno",Fresno,California,93727,United States,"5125 Cesar Chavez Blvd, Fresno, CA 93727, USA",36.7380475,-119.7216253,Hairstyle/Saloon,,https://apneyyimages.s3.eu-north-1.amazonaws.com/Salon_/beauty+salon.png,https://apneyyimages.s3.eu-north-1.amazonaws.com/Salon_/luxury+salon.png,https://apneyyimages.s3.eu-north-1.amazonaws.com/Salon_/gucci+fashion+shoot+of+indian+crorpoate+model+woman+with+beautiful+long+hair+posing+in+high+fashion+pose+getting+her+nails+done+at+a+background+of+modern+salon.png
sandsbeautystudio,(559) 570-5832,"6061 105 Cesar Chavez Blvd Ste 105, Fresno",Fresno,California,93727,United States,"6061 105 Cesar Chavez Blvd Ste 105, Fresno, CA 93727, USA",36.7358601,-119.6805604,Hairstyle/Saloon,,https://apneyyimages.s3.eu-north-1.amazonaws.com/Salon_/elegant+hair+salon.png,https://apneyyimages.s3.eu-north-1.amazonaws.com/Salon_/this+salon.png,https://apneyyimages.s3.eu-north-1.amazonaws.com/Salon_/image+of+Adult+woman+having+laser+hair+removal+in+professional+beauty+salon.png
Satvir kaur - Threading and eyebrows,(559) 567-5017,"4253 West Fremont Avenue, Fresno",Fresno,California,93722,United States,"4253 W Fremont Ave, Fresno, CA 93722, USA",36.8341617,-119.8682063,Hairstyle/Saloon,,https://apneyyimages.s3.eu-north-1.amazonaws.com/Salon_/image+of+front+window+of+luxurious+light-brown+coloured+hair+salon.png,https://apneyyimages.s3.eu-north-1.amazonaws.com/Salon_/gucci+fashion+shoot+of+indian+crorpoate+model+woman+with+beautiful+long+hair+posing+in+high+fashion+pose+getting+her+nails+done+at+a+background+of+modern+salon.png,https://apneyyimages.s3.eu-north-1.amazonaws.com/Salon_/image+of+attractive+lady+enjoy+spa+salon+procedure.png
"PR Plumbing, Heating & Air Conditioning Inc.",(559) 244-0440,"1504 North Maple Avenue, Fresno",Fresno,California,93703,United States,"1504 N Maple Ave, Fresno, CA 93703, USA",36.7633562,-119.7449305,Plumber,https://www.prplumbingfresno.com/?utm_source=omg-gbp&utm_medium=webclick,https://apneyyimages.s3.eu-north-1.amazonaws.com/Plumber/Electric+Hot+Water+Brisbane+plumber+9_19.png,https://apneyyimages.s3.eu-north-1.amazonaws.com/Plumber/Electric+Hot+Water+Brisbane+plumber+9_19.png,https://apneyyimages.s3.eu-north-1.amazonaws.com/Plumber/Electric+Hot+Water+Brisbane+plumber+9_19.png
R&G Threading Bar,(559) 231-5650,"7795 North First Street, Fresno",Fresno,California,93720,United States,"7795 N First St, Fresno, CA 93720, USA",36.8517363,-119.7754733,Hairstyle/Saloon,,https://apneyyimages.s3.eu-north-1.amazonaws.com/Salon_/beauty+salon.png,https://apneyyimages.s3.eu-north-1.amazonaws.com/Salon_/luxury+salon.png,https://apneyyimages.s3.eu-north-1.amazonaws.com/Salon_/gucci+fashion+shoot+of+indian+crorpoate+model+woman+with+beautiful+long+hair+posing+in+high+fashion+pose+getting+her+nails+done+at+a+background+of+modern+salon.png
Mannat Beauty Salon,(559) 455-0700,"5125 Cesar Chavez Boulevard, Fresno",Fresno,California,93727,United States,"5125 Cesar Chavez Blvd, Fresno, CA 93727, USA",36.7381702,-119.7213751,Hairstyle/Saloon,,https://apneyyimages.s3.eu-north-1.amazonaws.com/Salon_/Contemporary+stylish+salon.+Salon+decor+features+sleek+chairs%2C+mirrors%2C+and+vibrant+lighting.+%2C,https://apneyyimages.s3.eu-north-1.amazonaws.com/Salon_/luxury+salon.png,https://apneyyimages.s3.eu-north-1.amazonaws.com/Salon_/hair+salon.png
Perfect Threading & Henna #4,(559) 302-9979,"4366 West Shaw Avenue, Fresno",Fresno,California,93722,United States,"4366 W Shaw Ave, Fresno, CA 93722, USA",36.8093393,-119.8705399,Hairstyle/Saloon,http://perfectthreadingandhenna.com/,https://apneyyimages.s3.eu-north-1.amazonaws.com/Salon_/beauty+salon.png,https://apneyyimages.s3.eu-north-1.amazonaws.com/Salon_/luxury+salon.png,https://apneyyimages.s3.eu-north-1.amazonaws.com/Salon_/gucci+fashion+shoot+of+indian+crorpoate+model+woman+with+beautiful+long+hair+posing+in+high+fashion+pose+getting+her+nails+done+at+a+background+of+modern+salon.png
Iknoor Threading Center,(559) 213-0684,"6525 North Riverside Drive #103, Fresno",Fresno,California,93722,United States,"6525 N Riverside Dr #103, Fresno, CA 93722, USA",36.8328861,-119.9085926,Hairstyle/Saloon,,https://apneyyimages.s3.eu-north-1.amazonaws.com/Salon_/Contemporary+stylish+salon.+Salon+decor+features+sleek+chairs%2C+mirrors%2C+and+vibrant+lighting.+%2C,https://apneyyimages.s3.eu-north-1.amazonaws.com/Salon_/luxury+salon.png,https://apneyyimages.s3.eu-north-1.amazonaws.com/Salon_/hair+salon.png
PamÃ¢â‚¬â„¢s Threading and Henna Salon,(559) 515-6566,"4959 Cesar Chavez Boulevard, Fresno",Fresno,California,93727,United States,"4959 Cesar Chavez Blvd, Fresno, CA 93727, USA",36.7362352,-119.729302,Hairstyle/Saloon,,https://apneyyimages.s3.eu-north-1.amazonaws.com/Salon_/elegant+hair+salon.png,https://apneyyimages.s3.eu-north-1.amazonaws.com/Salon_/this+salon.png,https://apneyyimages.s3.eu-north-1.amazonaws.com/Salon_/image+of+Adult+woman+having+laser+hair+removal+in+professional+beauty+salon.png
Lucky Studio,(530) 845-0818,"3612 West Shaw Avenue, Fresno",Fresno,California,93711,United States,"3612 W Shaw Ave, Fresno, CA 93711, USA",36.8097861,-119.8584376,Hairstyle/Saloon,,https://apneyyimages.s3.eu-north-1.amazonaws.com/Salon_/image+of+front+window+of+luxurious+light-brown+coloured+hair+salon.png,https://apneyyimages.s3.eu-north-1.amazonaws.com/Salon_/gucci+fashion+shoot+of+indian+crorpoate+model+woman+with+beautiful+long+hair+posing+in+high+fashion+pose+getting+her+nails+done+at+a+background+of+modern+salon.png,https://apneyyimages.s3.eu-north-1.amazonaws.com/Salon_/image+of+attractive+lady+enjoy+spa+salon+procedure.png
Hair Salon Eboneese Creations,(559) 442-8916,"1458 West Shaw Avenue, Fresno",Fresno,California,93711,United States,"1458 W Shaw Ave, Fresno, CA 93711, USA",36.8085566,-119.8187876,Hairstyle/Saloon,,https://apneyyimages.s3.eu-north-1.amazonaws.com/Salon_/Beauty+salon%2C.png,https://apneyyimages.s3.eu-north-1.amazonaws.com/Salon_/image+of+front+window+of+luxurious+light-brown+coloured+hair+salon.png,https://apneyyimages.s3.eu-north-1.amazonaws.com/Salon_/gucci+fashion+shoot+of+indian+crorpoate+model+woman+with+beautiful+long+hair+posing+in+high+fashion+pose+getting+her+nails+done+at+a+background+of+modern+salon.png
A-1 Eyebrow & Beauty Salon,(559) 276-5594,"2450 North Brawley Avenue #105, Fresno",Fresno,California,93722,United States,"2450 N Brawley Ave #105, Fresno, CA 93722, USA",36.773148,-119.861755,Hairstyle/Saloon,,https://apneyyimages.s3.eu-north-1.amazonaws.com/Salon_/beauty+salon.png,https://apneyyimages.s3.eu-north-1.amazonaws.com/Salon_/luxury+salon.png,https://apneyyimages.s3.eu-north-1.amazonaws.com/Salon_/gucci+fashion+shoot+of+indian+crorpoate+model+woman+with+beautiful+long+hair+posing+in+high+fashion+pose+getting+her+nails+done+at+a+background+of+modern+salon.png
S&S Beauty Studio,(559) 570-5832,"6061 Cesar Chavez Blvd Ste 105, Fresno",Fresno,California,93727,United States,"6061 Cesar Chavez Blvd Ste 105, Fresno, CA 93727, USA",36.7358601,-119.6805604,Hairstyle/Saloon,,https://apneyyimages.s3.eu-north-1.amazonaws.com/Salon_/Contemporary+stylish+salon.+Salon+decor+features+sleek+chairs%2C+mirrors%2C+and+vibrant+lighting.+%2C,https://apneyyimages.s3.eu-north-1.amazonaws.com/Salon_/luxury+salon.png,https://apneyyimages.s3.eu-north-1.amazonaws.com/Salon_/hair+salon.png
Shades of Beauty,(559) 457-9814,"2412 East Ashlan Avenue, Fresno",Fresno,California,93726,United States,"2412 E Ashlan Ave, Fresno, CA 93726, USA",36.7936324,-119.7823667,Hairstyle/Saloon,https://linktr.ee/sobtalent,https://apneyyimages.s3.eu-north-1.amazonaws.com/Salon_/elegant+hair+salon.png,https://apneyyimages.s3.eu-north-1.amazonaws.com/Salon_/this+salon.png,https://apneyyimages.s3.eu-north-1.amazonaws.com/Salon_/image+of+Adult+woman+having+laser+hair+removal+in+professional+beauty+salon.png
Style & smile Beauty Salon,(559) 283-8579,"5627 E Cesar Chavez Blvd # 110, Fresno",Fresno,California,93727,United States,"5627 E Cesar Chavez Blvd # 110, Fresno, CA 93727, USA",36.7367865,-119.6984853,Hairstyle/Saloon,,https://apneyyimages.s3.eu-north-1.amazonaws.com/Salon_/image+of+front+window+of+luxurious+light-brown+coloured+hair+salon.png,https://apneyyimages.s3.eu-north-1.amazonaws.com/Salon_/gucci+fashion+shoot+of+indian+crorpoate+model+woman+with+beautiful+long+hair+posing+in+high+fashion+pose+getting+her+nails+done+at+a+background+of+modern+salon.png,https://apneyyimages.s3.eu-north-1.amazonaws.com/Salon_/image+of+attractive+lady+enjoy+spa+salon+procedure.png
Lavish by kash,(559) 273-5222,"816 East Fern Avenue, Fresno",Fresno,California,93728,United States,"816 E Fern Ave, Fresno, CA 93728, USA",36.7586299,-119.8006768,Hairstyle/Saloon,,https://apneyyimages.s3.eu-north-1.amazonaws.com/Salon_/Beauty+salon%2C.png,https://apneyyimages.s3.eu-north-1.amazonaws.com/Salon_/image+of+front+window+of+luxurious+light-brown+coloured+hair+salon.png,https://apneyyimages.s3.eu-north-1.amazonaws.com/Salon_/gucci+fashion+shoot+of+indian+crorpoate+model+woman+with+beautiful+long+hair+posing+in+high+fashion+pose+getting+her+nails+done+at+a+background+of+modern+salon.png
Maida's Touch Salon,(559) 439-4621,"6051 North Palm Avenue, Fresno",Fresno,California,93704,United States,"6051 N Palm Ave, Fresno, CA 93704, USA",36.8239379,-119.8085884,Hairstyle/Saloon,https://www.facebook.com/Maidas-Touch-Salon-182254711530/,https://apneyyimages.s3.eu-north-1.amazonaws.com/Salon_/beauty+salon.png,https://apneyyimages.s3.eu-north-1.amazonaws.com/Salon_/luxury+salon.png,https://apneyyimages.s3.eu-north-1.amazonaws.com/Salon_/gucci+fashion+shoot+of+indian+crorpoate+model+woman+with+beautiful+long+hair+posing+in+high+fashion+pose+getting+her+nails+done+at+a+background+of+modern+salon.png
The Medical Spa & Hungry Hair Salon,(559) 229-9553,"680 West Shaw Avenue Suite 101, Fresno",Fresno,California,93704,United States,"680 W Shaw Ave Suite 101, Fresno, CA 93704, USA",36.8098451,-119.8059996,Hairstyle/Saloon,http://www.thespaatfgv.com/,https://apneyyimages.s3.eu-north-1.amazonaws.com/Salon_/Contemporary+stylish+salon.+Salon+decor+features+sleek+chairs%2C+mirrors%2C+and+vibrant+lighting.+%2C,https://apneyyimages.s3.eu-north-1.amazonaws.com/Salon_/luxury+salon.png,https://apneyyimages.s3.eu-north-1.amazonaws.com/Salon_/hair+salon.png
Smart Cuts,(559) 456-8000,"5183 East Belmont Avenue, Fresno",Fresno,California,93727,United States,"5183 E Belmont Ave, Fresno, CA 93727, USA",36.7515252,-119.7189403,Hairstyle/Saloon,http://smart-cuts-fresno.jany.io/,https://apneyyimages.s3.eu-north-1.amazonaws.com/Salon_/Beauty+salon%2C.png,https://apneyyimages.s3.eu-north-1.amazonaws.com/Salon_/image+of+front+window+of+luxurious+light-brown+coloured+hair+salon.png,https://apneyyimages.s3.eu-north-1.amazonaws.com/Salon_/gucci+fashion+shoot+of+indian+crorpoate+model+woman+with+beautiful+long+hair+posing+in+high+fashion+pose+getting+her+nails+done+at+a+background+of+modern+salon.png
DESI HAIRSTYLE,(929) 312-8566,"3676 West Shaw Avenue, Fresno",Fresno,California,93711,United States,"3676 W Shaw Ave, Fresno, CA 93711, USA",36.809147,-119.8595298,Hairstyle/Saloon,,https://apneyyimages.s3.eu-north-1.amazonaws.com/Salon_/beauty+salon.png,https://apneyyimages.s3.eu-north-1.amazonaws.com/Salon_/luxury+salon.png,https://apneyyimages.s3.eu-north-1.amazonaws.com/Salon_/gucci+fashion+shoot+of+indian+crorpoate+model+woman+with+beautiful+long+hair+posing+in+high+fashion+pose+getting+her+nails+done+at+a+background+of+modern+salon.png
Angkor Hair Salon & Barbershop,(559) 917-0608,"4792 East Belmont Avenue, Fresno",Fresno,California,93702,United States,"4792 E Belmont Ave, Fresno, CA 93702, USA",36.7502539,-119.7367721,Hairstyle/Saloon,,https://apneyyimages.s3.eu-north-1.amazonaws.com/Salon_/elegant+hair+salon.png,https://apneyyimages.s3.eu-north-1.amazonaws.com/Salon_/this+salon.png,https://apneyyimages.s3.eu-north-1.amazonaws.com/Salon_/image+of+Adult+woman+having+laser+hair+removal+in+professional+beauty+salon.png
Hair by Manal,(559) 435-2942,"5430 North Palm Avenue #112, Fresno",Fresno,California,93704,United States,"5430 N Palm Ave #112, Fresno, CA 93704, USA",36.8162627,-119.8079164,Hairstyle/Saloon,http://www.twelvestonessalon.com/,https://apneyyimages.s3.eu-north-1.amazonaws.com/Salon_/image+of+front+window+of+luxurious+light-brown+coloured+hair+salon.png,https://apneyyimages.s3.eu-north-1.amazonaws.com/Salon_/gucci+fashion+shoot+of+indian+crorpoate+model+woman+with+beautiful+long+hair+posing+in+high+fashion+pose+getting+her+nails+done+at+a+background+of+modern+salon.png,https://apneyyimages.s3.eu-north-1.amazonaws.com/Salon_/image+of+attractive+lady+enjoy+spa+salon+procedure.png
Diva's Hair Salon,(559) 486-8133,"637 East Olive Avenue, Fresno",Fresno,California,93728,United States,"637 E Olive Ave, Fresno, CA 93728, USA",36.757805,-119.8038185,Hairstyle/Saloon,http://divas-hair-salon.lany.io/,https://apneyyimages.s3.eu-north-1.amazonaws.com/Salon_/Beauty+salon%2C.png,https://apneyyimages.s3.eu-north-1.amazonaws.com/Salon_/image+of+front+window+of+luxurious+light-brown+coloured+hair+salon.png,https://apneyyimages.s3.eu-north-1.amazonaws.com/Salon_/gucci+fashion+shoot+of+indian+crorpoate+model+woman+with+beautiful+long+hair+posing+in+high+fashion+pose+getting+her+nails+done+at+a+background+of+modern+salon.png
Sandra's Hair Salon,(559) 222-1251,"2386 East Gettysburg Avenue, Fresno",Fresno,California,93726,United States,"2386 E Gettysburg Ave, Fresno, CA 93726, USA",36.8009381,-119.7827845,Hairstyle/Saloon,http://facebook.com/SandrasHairSalon,https://apneyyimages.s3.eu-north-1.amazonaws.com/Salon_/Contemporary+stylish+salon.+Salon+decor+features+sleek+chairs%2C+mirrors%2C+and+vibrant+lighting.+%2C,https://apneyyimages.s3.eu-north-1.amazonaws.com/Salon_/luxury+salon.png,https://apneyyimages.s3.eu-north-1.amazonaws.com/Salon_/hair+salon.png
Lucky punjabi barber clovis,(530) 845-0818,"372 South Locan Avenue, Fresno",Fresno,California,93737,United States,"372 S Locan Ave, Fresno, CA 93737, USA",36.7312161,-119.6540314,Hairstyle/Saloon,,https://apneyyimages.s3.eu-north-1.amazonaws.com/Salon_/Beauty+salon%2C.png,https://apneyyimages.s3.eu-north-1.amazonaws.com/Salon_/image+of+front+window+of+luxurious+light-brown+coloured+hair+salon.png,https://apneyyimages.s3.eu-north-1.amazonaws.com/Salon_/gucci+fashion+shoot+of+indian+crorpoate+model+woman+with+beautiful+long+hair+posing+in+high+fashion+pose+getting+her+nails+done+at+a+background+of+modern+salon.png
Punjabi food home made,(559) 569-4108,"5312 North Valentine Avenue, Fresno",Fresno,California,93711,United States,"5312 N Valentine Ave, Fresno, CA 93711, USA",36.8133208,-119.8504282,Home service,,https://apneyyimages.s3.eu-north-1.amazonaws.com/home+cleaner/A+cleaner+at+work.png,https://apneyyimages.s3.eu-north-1.amazonaws.com/home+cleaner/Photo%2C+cleaner%2C+professional+cleaner%2C+on+a+blue+background.png,https://apneyyimages.s3.eu-north-1.amazonaws.com/home+cleaner/Caucasian+man+uses+vacuum+cleaner+to+keep+living+space+tidy.+Man+with+vacuum+cleaner+in+hand+ensures+home+remaining+tidy+place+to+live.+Vertical+photo.png
"BAPS Shri Swaminarayan Mandir, Fresno",(559) 264-1001,8105 N Maple Ave,Fresno,California,93720,United States,"8105 N Maple Ave, Fresno, CA 93720, USA",36.85342,-119.748,Temple,,https://apneyyimages.s3.eu-north-1.amazonaws.com/Temple/thanjavur+temple+image+chola+dynasty.png,https://apneyyimages.s3.eu-north-1.amazonaws.com/Temple/diwali+indian+Temple+Celebrations.png,https://apneyyimages.s3.eu-north-1.amazonaws.com/Temple/thanjavur+temple+image+chola+dynasty.png
Durga Mata Mandir,(559) 213-6168,3344 W Floradora Ave,Fresno,California,93722,United States,"3344 W Floradora Ave, Fresno, CA 93722, USA",36.76122,-119.852,Temple,,https://apneyyimages.s3.eu-north-1.amazonaws.com/Temple/an+Indian+temple+on+mountain+%2C+focus+on+temple%2C+left+angle+image%2C+mountain+background%2C+base+river%2C+2x+zoom+out+picture.png,https://apneyyimages.s3.eu-north-1.amazonaws.com/Temple/an+Indian+temple+on+mountain+%2C+focus+on+temple%2C+left+angle+image%2C+mountain+background%2C+base+river%2C+2x+zoom+out+picture.png,https://apneyyimages.s3.eu-north-1.amazonaws.com/Temple/diwali+indian+Temple+Celebrations.png
Sikh temple,,3060 S Cherry Ave,Fresno,California,93706,United States,"3060 S Cherry Ave, Fresno, CA 93706, USA",36.69116,-119.781,Gurudawara,,https://apneyyimages.s3.eu-north-1.amazonaws.com/Gurudwara/steptodown.com213314.jpg,https://apneyyimages.s3.eu-north-1.amazonaws.com/Gurudwara/steptodown.com104233.jpg,https://apneyyimages.s3.eu-north-1.amazonaws.com/Gurudwara/steptodown.com953984.jpg
Gurdwara Gur Nanak Parkash,(559) 834-4780,4250 E Lincoln Ave,Fresno,California,93725,United States,"4250 E Lincoln Ave, Fresno, CA 93725, USA",36.64992,-119.712,Gurudawara,,https://apneyyimages.s3.eu-north-1.amazonaws.com/Gurudwara/steptodown.com592209.jpg,https://apneyyimages.s3.eu-north-1.amazonaws.com/Gurudwara/steptodown.com213314.jpg,https://apneyyimages.s3.eu-north-1.amazonaws.com/Gurudwara/steptodown.com592209.jpg
Darbar Sri Guru Granth Sahib Ji Fresno,(559) 999-8397,2630 N Locan Ave,Fresno,California,93727,United States,"2630 N Locan Ave, Fresno, CA 93727, USA",36.774206,-119.654,Gurudawara,,https://apneyyimages.s3.eu-north-1.amazonaws.com/Gurudwara/steptodown.com262650.jpg,https://apneyyimages.s3.eu-north-1.amazonaws.com/Gurudwara/steptodown.com262650.jpg,https://apneyyimages.s3.eu-north-1.amazonaws.com/Gurudwara/steptodown.com213314.jpg
Shri Guru Ravidass Sabha,(559) 486-3091,5025 S Cherry Ave,Fresno,California,93706,United States,"5025 S Cherry Ave, Fresno, CA 93706, USA",36.66296,-119.782,Gurudawara,,https://apneyyimages.s3.eu-north-1.amazonaws.com/Gurudwara/IMG_6134-1024x768.jpg,https://apneyyimages.s3.eu-north-1.amazonaws.com/Gurudwara/IMG_6134-1024x768.jpg,https://apneyyimages.s3.eu-north-1.amazonaws.com/Gurudwara/steptodown.com104233.jpg
Gurdwara Nanaksar Sahib,(559) 442-9323,3060 S Cherry Ave,Fresno,California,93706,United States,"3060 S Cherry Ave, Fresno, CA 93706, USA",36.69123,-119.781,Gurudawara,,https://apneyyimages.s3.eu-north-1.amazonaws.com/Gurudwara/steptodown.com633676.jpg,https://apneyyimages.s3.eu-north-1.amazonaws.com/Gurudwara/steptodown.com358979.jpg,https://apneyyimages.s3.eu-north-1.amazonaws.com/Gurudwara/steptodown.com633676.jpg
Nanaksar Satsang Sabha,(559) 271-5870,3860 N Cornelia Ave,Fresno,California,93722,United States,"3860 N Cornelia Ave, Fresno, CA 93722, USA",36.79224,-119.879,Gurudawara,,https://apneyyimages.s3.eu-north-1.amazonaws.com/Gurudwara/steptodown.com551022.jpg,https://apneyyimages.s3.eu-north-1.amazonaws.com/Gurudwara/steptodown.com551022.jpg,https://apneyyimages.s3.eu-north-1.amazonaws.com/Gurudwara/steptodown.com551022.jpg
Sikh Temple Association of Fresno,(559) 221-5141,4827 N Parkway Dr,Fresno,California,93722,United States,"4827 N Parkway Dr, Fresno, CA 93722, USA",36.80437,-119.883,Gurudawara,,https://apneyyimages.s3.eu-north-1.amazonaws.com/Gurudwara/steptodown.com440585.jpg,https://apneyyimages.s3.eu-north-1.amazonaws.com/Gurudwara/steptodown.com104233.jpg,https://apneyyimages.s3.eu-north-1.amazonaws.com/Gurudwara/steptodown.com440585.jpg
Darbar Sampardai Lopon Fresno Sant Ashram,,1501 N Brawley Ave,Fresno,California,93722,United States,"1501 N Brawley Ave, Fresno, CA 93722, USA",36.75899,-119.864,Gurudawara,,https://apneyyimages.s3.eu-north-1.amazonaws.com/Gurudwara/steptodown.com262650.jpg,https://apneyyimages.s3.eu-north-1.amazonaws.com/Gurudwara/steptodown.com262650.jpg,https://apneyyimages.s3.eu-north-1.amazonaws.com/Gurudwara/steptodown.com104233.jpg
Sikh Institute Fresno,(559) 221-5141,4827 N Parkway Dr,Fresno,California,93722,United States,"4827 N Parkway Dr, Fresno, CA 93722, USA",36.80432,-119.883,Gurudawara,,https://apneyyimages.s3.eu-north-1.amazonaws.com/Gurudwara/IMG_6134-1024x768.jpg,https://apneyyimages.s3.eu-north-1.amazonaws.com/Gurudwara/IMG_6134-1024x768.jpg,https://apneyyimages.s3.eu-north-1.amazonaws.com/Gurudwara/IMG_6134-1024x768.jpg
Raminder Pal Singh Cheema MD,(559) 320-0580,"2210 East Illinois Avenue #401, Fresno",Fresno,California,93701,United States,"2210 E Illinois Ave #401, Fresno, CA 93701, USA",36.744766,-119.784423,Hospital,https://www.inspirehealth.org/md-profiles/raminder-pal-singh-cheema/,https://apneyyimages.s3.eu-north-1.amazonaws.com/Hospital_/Film+Still%2C+Extreme+wide+shot+of+Elderly+Indian+Woman%2C+lays+in+a+hospital+bed%2C+bright+daytime%2C+natural+lighting%2C+cinematography+style+of+Roger+Deakins.png,https://apneyyimages.s3.eu-north-1.amazonaws.com/Hospital_/photo+of+indian+doctor+woman+standing+in+Hospital.png,https://apneyyimages.s3.eu-north-1.amazonaws.com/Hospital_/indian+doctor%2C4k%2Crealistic%2Cscrubs%2Chospital.png
"Kuldip Behniwal, MD",(559) 321-2800,"7014 North Whitney Avenue, Fresno",Fresno,California,93720,United States,"7014 N Whitney Ave, Fresno, CA 93720, USA",36.8381817,-119.7412863,Hospital,http://www.urologyassociates.net/,https://apneyyimages.s3.eu-north-1.amazonaws.com/Hospital_/A+Landscape+photo+of+a+young+Indian+Doctor+Holding+a+stethoscope+facing+the+camera+in+NewYork-Presbyterian+Hospital.png,https://apneyyimages.s3.eu-north-1.amazonaws.com/Hospital_/indian+doctor+in+a+doctor+coat%2Cforencic+doctor%2Ccinematic+shot%2Cin+hospital%2Csoft+light%2Cfull+body%2Chospital+background.png,https://apneyyimages.s3.eu-north-1.amazonaws.com/Hospital_/generate+a+realistic+image+of+an+african+female+nurse+in+hospital%2Cwearing+a+safety+mask%2C+wearing+hospital+outfit.png
DHILLON TRUCKS HOSPITAL,(559) 495-8788,"2347 West Belmont Avenue, Fresno",Fresno,California,93728,United States,"2347 W Belmont Ave, Fresno, CA 93728, USA",36.7498095,-119.8403589,Hospital,,https://apneyyimages.s3.eu-north-1.amazonaws.com/Hospital_/a+photograph+of+a+newborn+infant+is+in+an+incubator+in+a+hospital%2C+indian+origin%2C+brown+skin%2C+realistic.png,https://apneyyimages.s3.eu-north-1.amazonaws.com/Hospital_/indian+doctor+video+calling+to+a+patient%2C+looking+on+a+pc+screen%2C+stock+image%2C+background+can+be+of+hospital+or+clinic%2C.png,https://apneyyimages.s3.eu-north-1.amazonaws.com/Hospital_/hospital+inside+-+premium+image.png
Dr. Priyanga Jayakumar,(866) 342-6012,"7060 North Recreation Avenue #101, Fresno",Fresno,California,93720,United States,"7060 N Recreation Ave #101, Fresno, CA 93720, USA",36.8388123,-119.7396668,Hospital,,https://apneyyimages.s3.eu-north-1.amazonaws.com/Hospital_/an+indian+beautiful+women+sitting+on+a+hospital+bed%2C4k+realistic.png,https://apneyyimages.s3.eu-north-1.amazonaws.com/Hospital_/indian+doctor%2C4k%2Crealistic%2Cscrubs%2Chospital.png,https://apneyyimages.s3.eu-north-1.amazonaws.com/Hospital_/Hospital+Room_+Take+an+image+of+a+clean%2C+well-organized+hospital+room+with+focus+on+patient+comfort.png
Kanwar T. Mahal MD,(559) 437-9100,"7710 North Fresno Street #102, Fresno",Fresno,California,93720,United States,"7710 N Fresno St #102, Fresno, CA 93720, USA",36.8504142,-119.7834269,Hospital,http://www.kanwartmahalmd.com/,https://apneyyimages.s3.eu-north-1.amazonaws.com/Hospital_/an+indian+chubby+pregnant+woman+wearing+cotton+kurti%2C+hospital+interior+background%2C+morning%2C+photography.png,https://apneyyimages.s3.eu-north-1.amazonaws.com/Hospital_/indian+men+laying+down+with+mask+on+face+on+bed+in+hospital+suffering+from+corona+virus.png,https://apneyyimages.s3.eu-north-1.amazonaws.com/Hospital_/hyperrealistic+image+of+a+hospital+stretcher%2C+pastel+blue+tones.png
Simranjeet Kaur,(559) 457-5500,"2505 East Divisadero Street, Fresno",Fresno,California,93721,United States,"2505 E Divisadero St, Fresno, CA 93721, USA",36.7435689,-119.7809193,Hospital,,https://apneyyimages.s3.eu-north-1.amazonaws.com/Hospital_/Blurred+hospital+image%2C+hospital+patient+bed%2C+hospital+cleaning%2C+hospital+disinfection+cleaning%2C+emergency+patient+bed+cleaning.png,https://apneyyimages.s3.eu-north-1.amazonaws.com/Hospital_/old+aged+indian+lady+in+hospital+bed+sick.png,https://apneyyimages.s3.eu-north-1.amazonaws.com/Hospital_/an+indian+chubby+pregnant+woman+wearing+cotton+kurti%2C+hospital+interior+background%2C+morning%2C+photography.png
"Anshu Varma, M.D.",(559) 603-7400,"1570 East Herndon Avenue, Fresno",Fresno,California,93720,United States,"1570 E Herndon Ave, Fresno, CA 93720, USA",36.8380679,-119.7597448,Hospital,https://www.communityhealthpartners.org/find-a-provider/anshu-varma,https://apneyyimages.s3.eu-north-1.amazonaws.com/Hospital_/Film+Still%2C+Extreme+wide+shot+of+Elderly+Indian+Woman%2C+lays+in+a+hospital+bed%2C+bright+daytime%2C+natural+lighting%2C+cinematography+style+of+Roger+Deakins.png,https://apneyyimages.s3.eu-north-1.amazonaws.com/Hospital_/photo+of+indian+doctor+woman+standing+in+Hospital.png,https://apneyyimages.s3.eu-north-1.amazonaws.com/Hospital_/indian+doctor%2C4k%2Crealistic%2Cscrubs%2Chospital.png